<?xml version="1.0" encoding="UTF-8"?>
<gpx xmlns="http://www.topografix.com/GPX/1/1"
     xmlns:pgr="https://joshuaspence.github.io/pokemon-go-gpx-routes/gpx/1"
     version="1.1"
     creator="https://github.com/joshuaspence/pokemon-go-gpx-routes">
  <wpt lat="41.391129" lon="2.164906">
    <name>Barcelona</name>
    <extensions>
      <pgr:country>Spain</pgr:country>
    </extensions>
  </wpt>
  <wpt lat="40.423504" lon="-3.700581">
    <name>Madrid</name>
    <extensions>
      <pgr:country>Spain</pgr:country>
    </extensions>
  </wpt>
</gpx>
