<?xml version="1.0" encoding="UTF-8"?>
<gpx xmlns="http://www.topografix.com/GPX/1/1" version="1.1">
  <trk>
    <name>Gion, Kyoto</name>
    <desc>Japan</desc>
    <trkseg>
      <trkpt lat="35.004720" lon="135.771190"/>
      <trkpt lat="35.004720" lon="135.771200"/>
      <trkpt lat="35.005120" lon="135.771150"/>
      <trkpt lat="35.005360" lon="135.770600"/>
      <trkpt lat="35.005190" lon="135.770350"/>
      <trkpt lat="35.005560" lon="135.769750"/>
      <trkpt lat="35.005550" lon="135.769460"/>
      <trkpt lat="35.005580" lon="135.769110"/>
      <trkpt lat="35.005680" lon="135.768540"/>
      <trkpt lat="35.006040" lon="135.768340"/>
      <trkpt lat="35.006620" lon="135.768290"/>
      <trkpt lat="35.007010" lon="135.768070"/>
      <trkpt lat="35.007280" lon="135.768360"/>
      <trkpt lat="35.007560" lon="135.768330"/>
      <trkpt lat="35.008080" lon="135.768380"/>
      <trkpt lat="35.008130" lon="135.767610"/>
      <trkpt lat="35.008260" lon="135.767230"/>
      <trkpt lat="35.008670" lon="135.766960"/>
      <trkpt lat="35.008610" lon="135.766490"/>
      <trkpt lat="35.008550" lon="135.766350"/>
      <trkpt lat="35.008680" lon="135.765890"/>
      <trkpt lat="35.009020" lon="135.765830"/>
      <trkpt lat="35.009640" lon="135.765670"/>
      <trkpt lat="35.009880" lon="135.765900"/>
      <trkpt lat="35.010270" lon="135.765640"/>
      <trkpt lat="35.010650" lon="135.765680"/>
      <trkpt lat="35.011030" lon="135.765390"/>
      <trkpt lat="35.011020" lon="135.764690"/>
      <trkpt lat="35.011090" lon="135.763990"/>
      <trkpt lat="35.010640" lon="135.763850"/>
      <trkpt lat="35.011020" lon="135.763400"/>
      <trkpt lat="35.010670" lon="135.763090"/>
      <trkpt lat="35.009860" lon="135.762870"/>
      <trkpt lat="35.009770" lon="135.762440"/>
      <trkpt lat="35.009180" lon="135.762470"/>
      <trkpt lat="35.008650" lon="135.762260"/>
      <trkpt lat="35.008690" lon="135.761690"/>
      <trkpt lat="35.007880" lon="135.762480"/>
      <trkpt lat="35.007400" lon="135.762880"/>
      <trkpt lat="35.007300" lon="135.762330"/>
      <trkpt lat="35.006890" lon="135.762530"/>
      <trkpt lat="35.007030" lon="135.763300"/>
      <trkpt lat="35.006610" lon="135.763300"/>
      <trkpt lat="35.006210" lon="135.763360"/>
      <trkpt lat="35.006290" lon="135.762970"/>
      <trkpt lat="35.005960" lon="135.762560"/>
      <trkpt lat="35.005750" lon="135.762640"/>
      <trkpt lat="35.005020" lon="135.762620"/>
      <trkpt lat="35.005040" lon="135.763240"/>
      <trkpt lat="35.004800" lon="135.763330"/>
      <trkpt lat="35.004510" lon="135.763920"/>
      <trkpt lat="35.003790" lon="135.764240"/>
      <trkpt lat="35.003620" lon="135.763480"/>
      <trkpt lat="35.003640" lon="135.763220"/>
      <trkpt lat="35.003850" lon="135.763150"/>
      <trkpt lat="35.003260" lon="135.763260"/>
      <trkpt lat="35.002940" lon="135.763820"/>
      <trkpt lat="35.002770" lon="135.763990"/>
      <trkpt lat="35.001980" lon="135.764040"/>
      <trkpt lat="35.001350" lon="135.764170"/>
      <trkpt lat="35.001390" lon="135.763400"/>
      <trkpt lat="35.001430" lon="135.762860"/>
      <trkpt lat="35.000810" lon="135.763390"/>
      <trkpt lat="35.000640" lon="135.763060"/>
      <trkpt lat="35.000680" lon="135.762610"/>
      <trkpt lat="35.000680" lon="135.762240"/>
      <trkpt lat="35.000200" lon="135.762100"/>
      <trkpt lat="35.000160" lon="135.762810"/>
      <trkpt lat="34.999490" lon="135.762570"/>
      <trkpt lat="34.999510" lon="135.763310"/>
      <trkpt lat="34.999260" lon="135.763960"/>
      <trkpt lat="34.998850" lon="135.763980"/>
      <trkpt lat="34.998480" lon="135.764030"/>
      <trkpt lat="34.998180" lon="135.764820"/>
      <trkpt lat="34.997820" lon="135.765520"/>
      <trkpt lat="34.997710" lon="135.765940"/>
      <trkpt lat="34.997330" lon="135.767060"/>
      <trkpt lat="34.997060" lon="135.766970"/>
      <trkpt lat="34.996790" lon="135.767690"/>
      <trkpt lat="34.997610" lon="135.767720"/>
      <trkpt lat="34.998430" lon="135.768110"/>
      <trkpt lat="34.999010" lon="135.767760"/>
      <trkpt lat="34.999710" lon="135.767520"/>
      <trkpt lat="35.000030" lon="135.767960"/>
      <trkpt lat="35.000010" lon="135.768690"/>
      <trkpt lat="35.000440" lon="135.768840"/>
      <trkpt lat="35.000640" lon="135.768550"/>
      <trkpt lat="35.000980" lon="135.768690"/>
      <trkpt lat="35.000790" lon="135.769400"/>
      <trkpt lat="35.001620" lon="135.769440"/>
      <trkpt lat="35.001750" lon="135.768860"/>
      <trkpt lat="35.001640" lon="135.768210"/>
      <trkpt lat="35.002000" lon="135.767820"/>
      <trkpt lat="35.001970" lon="135.766930"/>
      <trkpt lat="35.002430" lon="135.766930"/>
      <trkpt lat="35.002530" lon="135.766650"/>
      <trkpt lat="35.003220" lon="135.766950"/>
      <trkpt lat="35.003160" lon="135.767220"/>
      <trkpt lat="35.003580" lon="135.767530"/>
      <trkpt lat="35.003810" lon="135.767260"/>
      <trkpt lat="35.003840" lon="135.766900"/>
      <trkpt lat="35.003840" lon="135.766540"/>
      <trkpt lat="35.003880" lon="135.766300"/>
      <trkpt lat="35.003860" lon="135.765340"/>
      <trkpt lat="35.003790" lon="135.765250"/>
      <trkpt lat="35.003610" lon="135.765340"/>
      <trkpt lat="35.003290" lon="135.764860"/>
      <trkpt lat="35.004260" lon="135.764880"/>
      <trkpt lat="35.004470" lon="135.764860"/>
      <trkpt lat="35.004900" lon="135.764870"/>
      <trkpt lat="35.005430" lon="135.764870"/>
      <trkpt lat="35.005630" lon="135.764070"/>
      <trkpt lat="35.005480" lon="135.763830"/>
      <trkpt lat="35.006820" lon="135.764080"/>
      <trkpt lat="35.007320" lon="135.764270"/>
      <trkpt lat="35.007880" lon="135.764950"/>
      <trkpt lat="35.007980" lon="135.765610"/>
      <trkpt lat="35.008290" lon="135.765740"/>
      <trkpt lat="35.008600" lon="135.765240"/>
      <trkpt lat="35.008670" lon="135.764840"/>
      <trkpt lat="35.008700" lon="135.764150"/>
      <trkpt lat="35.008570" lon="135.764040"/>
      <trkpt lat="35.008580" lon="135.763530"/>
      <trkpt lat="35.008590" lon="135.763210"/>
      <trkpt lat="35.008150" lon="135.763200"/>
      <trkpt lat="35.008150" lon="135.764020"/>
      <trkpt lat="35.009290" lon="135.763950"/>
      <trkpt lat="35.009830" lon="135.764480"/>
      <trkpt lat="35.009990" lon="135.765030"/>
      <trkpt lat="35.010390" lon="135.766500"/>
      <trkpt lat="35.010350" lon="135.767270"/>
      <trkpt lat="35.010330" lon="135.767830"/>
      <trkpt lat="35.010580" lon="135.767830"/>
      <trkpt lat="35.011050" lon="135.767820"/>
      <trkpt lat="35.011060" lon="135.767310"/>
      <trkpt lat="35.011420" lon="135.767350"/>
      <trkpt lat="35.011810" lon="135.766990"/>
      <trkpt lat="35.012220" lon="135.767190"/>
      <trkpt lat="35.012500" lon="135.767290"/>
      <trkpt lat="35.012920" lon="135.767900"/>
      <trkpt lat="35.012790" lon="135.768820"/>
      <trkpt lat="35.012380" lon="135.769110"/>
      <trkpt lat="35.012220" lon="135.769430"/>
      <trkpt lat="35.011920" lon="135.769230"/>
      <trkpt lat="35.011230" lon="135.769460"/>
      <trkpt lat="35.010770" lon="135.769330"/>
      <trkpt lat="35.010460" lon="135.768830"/>
      <trkpt lat="35.010470" lon="135.768530"/>
      <trkpt lat="35.010180" lon="135.768830"/>
      <trkpt lat="35.009680" lon="135.768830"/>
      <trkpt lat="35.009690" lon="135.769080"/>
      <trkpt lat="35.009740" lon="135.769380"/>
      <trkpt lat="35.009310" lon="135.769550"/>
      <trkpt lat="35.008920" lon="135.769900"/>
      <trkpt lat="35.008700" lon="135.770610"/>
      <trkpt lat="35.008860" lon="135.770690"/>
      <trkpt lat="35.008880" lon="135.771320"/>
      <trkpt lat="35.009000" lon="135.772120"/>
      <trkpt lat="35.008910" lon="135.772410"/>
      <trkpt lat="35.009260" lon="135.772530"/>
      <trkpt lat="35.009290" lon="135.772150"/>
      <trkpt lat="35.009290" lon="135.772960"/>
      <trkpt lat="35.009540" lon="135.772930"/>
      <trkpt lat="35.009360" lon="135.773740"/>
      <trkpt lat="35.009140" lon="135.773770"/>
      <trkpt lat="35.008590" lon="135.773780"/>
      <trkpt lat="35.008090" lon="135.773360"/>
      <trkpt lat="35.007410" lon="135.772400"/>
      <trkpt lat="35.006430" lon="135.772370"/>
      <trkpt lat="35.005970" lon="135.772100"/>
      <trkpt lat="35.005650" lon="135.772370"/>
      <trkpt lat="35.005270" lon="135.772380"/>
      <trkpt lat="35.005270" lon="135.772080"/>
      <trkpt lat="35.004480" lon="135.772300"/>
      <trkpt lat="35.004120" lon="135.771930"/>
      <trkpt lat="35.003700" lon="135.772420"/>
      <trkpt lat="35.003430" lon="135.772090"/>
      <trkpt lat="35.003700" lon="135.771110"/>
      <trkpt lat="35.003620" lon="135.770650"/>
      <trkpt lat="35.003620" lon="135.770650"/>
      <trkpt lat="35.003510" lon="135.770630"/>
      <trkpt lat="35.003410" lon="135.770380"/>
      <trkpt lat="35.003970" lon="135.770530"/>
      <trkpt lat="35.004040" lon="135.770320"/>
      <trkpt lat="35.004340" lon="135.769800"/>
      <trkpt lat="35.004560" lon="135.770490"/>
      <trkpt lat="35.004370" lon="135.769050"/>
      <trkpt lat="35.004470" lon="135.768550"/>
      <trkpt lat="35.004490" lon="135.768520"/>
      <trkpt lat="35.004860" lon="135.768490"/>
      <trkpt lat="35.004900" lon="135.767720"/>
      <trkpt lat="35.005020" lon="135.767230"/>
      <trkpt lat="35.005010" lon="135.766930"/>
      <trkpt lat="35.005060" lon="135.766380"/>
      <trkpt lat="35.004710" lon="135.766310"/>
      <trkpt lat="35.004410" lon="135.765570"/>
      <trkpt lat="35.005040" lon="135.765580"/>
      <trkpt lat="35.005510" lon="135.766320"/>
      <trkpt lat="35.005940" lon="135.766300"/>
      <trkpt lat="35.006540" lon="135.766940"/>
      <trkpt lat="35.006850" lon="135.766860"/>
      <trkpt lat="35.007310" lon="135.767260"/>
      <trkpt lat="35.007520" lon="135.767600"/>
      <trkpt lat="35.007640" lon="135.767010"/>
      <trkpt lat="35.007800" lon="135.767010"/>
      <trkpt lat="35.007450" lon="135.766580"/>
      <trkpt lat="35.007400" lon="135.765720"/>
      <trkpt lat="35.006600" lon="135.765700"/>
      <trkpt lat="35.005850" lon="135.767340"/>
      <trkpt lat="35.004530" lon="135.767260"/>
      <trkpt lat="35.004390" lon="135.767540"/>
      <trkpt lat="35.004040" lon="135.767630"/>
      <trkpt lat="35.003840" lon="135.768060"/>
      <trkpt lat="35.003850" lon="135.768760"/>
      <trkpt lat="35.003630" lon="135.769110"/>
      <trkpt lat="35.003610" lon="135.769500"/>
      <trkpt lat="35.003210" lon="135.769450"/>
      <trkpt lat="35.002960" lon="135.769910"/>
      <trkpt lat="35.003300" lon="135.768890"/>
      <trkpt lat="35.003000" lon="135.767960"/>
      <trkpt lat="35.001240" lon="135.766960"/>
      <trkpt lat="35.000800" lon="135.766990"/>
      <trkpt lat="35.000920" lon="135.766320"/>
      <trkpt lat="35.000640" lon="135.766160"/>
      <trkpt lat="35.000740" lon="135.765770"/>
      <trkpt lat="35.000080" lon="135.766310"/>
      <trkpt lat="34.999600" lon="135.766200"/>
      <trkpt lat="34.999410" lon="135.765490"/>
      <trkpt lat="34.998930" lon="135.765570"/>
      <trkpt lat="34.998940" lon="135.766850"/>
      <trkpt lat="34.998510" lon="135.766970"/>
      <trkpt lat="34.998860" lon="135.768750"/>
      <trkpt lat="34.998790" lon="135.769550"/>
      <trkpt lat="34.998790" lon="135.770080"/>
      <trkpt lat="34.998780" lon="135.770820"/>
      <trkpt lat="34.998260" lon="135.770510"/>
      <trkpt lat="34.998000" lon="135.769960"/>
      <trkpt lat="34.997390" lon="135.769860"/>
      <trkpt lat="34.997460" lon="135.769320"/>
      <trkpt lat="34.997670" lon="135.769260"/>
      <trkpt lat="34.996940" lon="135.770550"/>
      <trkpt lat="34.997060" lon="135.771800"/>
      <trkpt lat="34.997730" lon="135.771990"/>
      <trkpt lat="34.997780" lon="135.772340"/>
      <trkpt lat="34.998140" lon="135.772950"/>
      <trkpt lat="34.997790" lon="135.773650"/>
      <trkpt lat="34.997110" lon="135.773520"/>
      <trkpt lat="34.996880" lon="135.773480"/>
      <trkpt lat="34.997280" lon="135.774310"/>
      <trkpt lat="34.997350" lon="135.774660"/>
      <trkpt lat="34.997700" lon="135.775380"/>
      <trkpt lat="34.998190" lon="135.775340"/>
      <trkpt lat="34.998690" lon="135.775360"/>
      <trkpt lat="34.999040" lon="135.775370"/>
      <trkpt lat="34.999250" lon="135.774870"/>
      <trkpt lat="34.999210" lon="135.774390"/>
      <trkpt lat="34.999250" lon="135.774000"/>
      <trkpt lat="34.999030" lon="135.773360"/>
      <trkpt lat="34.999370" lon="135.773100"/>
      <trkpt lat="34.999670" lon="135.773480"/>
      <trkpt lat="35.000090" lon="135.773170"/>
      <trkpt lat="35.000360" lon="135.773960"/>
      <trkpt lat="35.000530" lon="135.774160"/>
      <trkpt lat="35.000440" lon="135.774630"/>
      <trkpt lat="35.001050" lon="135.774650"/>
      <trkpt lat="35.001000" lon="135.774310"/>
      <trkpt lat="35.001500" lon="135.774580"/>
      <trkpt lat="35.001740" lon="135.774940"/>
      <trkpt lat="35.001980" lon="135.774670"/>
      <trkpt lat="35.002390" lon="135.774370"/>
      <trkpt lat="35.002810" lon="135.774120"/>
      <trkpt lat="35.002950" lon="135.773740"/>
      <trkpt lat="35.003120" lon="135.773350"/>
      <trkpt lat="35.003720" lon="135.773280"/>
      <trkpt lat="35.003730" lon="135.773770"/>
      <trkpt lat="35.004110" lon="135.772990"/>
      <trkpt lat="35.004510" lon="135.772970"/>
      <trkpt lat="35.005030" lon="135.773740"/>
      <trkpt lat="35.005480" lon="135.773870"/>
      <trkpt lat="35.005700" lon="135.774310"/>
      <trkpt lat="35.005550" lon="135.774480"/>
      <trkpt lat="35.005830" lon="135.774760"/>
      <trkpt lat="35.005840" lon="135.775210"/>
      <trkpt lat="35.005710" lon="135.776050"/>
      <trkpt lat="35.006160" lon="135.776010"/>
      <trkpt lat="35.006290" lon="135.776710"/>
      <trkpt lat="35.006170" lon="135.776920"/>
      <trkpt lat="35.005570" lon="135.777070"/>
      <trkpt lat="35.005090" lon="135.777320"/>
      <trkpt lat="35.005000" lon="135.776980"/>
      <trkpt lat="35.004620" lon="135.777420"/>
      <trkpt lat="35.004180" lon="135.777770"/>
      <trkpt lat="35.003670" lon="135.777460"/>
      <trkpt lat="35.003490" lon="135.778090"/>
      <trkpt lat="35.003520" lon="135.778540"/>
      <trkpt lat="35.003730" lon="135.778970"/>
      <trkpt lat="35.004030" lon="135.778870"/>
      <trkpt lat="35.004450" lon="135.778910"/>
      <trkpt lat="35.004590" lon="135.778430"/>
      <trkpt lat="35.005390" lon="135.777820"/>
      <trkpt lat="35.006600" lon="135.777540"/>
      <trkpt lat="35.006700" lon="135.778110"/>
      <trkpt lat="35.006680" lon="135.778670"/>
      <trkpt lat="35.006750" lon="135.779070"/>
      <trkpt lat="35.006560" lon="135.779280"/>
      <trkpt lat="35.006510" lon="135.779810"/>
      <trkpt lat="35.006620" lon="135.780310"/>
      <trkpt lat="35.006580" lon="135.781130"/>
      <trkpt lat="35.006380" lon="135.781910"/>
      <trkpt lat="35.005580" lon="135.781100"/>
      <trkpt lat="35.005690" lon="135.780380"/>
      <trkpt lat="35.005210" lon="135.779880"/>
      <trkpt lat="35.004810" lon="135.780380"/>
      <trkpt lat="35.004920" lon="135.780870"/>
      <trkpt lat="35.004430" lon="135.780920"/>
      <trkpt lat="35.004280" lon="135.780120"/>
      <trkpt lat="35.003630" lon="135.780430"/>
      <trkpt lat="35.003570" lon="135.780690"/>
      <trkpt lat="35.003100" lon="135.780580"/>
      <trkpt lat="35.002510" lon="135.780600"/>
      <trkpt lat="35.001960" lon="135.780560"/>
      <trkpt lat="35.001740" lon="135.780110"/>
      <trkpt lat="35.002030" lon="135.779800"/>
      <trkpt lat="35.001390" lon="135.780310"/>
      <trkpt lat="35.001220" lon="135.779900"/>
      <trkpt lat="35.000850" lon="135.779960"/>
      <trkpt lat="35.000780" lon="135.779660"/>
      <trkpt lat="35.000670" lon="135.778720"/>
      <trkpt lat="35.000820" lon="135.778250"/>
      <trkpt lat="35.000220" lon="135.778820"/>
      <trkpt lat="34.999390" lon="135.778830"/>
      <trkpt lat="34.999140" lon="135.779200"/>
      <trkpt lat="34.999440" lon="135.779640"/>
      <trkpt lat="34.999970" lon="135.779960"/>
      <trkpt lat="35.000400" lon="135.780570"/>
      <trkpt lat="35.002200" lon="135.781670"/>
      <trkpt lat="35.003080" lon="135.781840"/>
      <trkpt lat="35.004240" lon="135.781720"/>
      <trkpt lat="35.004830" lon="135.781670"/>
      <trkpt lat="35.003630" lon="135.779660"/>
      <trkpt lat="35.003380" lon="135.779170"/>
      <trkpt lat="35.002780" lon="135.778420"/>
      <trkpt lat="35.002530" lon="135.778640"/>
      <trkpt lat="35.002400" lon="135.777690"/>
      <trkpt lat="35.002660" lon="135.777360"/>
      <trkpt lat="35.001830" lon="135.777550"/>
      <trkpt lat="35.001600" lon="135.778530"/>
      <trkpt lat="35.001390" lon="135.776410"/>
      <trkpt lat="35.000890" lon="135.776260"/>
      <trkpt lat="35.000360" lon="135.776540"/>
      <trkpt lat="34.999650" lon="135.776480"/>
      <trkpt lat="34.999750" lon="135.776050"/>
      <trkpt lat="34.999610" lon="135.775480"/>
      <trkpt lat="34.999190" lon="135.775920"/>
      <trkpt lat="34.998770" lon="135.776610"/>
      <trkpt lat="34.998740" lon="135.777100"/>
      <trkpt lat="34.998630" lon="135.777490"/>
      <trkpt lat="34.998690" lon="135.777780"/>
      <trkpt lat="34.998600" lon="135.778730"/>
      <trkpt lat="34.998550" lon="135.779150"/>
      <trkpt lat="34.998120" lon="135.776980"/>
      <trkpt lat="34.997460" lon="135.776870"/>
      <trkpt lat="34.997110" lon="135.776760"/>
      <trkpt lat="34.997630" lon="135.776190"/>
      <trkpt lat="34.996540" lon="135.775070"/>
      <trkpt lat="34.996000" lon="135.773630"/>
      <trkpt lat="34.995990" lon="135.771140"/>
      <trkpt lat="34.996260" lon="135.769240"/>
      <trkpt lat="34.998280" lon="135.771670"/>
      <trkpt lat="34.999040" lon="135.772170"/>
      <trkpt lat="34.999120" lon="135.772460"/>
      <trkpt lat="34.999300" lon="135.772290"/>
      <trkpt lat="34.999730" lon="135.772170"/>
      <trkpt lat="35.000210" lon="135.772320"/>
      <trkpt lat="35.000240" lon="135.771830"/>
      <trkpt lat="34.999880" lon="135.771530"/>
      <trkpt lat="34.999590" lon="135.770880"/>
      <trkpt lat="34.999680" lon="135.770470"/>
      <trkpt lat="34.999920" lon="135.770100"/>
      <trkpt lat="35.000140" lon="135.770550"/>
      <trkpt lat="35.000670" lon="135.770770"/>
      <trkpt lat="35.001220" lon="135.771810"/>
      <trkpt lat="35.001810" lon="135.771460"/>
      <trkpt lat="35.002080" lon="135.771650"/>
      <trkpt lat="35.002190" lon="135.771610"/>
      <trkpt lat="35.000990" lon="135.772590"/>
      <trkpt lat="35.001580" lon="135.773370"/>
      <trkpt lat="35.001280" lon="135.773710"/>
      <trkpt lat="35.000780" lon="135.773640"/>
      <trkpt lat="34.999830" lon="135.774190"/>
      <trkpt lat="35.000170" lon="135.775360"/>
      <trkpt lat="35.001580" lon="135.775400"/>
      <trkpt lat="35.002460" lon="135.776050"/>
      <trkpt lat="35.003950" lon="135.775850"/>
      <trkpt lat="35.003910" lon="135.775210"/>
      <trkpt lat="35.004050" lon="135.775050"/>
      <trkpt lat="35.003740" lon="135.775050"/>
      <trkpt lat="35.004450" lon="135.774820"/>
      <trkpt lat="35.004460" lon="135.774160"/>
      <trkpt lat="35.005390" lon="135.773300"/>
      <trkpt lat="35.005800" lon="135.773410"/>
      <trkpt lat="35.005750" lon="135.772940"/>
      <trkpt lat="35.006360" lon="135.774480"/>
      <trkpt lat="35.007020" lon="135.774950"/>
      <trkpt lat="35.006650" lon="135.775390"/>
      <trkpt lat="35.007000" lon="135.776220"/>
      <trkpt lat="35.006670" lon="135.776470"/>
      <trkpt lat="35.007300" lon="135.777360"/>
      <trkpt lat="35.007940" lon="135.778090"/>
      <trkpt lat="35.007650" lon="135.778690"/>
      <trkpt lat="35.007930" lon="135.779050"/>
      <trkpt lat="35.008490" lon="135.778980"/>
      <trkpt lat="35.008480" lon="135.779470"/>
      <trkpt lat="35.008400" lon="135.780010"/>
      <trkpt lat="35.008080" lon="135.780220"/>
      <trkpt lat="35.008230" lon="135.780570"/>
      <trkpt lat="35.007540" lon="135.780500"/>
      <trkpt lat="35.007090" lon="135.778710"/>
      <trkpt lat="35.008680" lon="135.777940"/>
      <trkpt lat="35.008660" lon="135.777320"/>
      <trkpt lat="35.008190" lon="135.777100"/>
      <trkpt lat="35.008790" lon="135.776650"/>
      <trkpt lat="35.009000" lon="135.776710"/>
      <trkpt lat="35.009470" lon="135.776050"/>
      <trkpt lat="35.009880" lon="135.776340"/>
      <trkpt lat="35.010160" lon="135.776670"/>
      <trkpt lat="35.010340" lon="135.777130"/>
      <trkpt lat="35.010180" lon="135.777240"/>
      <trkpt lat="35.009540" lon="135.777470"/>
      <trkpt lat="35.009630" lon="135.778330"/>
      <trkpt lat="35.009630" lon="135.778330"/>
      <trkpt lat="35.009880" lon="135.778520"/>
      <trkpt lat="35.010430" lon="135.778450"/>
      <trkpt lat="35.010960" lon="135.777620"/>
      <trkpt lat="35.011380" lon="135.777510"/>
      <trkpt lat="35.011810" lon="135.777370"/>
      <trkpt lat="35.011620" lon="135.776520"/>
      <trkpt lat="35.011930" lon="135.776170"/>
      <trkpt lat="35.012050" lon="135.775770"/>
      <trkpt lat="35.012760" lon="135.775780"/>
      <trkpt lat="35.011170" lon="135.776520"/>
      <trkpt lat="35.010880" lon="135.775740"/>
      <trkpt lat="35.010610" lon="135.775770"/>
      <trkpt lat="35.010380" lon="135.773990"/>
      <trkpt lat="35.009820" lon="135.774000"/>
      <trkpt lat="35.009120" lon="135.774940"/>
      <trkpt lat="35.008320" lon="135.774820"/>
      <trkpt lat="35.007610" lon="135.774740"/>
      <trkpt lat="35.007800" lon="135.776080"/>
      <trkpt lat="35.008320" lon="135.776190"/>
      <trkpt lat="35.010970" lon="135.774000"/>
      <trkpt lat="35.011490" lon="135.773930"/>
      <trkpt lat="35.011870" lon="135.773360"/>
      <trkpt lat="35.011620" lon="135.773150"/>
      <trkpt lat="35.012190" lon="135.773660"/>
      <trkpt lat="35.012560" lon="135.773700"/>
      <trkpt lat="35.012400" lon="135.773120"/>
      <trkpt lat="35.012970" lon="135.773220"/>
      <trkpt lat="35.013110" lon="135.772540"/>
      <trkpt lat="35.013150" lon="135.771170"/>
      <trkpt lat="35.013340" lon="135.771040"/>
      <trkpt lat="35.013380" lon="135.770440"/>
      <trkpt lat="35.012720" lon="135.770510"/>
      <trkpt lat="35.012270" lon="135.770450"/>
      <trkpt lat="35.012340" lon="135.770820"/>
      <trkpt lat="35.012460" lon="135.771100"/>
      <trkpt lat="35.011760" lon="135.770390"/>
      <trkpt lat="35.011560" lon="135.770480"/>
      <trkpt lat="35.011190" lon="135.770400"/>
      <trkpt lat="35.010940" lon="135.770350"/>
      <trkpt lat="35.010820" lon="135.771030"/>
      <trkpt lat="35.011110" lon="135.771190"/>
      <trkpt lat="35.011100" lon="135.772110"/>
      <trkpt lat="35.010720" lon="135.772580"/>
      <trkpt lat="35.010180" lon="135.770970"/>
      <trkpt lat="35.010330" lon="135.770490"/>
      <trkpt lat="35.009740" lon="135.770280"/>
      <trkpt lat="35.008310" lon="135.770410"/>
      <trkpt lat="35.008080" lon="135.770510"/>
      <trkpt lat="35.008030" lon="135.771060"/>
      <trkpt lat="35.007730" lon="135.771080"/>
      <trkpt lat="35.007390" lon="135.770520"/>
      <trkpt lat="35.007540" lon="135.770370"/>
      <trkpt lat="35.007480" lon="135.769260"/>
      <trkpt lat="35.007780" lon="135.769150"/>
      <trkpt lat="35.007010" lon="135.769000"/>
      <trkpt lat="35.006550" lon="135.770050"/>
      <trkpt lat="35.006220" lon="135.769820"/>
      <trkpt lat="35.006030" lon="135.770430"/>
      <trkpt lat="35.006170" lon="135.770500"/>
      <trkpt lat="35.006280" lon="135.770920"/>
      <trkpt lat="35.006400" lon="135.771110"/>
      <trkpt lat="35.005680" lon="135.771070"/>
      <trkpt lat="35.008650" lon="135.768820"/>
      <trkpt lat="35.008870" lon="135.768840"/>
      <trkpt lat="35.009310" lon="135.767820"/>
      <trkpt lat="35.009620" lon="135.767580"/>
      <trkpt lat="35.009800" lon="135.767100"/>
      <trkpt lat="35.009160" lon="135.767240"/>
      <trkpt lat="35.009890" lon="135.768110"/>
      <trkpt lat="35.011120" lon="135.768800"/>
      <trkpt lat="35.011320" lon="135.768560"/>
      <trkpt lat="35.011510" lon="135.768150"/>
      <trkpt lat="35.012170" lon="135.766420"/>
      <trkpt lat="35.012440" lon="135.765840"/>
      <trkpt lat="35.012140" lon="135.765330"/>
      <trkpt lat="35.011780" lon="135.765800"/>
      <trkpt lat="35.011090" lon="135.766150"/>
      <trkpt lat="35.009850" lon="135.763340"/>
      <trkpt lat="35.007410" lon="135.761670"/>
      <trkpt lat="35.007730" lon="135.761110"/>
      <trkpt lat="35.006850" lon="135.761150"/>
      <trkpt lat="35.006660" lon="135.761190"/>
      <trkpt lat="35.006340" lon="135.761340"/>
      <trkpt lat="35.005280" lon="135.761050"/>
      <trkpt lat="35.005160" lon="135.761020"/>
      <trkpt lat="35.004950" lon="135.760670"/>
      <trkpt lat="35.004960" lon="135.761420"/>
      <trkpt lat="35.004910" lon="135.761960"/>
      <trkpt lat="35.004500" lon="135.762650"/>
      <trkpt lat="35.003770" lon="135.762240"/>
      <trkpt lat="35.003770" lon="135.761520"/>
      <trkpt lat="35.004460" lon="135.761190"/>
      <trkpt lat="35.003760" lon="135.760610"/>
      <trkpt lat="35.003120" lon="135.760860"/>
      <trkpt lat="35.002880" lon="135.761040"/>
      <trkpt lat="35.002540" lon="135.761600"/>
      <trkpt lat="35.002480" lon="135.761660"/>
      <trkpt lat="35.003100" lon="135.762340"/>
      <trkpt lat="35.002120" lon="135.760690"/>
      <trkpt lat="35.001420" lon="135.761530"/>
      <trkpt lat="35.001370" lon="135.761770"/>
      <trkpt lat="35.000760" lon="135.763800"/>
      <trkpt lat="34.999980" lon="135.763950"/>
      <trkpt lat="34.998900" lon="135.763300"/>
      <trkpt lat="35.001400" lon="135.764940"/>
      <trkpt lat="35.002020" lon="135.765550"/>
      <trkpt lat="35.000090" lon="135.766910"/>
      <trkpt lat="35.002290" lon="135.773590"/>
      <trkpt lat="35.002010" lon="135.774020"/>
      <trkpt lat="35.004940" lon="135.775680"/>
      <trkpt lat="35.004920" lon="135.776110"/>
      <trkpt lat="35.004810" lon="135.776380"/>
      <trkpt lat="34.999910" lon="135.777280"/>
      <trkpt lat="34.999500" lon="135.777190"/>
      <trkpt lat="35.009480" lon="135.780270"/>
      <trkpt lat="35.010290" lon="135.779730"/>
      <trkpt lat="35.013120" lon="135.769440"/>
      <trkpt lat="35.013470" lon="135.769140"/>
    </trkseg>
  </trk>
</gpx>
