<?xml version="1.0" encoding="UTF-8"?>
<gpx xmlns="http://www.topografix.com/GPX/1/1" version="1.1" creator="GPS Visualizer http://www.gpsvisualizer.com/">
  <trk>
    <name>0</name>
    <trkseg>
      <wpt lat="35.673837" lon="139.755936"/>
      <wpt lat="35.673703" lon="139.756503"/>
      <wpt lat="35.673497" lon="139.756791"/>
      <wpt lat="35.673222" lon="139.757107"/>
      <wpt lat="35.673169" lon="139.757359"/>
      <wpt lat="35.672855" lon="139.756688"/>
      <wpt lat="35.672537" lon="139.756183"/>
      <wpt lat="35.671806" lon="139.756309"/>
      <wpt lat="35.671889" lon="139.755812"/>
      <wpt lat="35.671042" lon="139.755982"/>
      <wpt lat="35.671225" lon="139.755452"/>
      <wpt lat="35.671388" lon="139.754985"/>
      <wpt lat="35.671851" lon="139.755208"/>
      <wpt lat="35.672196" lon="139.755025"/>
      <wpt lat="35.672214" lon="139.754797"/>
      <wpt lat="35.672018" lon="139.753938"/>
      <wpt lat="35.672249" lon="139.753419"/>
      <wpt lat="35.672681" lon="139.753450"/>
      <wpt lat="35.672717" lon="139.753712"/>
      <wpt lat="35.673397" lon="139.754041"/>
      <wpt lat="35.672880" lon="139.754547"/>
      <wpt lat="35.672592" lon="139.754884"/>
      <wpt lat="35.672474" lon="139.755162"/>
      <wpt lat="35.673164" lon="139.755049"/>
      <wpt lat="35.673686" lon="139.754793"/>
      <wpt lat="35.674161" lon="139.754746"/>
      <wpt lat="35.673687" lon="139.755429"/>
      <wpt lat="35.674132" lon="139.755728"/>
      <wpt lat="35.674521" lon="139.755620"/>
      <wpt lat="35.675234" lon="139.755520"/>
      <wpt lat="35.675436" lon="139.755324"/>
      <wpt lat="35.676417" lon="139.755981"/>
      <wpt lat="35.676020" lon="139.756185"/>
      <wpt lat="35.675845" lon="139.756774"/>
      <wpt lat="35.675274" lon="139.756732"/>
      <wpt lat="35.674710" lon="139.756599"/>
      <wpt lat="35.674529" lon="139.757243"/>
      <wpt lat="35.675073" lon="139.757081"/>
      <wpt lat="35.675279" lon="139.757710"/>
      <wpt lat="35.675754" lon="139.757530"/>
      <wpt lat="35.675253" lon="139.758434"/>
      <wpt lat="35.675135" lon="139.758819"/>
      <wpt lat="35.675017" lon="139.759189"/>
      <wpt lat="35.674728" lon="139.757984"/>
      <wpt lat="35.674334" lon="139.757877"/>
      <wpt lat="35.673998" lon="139.757694"/>
      <wpt lat="35.674007" lon="139.757109"/>
    </trkseg>
  </trk>
</gpx>
