<?xml version="1.0" encoding="UTF-8"?>
<gpx xmlns="http://www.topografix.com/GPX/1/1"
     xmlns:pgr="https://joshuaspence.github.io/pokemon-go-gpx-routes/gpx/1"
     version="1.1">
  <trk>
    <name>Igashira Park</name>
    <extensions>
      <pgr:city>Moka, Tochigi</pgr:city>
      <pgr:country>Japan</pgr:country>
    </extensions>
    <trkseg>
      <trkpt lat="36.490935" lon="140.002297"/>
      <trkpt lat="36.490402" lon="140.002034"/>
      <trkpt lat="36.490373" lon="140.001183"/>
      <trkpt lat="36.491437" lon="139.999961"/>
      <trkpt lat="36.490231" lon="139.999511"/>
      <trkpt lat="36.491255" lon="139.998987"/>
      <trkpt lat="36.490974" lon="139.997822"/>
      <trkpt lat="36.490858" lon="139.998457"/>
      <trkpt lat="36.490476" lon="139.998437"/>
      <trkpt lat="36.489711" lon="139.998540"/>
      <trkpt lat="36.489139" lon="139.998389"/>
      <trkpt lat="36.488608" lon="139.998294"/>
      <trkpt lat="36.488314" lon="139.997868"/>
      <trkpt lat="36.488816" lon="139.997558"/>
      <trkpt lat="36.489065" lon="139.997262"/>
      <trkpt lat="36.490323" lon="139.997706"/>
      <trkpt lat="36.490169" lon="139.997171"/>
      <trkpt lat="36.489940" lon="139.996859"/>
      <trkpt lat="36.490330" lon="139.996326"/>
      <trkpt lat="36.490742" lon="139.995948"/>
    </trkseg>
  </trk>
</gpx>
