<?xml version="1.0" encoding="utf-8" standalone="yes"?>
<gpx xmlns="http://www.topografix.com/GPX/1/1" xmlns:xsi="http://www.w3.org/2001/XMLSchema-instance" version="1.1" creator="GPS Visualizer https://www.gpsvisualizer.com/" xsi:schemaLocation="http://www.topografix.com/GPX/1/1 http://www.topografix.com/GPX/1/1/gpx.xsd">
  <trk>
    <trkseg>
      <trkpt lat="36.490935364" lon="140.002296555"/>
      <trkpt lat="36.490401756" lon="140.002034493"/>
      <trkpt lat="36.490372914" lon="140.001183227"/>
      <trkpt lat="36.491436541" lon="139.999961145"/>
      <trkpt lat="36.490230862" lon="139.999510869"/>
      <trkpt lat="36.491255138" lon="139.998986833"/>
      <trkpt lat="36.490973733" lon="139.997822084"/>
      <trkpt lat="36.490857559" lon="139.998456761"/>
      <trkpt lat="36.490475881" lon="139.99843698"/>
      <trkpt lat="36.489711172" lon="139.998539574"/>
      <trkpt lat="36.489138916" lon="139.9983887"/>
      <trkpt lat="36.488607627" lon="139.998294488"/>
      <trkpt lat="36.488314083" lon="139.997868352"/>
      <trkpt lat="36.488816261" lon="139.997557551"/>
      <trkpt lat="36.489064789" lon="139.997262172"/>
      <trkpt lat="36.490323317" lon="139.997705743"/>
      <trkpt lat="36.490169405" lon="139.997170642"/>
      <trkpt lat="36.48993975" lon="139.996858835"/>
      <trkpt lat="36.490330325" lon="139.996325746"/>
      <trkpt lat="36.490741924" lon="139.99594789"/>
    </trkseg>
  </trk>
</gpx>
