<?xml version="1.0" encoding="UTF-8"?>
<gpx xmlns="http://www.topografix.com/GPX/1/1" version="1.1">
  <trk>
    <trkseg>
      <trkpt lat="39.705654" lon="141.156322"/>
      <trkpt lat="39.705770" lon="141.155820"/>
      <trkpt lat="39.705563" lon="141.155030"/>
      <trkpt lat="39.706251" lon="141.152923"/>
      <trkpt lat="39.707046" lon="141.150374"/>
      <trkpt lat="39.707036" lon="141.149368"/>
      <trkpt lat="39.706361" lon="141.148263"/>
      <trkpt lat="39.705991" lon="141.148988"/>
      <trkpt lat="39.705410" lon="141.149553"/>
      <trkpt lat="39.704789" lon="141.151316"/>
      <trkpt lat="39.705768" lon="141.151595"/>
      <trkpt lat="39.704997" lon="141.153906"/>
      <trkpt lat="39.704920" lon="141.154826"/>
      <trkpt lat="39.704488" lon="141.155187"/>
      <trkpt lat="39.704510" lon="141.154266"/>
      <trkpt lat="39.704200" lon="141.153924"/>
      <trkpt lat="39.703712" lon="141.154028"/>
      <trkpt lat="39.703528" lon="141.153743"/>
      <trkpt lat="39.703306" lon="141.153624"/>
      <trkpt lat="39.702982" lon="141.153104"/>
      <trkpt lat="39.703427" lon="141.152943"/>
      <trkpt lat="39.703262" lon="141.152291"/>
      <trkpt lat="39.702523" lon="141.152391"/>
      <trkpt lat="39.702217" lon="141.153195"/>
      <trkpt lat="39.701758" lon="141.152812"/>
      <trkpt lat="39.700978" lon="141.153118"/>
      <trkpt lat="39.700948" lon="141.152752"/>
      <trkpt lat="39.700097" lon="141.152705"/>
      <trkpt lat="39.700127" lon="141.153004"/>
      <trkpt lat="39.700489" lon="141.152044"/>
      <trkpt lat="39.700236" lon="141.151566"/>
      <trkpt lat="39.700903" lon="141.151780"/>
      <trkpt lat="39.701012" lon="141.151420"/>
      <trkpt lat="39.701417" lon="141.151400"/>
      <trkpt lat="39.702228" lon="141.151525"/>
      <trkpt lat="39.703579" lon="141.151700"/>
      <trkpt lat="39.704049" lon="141.150586"/>
      <trkpt lat="39.703534" lon="141.150614"/>
      <trkpt lat="39.703015" lon="141.150207"/>
      <trkpt lat="39.702515" lon="141.150154"/>
      <trkpt lat="39.701880" lon="141.150276"/>
      <trkpt lat="39.701392" lon="141.149771"/>
      <trkpt lat="39.701108" lon="141.150439"/>
      <trkpt lat="39.700835" lon="141.150022"/>
      <trkpt lat="39.700620" lon="141.150080"/>
      <trkpt lat="39.700687" lon="141.149652"/>
      <trkpt lat="39.700411" lon="141.149422"/>
      <trkpt lat="39.699864" lon="141.148908"/>
      <trkpt lat="39.699410" lon="141.148986"/>
      <trkpt lat="39.699272" lon="141.149570"/>
      <trkpt lat="39.699557" lon="141.150818"/>
      <trkpt lat="39.700036" lon="141.151501"/>
      <trkpt lat="39.699750" lon="141.149747"/>
      <trkpt lat="39.700777" lon="141.148558"/>
      <trkpt lat="39.701017" lon="141.146879"/>
      <trkpt lat="39.701592" lon="141.145798"/>
      <trkpt lat="39.701767" lon="141.146615"/>
      <trkpt lat="39.702180" lon="141.146821"/>
      <trkpt lat="39.702526" lon="141.147527"/>
      <trkpt lat="39.702721" lon="141.147031"/>
      <trkpt lat="39.703036" lon="141.147289"/>
      <trkpt lat="39.703225" lon="141.145735"/>
      <trkpt lat="39.705095" lon="141.144360"/>
      <trkpt lat="39.704011" lon="141.148578"/>
      <trkpt lat="39.703758" lon="141.147935"/>
      <trkpt lat="39.702069" lon="141.149230"/>
      <trkpt lat="39.701844" lon="141.150363"/>
      <trkpt lat="39.704227" lon="141.150546"/>
      <trkpt lat="39.701898" lon="141.154833"/>
      <trkpt lat="39.703271" lon="141.154782"/>
      <trkpt lat="39.701762" lon="141.155650"/>
      <trkpt lat="39.703461" lon="141.156581"/>
      <trkpt lat="39.705071" lon="141.157857"/>
      <trkpt lat="39.705740" lon="141.157480"/>
      <trkpt lat="39.706260" lon="141.158065"/>
      <trkpt lat="39.706313" lon="141.156101"/>
    </trkseg>
  </trk>
</gpx>
