<?xml version="1.0" encoding="UTF-8"?>
<gpx xmlns="http://www.topografix.com/GPX/1/1" version="1.1">
  <trk>
    <name>Kyoto Imperial Palace, Kyoto</name>
    <desc>Japan</desc>
    <trkseg>
      <trkpt lat="35.034910" lon="135.751000"/>
      <trkpt lat="35.034980" lon="135.751080"/>
      <trkpt lat="35.034840" lon="135.751690"/>
      <trkpt lat="35.034480" lon="135.751830"/>
      <trkpt lat="35.034300" lon="135.752040"/>
      <trkpt lat="35.033580" lon="135.751910"/>
      <trkpt lat="35.033680" lon="135.752640"/>
      <trkpt lat="35.033690" lon="135.753240"/>
      <trkpt lat="35.033670" lon="135.753460"/>
      <trkpt lat="35.034130" lon="135.753340"/>
      <trkpt lat="35.034610" lon="135.753320"/>
      <trkpt lat="35.034990" lon="135.753220"/>
      <trkpt lat="35.034920" lon="135.752690"/>
      <trkpt lat="35.035990" lon="135.752880"/>
      <trkpt lat="35.036380" lon="135.752230"/>
      <trkpt lat="35.036070" lon="135.751690"/>
      <trkpt lat="35.036140" lon="135.751160"/>
      <trkpt lat="35.035710" lon="135.751310"/>
      <trkpt lat="35.035500" lon="135.751560"/>
      <trkpt lat="35.037010" lon="135.752020"/>
      <trkpt lat="35.037900" lon="135.752070"/>
      <trkpt lat="35.038870" lon="135.752190"/>
      <trkpt lat="35.039060" lon="135.751280"/>
      <trkpt lat="35.038910" lon="135.750870"/>
      <trkpt lat="35.039280" lon="135.750660"/>
      <trkpt lat="35.039060" lon="135.749660"/>
      <trkpt lat="35.039210" lon="135.749200"/>
      <trkpt lat="35.039400" lon="135.748690"/>
      <trkpt lat="35.038600" lon="135.748770"/>
      <trkpt lat="35.038650" lon="135.748060"/>
      <trkpt lat="35.038420" lon="135.748060"/>
      <trkpt lat="35.039120" lon="135.747480"/>
      <trkpt lat="35.039020" lon="135.747300"/>
      <trkpt lat="35.039500" lon="135.747040"/>
      <trkpt lat="35.039500" lon="135.746540"/>
      <trkpt lat="35.040060" lon="135.746180"/>
      <trkpt lat="35.040120" lon="135.746730"/>
      <trkpt lat="35.039960" lon="135.747550"/>
      <trkpt lat="35.040410" lon="135.747630"/>
      <trkpt lat="35.040520" lon="135.748140"/>
      <trkpt lat="35.040930" lon="135.747430"/>
      <trkpt lat="35.041090" lon="135.746580"/>
      <trkpt lat="35.041420" lon="135.746610"/>
      <trkpt lat="35.042020" lon="135.746470"/>
      <trkpt lat="35.042050" lon="135.746060"/>
      <trkpt lat="35.042440" lon="135.746090"/>
      <trkpt lat="35.042720" lon="135.745980"/>
      <trkpt lat="35.042690" lon="135.746290"/>
      <trkpt lat="35.041920" lon="135.745470"/>
      <trkpt lat="35.041010" lon="135.744510"/>
      <trkpt lat="35.040760" lon="135.744100"/>
      <trkpt lat="35.041540" lon="135.743790"/>
      <trkpt lat="35.039720" lon="135.744150"/>
      <trkpt lat="35.039760" lon="135.744590"/>
      <trkpt lat="35.038520" lon="135.744930"/>
      <trkpt lat="35.038020" lon="135.744950"/>
      <trkpt lat="35.038420" lon="135.744230"/>
      <trkpt lat="35.038590" lon="135.743670"/>
      <trkpt lat="35.038670" lon="135.743180"/>
      <trkpt lat="35.039050" lon="135.742210"/>
      <trkpt lat="35.038670" lon="135.741870"/>
      <trkpt lat="35.039260" lon="135.741670"/>
      <trkpt lat="35.039700" lon="135.741970"/>
      <trkpt lat="35.039880" lon="135.742560"/>
      <trkpt lat="35.037410" lon="135.742800"/>
      <trkpt lat="35.037130" lon="135.742350"/>
      <trkpt lat="35.036640" lon="135.742420"/>
      <trkpt lat="35.036410" lon="135.741930"/>
      <trkpt lat="35.036100" lon="135.742080"/>
      <trkpt lat="35.035690" lon="135.742410"/>
      <trkpt lat="35.035150" lon="135.742370"/>
      <trkpt lat="35.035120" lon="135.741910"/>
      <trkpt lat="35.035650" lon="135.741720"/>
      <trkpt lat="35.035210" lon="135.740780"/>
      <trkpt lat="35.035170" lon="135.740530"/>
      <trkpt lat="35.034810" lon="135.740130"/>
      <trkpt lat="35.034260" lon="135.740520"/>
      <trkpt lat="35.033840" lon="135.740560"/>
      <trkpt lat="35.033290" lon="135.740310"/>
      <trkpt lat="35.033360" lon="135.741380"/>
      <trkpt lat="35.033020" lon="135.741730"/>
      <trkpt lat="35.033080" lon="135.742100"/>
      <trkpt lat="35.032610" lon="135.742440"/>
      <trkpt lat="35.033070" lon="135.743220"/>
      <trkpt lat="35.032470" lon="135.744000"/>
      <trkpt lat="35.032620" lon="135.745540"/>
      <trkpt lat="35.032420" lon="135.745780"/>
      <trkpt lat="35.032370" lon="135.746310"/>
      <trkpt lat="35.031900" lon="135.746070"/>
      <trkpt lat="35.031690" lon="135.746250"/>
      <trkpt lat="35.031530" lon="135.746420"/>
      <trkpt lat="35.031080" lon="135.746480"/>
      <trkpt lat="35.030990" lon="135.746080"/>
      <trkpt lat="35.030900" lon="135.745490"/>
      <trkpt lat="35.031420" lon="135.745480"/>
      <trkpt lat="35.030420" lon="135.746390"/>
      <trkpt lat="35.030370" lon="135.747040"/>
      <trkpt lat="35.030950" lon="135.747070"/>
      <trkpt lat="35.031520" lon="135.747030"/>
      <trkpt lat="35.032080" lon="135.747120"/>
      <trkpt lat="35.032410" lon="135.747590"/>
      <trkpt lat="35.032410" lon="135.748830"/>
      <trkpt lat="35.032120" lon="135.749990"/>
      <trkpt lat="35.031970" lon="135.750490"/>
      <trkpt lat="35.031640" lon="135.750400"/>
      <trkpt lat="35.031530" lon="135.750940"/>
      <trkpt lat="35.031520" lon="135.751650"/>
      <trkpt lat="35.031400" lon="135.752160"/>
      <trkpt lat="35.030880" lon="135.752290"/>
      <trkpt lat="35.030030" lon="135.753320"/>
      <trkpt lat="35.029820" lon="135.753150"/>
      <trkpt lat="35.030150" lon="135.754120"/>
      <trkpt lat="35.030580" lon="135.754950"/>
      <trkpt lat="35.030910" lon="135.756000"/>
      <trkpt lat="35.031280" lon="135.756480"/>
      <trkpt lat="35.031740" lon="135.757240"/>
      <trkpt lat="35.031190" lon="135.757960"/>
      <trkpt lat="35.031930" lon="135.758290"/>
      <trkpt lat="35.032360" lon="135.757920"/>
      <trkpt lat="35.032560" lon="135.757310"/>
      <trkpt lat="35.032810" lon="135.757140"/>
      <trkpt lat="35.033530" lon="135.757030"/>
      <trkpt lat="35.033830" lon="135.757560"/>
      <trkpt lat="35.034130" lon="135.757120"/>
      <trkpt lat="35.034470" lon="135.756450"/>
      <trkpt lat="35.034820" lon="135.756180"/>
      <trkpt lat="35.035010" lon="135.756420"/>
      <trkpt lat="35.034940" lon="135.757030"/>
      <trkpt lat="35.034940" lon="135.757550"/>
      <trkpt lat="35.034690" lon="135.758250"/>
      <trkpt lat="35.034170" lon="135.758170"/>
      <trkpt lat="35.033730" lon="135.758270"/>
      <trkpt lat="35.032770" lon="135.758490"/>
      <trkpt lat="35.032020" lon="135.758970"/>
      <trkpt lat="35.032160" lon="135.759280"/>
      <trkpt lat="35.031790" lon="135.759720"/>
      <trkpt lat="35.032090" lon="135.760140"/>
      <trkpt lat="35.031220" lon="135.760670"/>
      <trkpt lat="35.030810" lon="135.760600"/>
      <trkpt lat="35.029950" lon="135.759850"/>
      <trkpt lat="35.029970" lon="135.759510"/>
      <trkpt lat="35.029550" lon="135.759580"/>
      <trkpt lat="35.028870" lon="135.758570"/>
      <trkpt lat="35.028990" lon="135.758280"/>
      <trkpt lat="35.029160" lon="135.757990"/>
      <trkpt lat="35.029510" lon="135.757880"/>
      <trkpt lat="35.030070" lon="135.757970"/>
      <trkpt lat="35.030110" lon="135.757120"/>
      <trkpt lat="35.030610" lon="135.757140"/>
      <trkpt lat="35.029380" lon="135.756320"/>
      <trkpt lat="35.029090" lon="135.756820"/>
      <trkpt lat="35.028090" lon="135.755950"/>
      <trkpt lat="35.027530" lon="135.756690"/>
      <trkpt lat="35.027920" lon="135.757620"/>
      <trkpt lat="35.027770" lon="135.754890"/>
      <trkpt lat="35.027750" lon="135.754660"/>
      <trkpt lat="35.027930" lon="135.754220"/>
      <trkpt lat="35.028230" lon="135.753420"/>
      <trkpt lat="35.028490" lon="135.753410"/>
      <trkpt lat="35.028530" lon="135.752790"/>
      <trkpt lat="35.028340" lon="135.752390"/>
      <trkpt lat="35.028490" lon="135.752240"/>
      <trkpt lat="35.028760" lon="135.751670"/>
      <trkpt lat="35.028800" lon="135.751100"/>
      <trkpt lat="35.028110" lon="135.750880"/>
      <trkpt lat="35.027780" lon="135.751060"/>
      <trkpt lat="35.027760" lon="135.751330"/>
      <trkpt lat="35.027750" lon="135.751620"/>
      <trkpt lat="35.027250" lon="135.752020"/>
      <trkpt lat="35.026750" lon="135.751920"/>
      <trkpt lat="35.026340" lon="135.751850"/>
      <trkpt lat="35.026190" lon="135.752500"/>
      <trkpt lat="35.026330" lon="135.752880"/>
      <trkpt lat="35.026520" lon="135.753460"/>
      <trkpt lat="35.026740" lon="135.755100"/>
      <trkpt lat="35.028640" lon="135.754940"/>
      <trkpt lat="35.029120" lon="135.755100"/>
      <trkpt lat="35.029590" lon="135.754880"/>
      <trkpt lat="35.028790" lon="135.754180"/>
      <trkpt lat="35.029410" lon="135.752150"/>
      <trkpt lat="35.029810" lon="135.751480"/>
      <trkpt lat="35.029820" lon="135.750910"/>
      <trkpt lat="35.029330" lon="135.750020"/>
      <trkpt lat="35.029820" lon="135.749680"/>
      <trkpt lat="35.030080" lon="135.749870"/>
      <trkpt lat="35.030200" lon="135.748750"/>
      <trkpt lat="35.029840" lon="135.748750"/>
      <trkpt lat="35.029230" lon="135.748870"/>
      <trkpt lat="35.028570" lon="135.749560"/>
      <trkpt lat="35.028530" lon="135.750230"/>
      <trkpt lat="35.027600" lon="135.749850"/>
      <trkpt lat="35.027480" lon="135.750620"/>
      <trkpt lat="35.027000" lon="135.751150"/>
      <trkpt lat="35.026400" lon="135.750190"/>
      <trkpt lat="35.026490" lon="135.749610"/>
      <trkpt lat="35.026830" lon="135.749820"/>
      <trkpt lat="35.027150" lon="135.749010"/>
      <trkpt lat="35.027410" lon="135.748940"/>
      <trkpt lat="35.027350" lon="135.748500"/>
      <trkpt lat="35.028020" lon="135.748210"/>
      <trkpt lat="35.028360" lon="135.748930"/>
      <trkpt lat="35.027980" lon="135.746920"/>
      <trkpt lat="35.027830" lon="135.746660"/>
      <trkpt lat="35.027620" lon="135.746170"/>
      <trkpt lat="35.028100" lon="135.746180"/>
      <trkpt lat="35.028060" lon="135.745660"/>
      <trkpt lat="35.027370" lon="135.745310"/>
      <trkpt lat="35.026980" lon="135.746660"/>
      <trkpt lat="35.026430" lon="135.747640"/>
      <trkpt lat="35.026360" lon="135.748190"/>
      <trkpt lat="35.026510" lon="135.748930"/>
      <trkpt lat="35.025940" lon="135.750560"/>
      <trkpt lat="35.028630" lon="135.746460"/>
      <trkpt lat="35.029250" lon="135.745570"/>
      <trkpt lat="35.029290" lon="135.744820"/>
      <trkpt lat="35.029750" lon="135.744910"/>
      <trkpt lat="35.029740" lon="135.744340"/>
      <trkpt lat="35.029880" lon="135.743660"/>
      <trkpt lat="35.029840" lon="135.743190"/>
      <trkpt lat="35.029910" lon="135.742590"/>
      <trkpt lat="35.030980" lon="135.742680"/>
      <trkpt lat="35.031150" lon="135.742050"/>
      <trkpt lat="35.030840" lon="135.741470"/>
      <trkpt lat="35.031750" lon="135.741870"/>
      <trkpt lat="35.031420" lon="135.743120"/>
      <trkpt lat="35.031080" lon="135.743810"/>
      <trkpt lat="35.030150" lon="135.745480"/>
      <trkpt lat="35.028760" lon="135.743730"/>
      <trkpt lat="35.032390" lon="135.740510"/>
      <trkpt lat="35.034170" lon="135.741170"/>
      <trkpt lat="35.034540" lon="135.741680"/>
      <trkpt lat="35.034690" lon="135.742570"/>
      <trkpt lat="35.035630" lon="135.743090"/>
      <trkpt lat="35.036050" lon="135.743060"/>
      <trkpt lat="35.036340" lon="135.743920"/>
      <trkpt lat="35.037040" lon="135.744100"/>
      <trkpt lat="35.037070" lon="135.744540"/>
      <trkpt lat="35.037290" lon="135.745090"/>
      <trkpt lat="35.036930" lon="135.745330"/>
      <trkpt lat="35.036280" lon="135.744840"/>
      <trkpt lat="35.036240" lon="135.745840"/>
      <trkpt lat="35.035800" lon="135.746440"/>
      <trkpt lat="35.035450" lon="135.746450"/>
      <trkpt lat="35.035860" lon="135.747230"/>
      <trkpt lat="35.036050" lon="135.747440"/>
      <trkpt lat="35.036170" lon="135.747180"/>
      <trkpt lat="35.036370" lon="135.747450"/>
      <trkpt lat="35.037070" lon="135.747470"/>
      <trkpt lat="35.036960" lon="135.748140"/>
      <trkpt lat="35.035950" lon="135.748920"/>
      <trkpt lat="35.035680" lon="135.748640"/>
      <trkpt lat="35.034570" lon="135.748560"/>
      <trkpt lat="35.034050" lon="135.748940"/>
      <trkpt lat="35.033960" lon="135.748090"/>
      <trkpt lat="35.034070" lon="135.746980"/>
      <trkpt lat="35.034600" lon="135.746820"/>
      <trkpt lat="35.035130" lon="135.747450"/>
      <trkpt lat="35.034630" lon="135.745750"/>
      <trkpt lat="35.035090" lon="135.745240"/>
      <trkpt lat="35.034600" lon="135.744780"/>
      <trkpt lat="35.034190" lon="135.743720"/>
      <trkpt lat="35.033620" lon="135.744860"/>
      <trkpt lat="35.033240" lon="135.746380"/>
      <trkpt lat="35.033020" lon="135.749860"/>
      <trkpt lat="35.033000" lon="135.750560"/>
      <trkpt lat="35.033780" lon="135.750670"/>
      <trkpt lat="35.033930" lon="135.750240"/>
      <trkpt lat="35.034250" lon="135.750340"/>
      <trkpt lat="35.034430" lon="135.750030"/>
      <trkpt lat="35.036950" lon="135.749830"/>
      <trkpt lat="35.037260" lon="135.749830"/>
      <trkpt lat="35.037320" lon="135.750750"/>
      <trkpt lat="35.038070" lon="135.750730"/>
      <trkpt lat="35.038430" lon="135.749770"/>
      <trkpt lat="35.039620" lon="135.751620"/>
      <trkpt lat="35.039670" lon="135.752070"/>
      <trkpt lat="35.040150" lon="135.752250"/>
      <trkpt lat="35.040670" lon="135.752320"/>
      <trkpt lat="35.041160" lon="135.752230"/>
      <trkpt lat="35.041590" lon="135.751870"/>
      <trkpt lat="35.041260" lon="135.751490"/>
      <trkpt lat="35.040550" lon="135.751010"/>
      <trkpt lat="35.040990" lon="135.750050"/>
      <trkpt lat="35.040840" lon="135.749660"/>
      <trkpt lat="35.041520" lon="135.749610"/>
      <trkpt lat="35.042480" lon="135.748160"/>
      <trkpt lat="35.042790" lon="135.747820"/>
      <trkpt lat="35.042810" lon="135.747560"/>
      <trkpt lat="35.043200" lon="135.748380"/>
      <trkpt lat="35.043370" lon="135.750950"/>
      <trkpt lat="35.041680" lon="135.753470"/>
      <trkpt lat="35.040750" lon="135.754590"/>
      <trkpt lat="35.041010" lon="135.756740"/>
      <trkpt lat="35.039700" lon="135.757170"/>
      <trkpt lat="35.039280" lon="135.757000"/>
      <trkpt lat="35.039320" lon="135.757570"/>
      <trkpt lat="35.038830" lon="135.758470"/>
      <trkpt lat="35.039240" lon="135.758810"/>
      <trkpt lat="35.038770" lon="135.759570"/>
      <trkpt lat="35.038320" lon="135.759200"/>
      <trkpt lat="35.037950" lon="135.759720"/>
      <trkpt lat="35.037860" lon="135.760330"/>
      <trkpt lat="35.037150" lon="135.760650"/>
      <trkpt lat="35.036530" lon="135.760730"/>
      <trkpt lat="35.036590" lon="135.761380"/>
      <trkpt lat="35.036320" lon="135.761570"/>
      <trkpt lat="35.035410" lon="135.760280"/>
      <trkpt lat="35.034540" lon="135.760870"/>
      <trkpt lat="35.034640" lon="135.761720"/>
      <trkpt lat="35.033980" lon="135.761600"/>
      <trkpt lat="35.033650" lon="135.761650"/>
      <trkpt lat="35.033130" lon="135.761540"/>
      <trkpt lat="35.032650" lon="135.761490"/>
      <trkpt lat="35.033460" lon="135.759610"/>
      <trkpt lat="35.034570" lon="135.759220"/>
      <trkpt lat="35.034630" lon="135.758960"/>
      <trkpt lat="35.035540" lon="135.758200"/>
      <trkpt lat="35.036260" lon="135.758210"/>
      <trkpt lat="35.036070" lon="135.757420"/>
      <trkpt lat="35.036100" lon="135.757020"/>
      <trkpt lat="35.036470" lon="135.756800"/>
      <trkpt lat="35.036690" lon="135.757000"/>
      <trkpt lat="35.036980" lon="135.757860"/>
      <trkpt lat="35.037080" lon="135.758250"/>
      <trkpt lat="35.037730" lon="135.758580"/>
      <trkpt lat="35.037790" lon="135.758200"/>
      <trkpt lat="35.037780" lon="135.757520"/>
      <trkpt lat="35.037620" lon="135.756200"/>
      <trkpt lat="35.037910" lon="135.755620"/>
      <trkpt lat="35.037800" lon="135.754910"/>
      <trkpt lat="35.038230" lon="135.754710"/>
      <trkpt lat="35.038680" lon="135.755170"/>
      <trkpt lat="35.038780" lon="135.756540"/>
      <trkpt lat="35.039620" lon="135.756370"/>
      <trkpt lat="35.040430" lon="135.758350"/>
      <trkpt lat="35.040810" lon="135.758390"/>
      <trkpt lat="35.041400" lon="135.758500"/>
      <trkpt lat="35.040020" lon="135.759020"/>
      <trkpt lat="35.039900" lon="135.759450"/>
      <trkpt lat="35.040130" lon="135.759610"/>
      <trkpt lat="35.037420" lon="135.759150"/>
      <trkpt lat="35.037190" lon="135.759430"/>
      <trkpt lat="35.036400" lon="135.759650"/>
      <trkpt lat="35.035930" lon="135.759180"/>
      <trkpt lat="35.035890" lon="135.755760"/>
      <trkpt lat="35.036190" lon="135.755660"/>
      <trkpt lat="35.036500" lon="135.755020"/>
      <trkpt lat="35.035660" lon="135.754870"/>
      <trkpt lat="35.035670" lon="135.754350"/>
      <trkpt lat="35.036070" lon="135.753930"/>
      <trkpt lat="35.036560" lon="135.753360"/>
      <trkpt lat="35.036920" lon="135.754020"/>
      <trkpt lat="35.037180" lon="135.753760"/>
      <trkpt lat="35.037570" lon="135.753760"/>
      <trkpt lat="35.037930" lon="135.753470"/>
      <trkpt lat="35.038530" lon="135.753110"/>
      <trkpt lat="35.035150" lon="135.755090"/>
      <trkpt lat="35.034360" lon="135.754970"/>
      <trkpt lat="35.034320" lon="135.754470"/>
      <trkpt lat="35.034700" lon="135.754160"/>
      <trkpt lat="35.033720" lon="135.754490"/>
      <trkpt lat="35.033080" lon="135.754490"/>
      <trkpt lat="35.032820" lon="135.753350"/>
      <trkpt lat="35.032960" lon="135.752820"/>
      <trkpt lat="35.032400" lon="135.752220"/>
      <trkpt lat="35.031760" lon="135.754380"/>
      <trkpt lat="35.031950" lon="135.754630"/>
      <trkpt lat="35.031490" lon="135.755400"/>
      <trkpt lat="35.032760" lon="135.755810"/>
      <trkpt lat="35.033970" lon="135.755760"/>
      <trkpt lat="35.031490" lon="135.759190"/>
      <trkpt lat="35.030670" lon="135.759240"/>
      <trkpt lat="35.031130" lon="135.749580"/>
      <trkpt lat="35.037780" lon="135.746860"/>
      <trkpt lat="35.037650" lon="135.746240"/>
      <trkpt lat="35.038290" lon="135.746690"/>
      <trkpt lat="35.038490" lon="135.746410"/>
      <trkpt lat="35.037540" lon="135.743790"/>
      <trkpt lat="35.037020" lon="135.743500"/>
      <trkpt lat="35.036850" lon="135.741530"/>
      <trkpt lat="35.036880" lon="135.741270"/>
      <trkpt lat="35.037700" lon="135.740690"/>
      <trkpt lat="35.043170" lon="135.754740"/>
      <trkpt lat="35.042370" lon="135.756070"/>
      <trkpt lat="35.042420" lon="135.756310"/>
    </trkseg>
  </trk>
</gpx>
