<?xml version="1.0" encoding="UTF-8"?>
<gpx xmlns="http://www.topografix.com/GPX/1/1" version="1.1" creator="GPS Visualizer http://www.gpsvisualizer.com/">
  <trk>
    <name>0</name>
    <trkseg>
      <trkpt lat="34.609461" lon="135.519765"/>
      <trkpt lat="34.609739" lon="135.519124"/>
      <trkpt lat="34.609979" lon="135.518694"/>
      <trkpt lat="34.610034" lon="135.517734"/>
      <trkpt lat="34.609471" lon="135.517452"/>
      <trkpt lat="34.609836" lon="135.516401"/>
      <trkpt lat="34.609776" lon="135.515736"/>
      <trkpt lat="34.610266" lon="135.515364"/>
      <trkpt lat="34.609808" lon="135.515068"/>
      <trkpt lat="34.609614" lon="135.514698"/>
      <trkpt lat="34.610060" lon="135.514587"/>
      <trkpt lat="34.610036" lon="135.513972"/>
      <trkpt lat="34.610237" lon="135.514009"/>
      <trkpt lat="34.610766" lon="135.515006"/>
      <trkpt lat="34.611381" lon="135.515106"/>
      <trkpt lat="34.611673" lon="135.514190"/>
      <trkpt lat="34.612007" lon="135.514544"/>
      <trkpt lat="34.611788" lon="135.515677"/>
      <trkpt lat="34.611732" lon="135.516414"/>
      <trkpt lat="34.612202" lon="135.517122"/>
      <trkpt lat="34.612552" lon="135.518574"/>
      <trkpt lat="34.613648" lon="135.519589"/>
      <trkpt lat="34.613970" lon="135.520826"/>
      <trkpt lat="34.612900" lon="135.520881"/>
      <trkpt lat="34.612318" lon="135.521740"/>
      <trkpt lat="34.612667" lon="135.522168"/>
      <trkpt lat="34.612023" lon="135.522471"/>
      <trkpt lat="34.613127" lon="135.522946"/>
      <trkpt lat="34.613737" lon="135.522012"/>
      <trkpt lat="34.614878" lon="135.523141"/>
      <trkpt lat="34.614537" lon="135.523964"/>
      <trkpt lat="34.615058" lon="135.524866"/>
      <trkpt lat="34.615125" lon="135.525524"/>
      <trkpt lat="34.615183" lon="135.525801"/>
      <trkpt lat="34.615339" lon="135.526668"/>
      <trkpt lat="34.614656" lon="135.525929"/>
      <trkpt lat="34.614409" lon="135.525357"/>
      <trkpt lat="34.614139" lon="135.526039"/>
      <trkpt lat="34.613442" lon="135.526210"/>
      <trkpt lat="34.613174" lon="135.525505"/>
      <trkpt lat="34.613689" lon="135.524926"/>
      <trkpt lat="34.613773" lon="135.524330"/>
      <trkpt lat="34.613462" lon="135.523800"/>
      <trkpt lat="34.613204" lon="135.524287"/>
      <trkpt lat="34.612084" lon="135.524016"/>
      <trkpt lat="34.612077" lon="135.524307"/>
      <trkpt lat="34.611616" lon="135.524281"/>
      <trkpt lat="34.611140" lon="135.524232"/>
      <trkpt lat="34.610955" lon="135.524666"/>
      <trkpt lat="34.611461" lon="135.525676"/>
      <trkpt lat="34.611132" lon="135.525776"/>
      <trkpt lat="34.611260" lon="135.526268"/>
      <trkpt lat="34.610329" lon="135.526327"/>
      <trkpt lat="34.609565" lon="135.526799"/>
      <trkpt lat="34.609843" lon="135.525971"/>
      <trkpt lat="34.610269" lon="135.525493"/>
      <trkpt lat="34.610080" lon="135.525253"/>
      <trkpt lat="34.609777" lon="135.524623"/>
      <trkpt lat="34.611001" lon="135.523583"/>
      <trkpt lat="34.610889" lon="135.522928"/>
      <trkpt lat="34.610363" lon="135.522849"/>
      <trkpt lat="34.609736" lon="135.522469"/>
      <trkpt lat="34.610417" lon="135.522588"/>
      <trkpt lat="34.610603" lon="135.522392"/>
      <trkpt lat="34.611112" lon="135.522287"/>
      <trkpt lat="34.610307" lon="135.522189"/>
      <trkpt lat="34.610561" lon="135.521814"/>
      <trkpt lat="34.611530" lon="135.521248"/>
      <trkpt lat="34.611160" lon="135.520446"/>
      <trkpt lat="34.611595" lon="135.520052"/>
      <trkpt lat="34.610907" lon="135.519580"/>
      <trkpt lat="34.610381" lon="135.520918"/>
      <trkpt lat="34.610030" lon="135.521168"/>
      <trkpt lat="34.609833" lon="135.520403"/>
      <trkpt lat="34.609461" lon="135.519765"/>
    </trkseg>
  </trk>
</gpx>
