<?xml version="1.0" encoding="UTF-8"?>
<gpx xmlns="http://www.topografix.com/GPX/1/1" version="1.1">
  <trk>
    <name>Nijō Castle, Kyoto</name>
    <desc>Japan</desc>
    <trkseg>
      <trkpt lat="35.010020" lon="135.750010"/>
      <trkpt lat="35.010500" lon="135.749710"/>
      <trkpt lat="35.010270" lon="135.748820"/>
      <trkpt lat="35.009730" lon="135.748150"/>
      <trkpt lat="35.009500" lon="135.747510"/>
      <trkpt lat="35.009090" lon="135.747550"/>
      <trkpt lat="35.008730" lon="135.747970"/>
      <trkpt lat="35.008450" lon="135.748290"/>
      <trkpt lat="35.008280" lon="135.748830"/>
      <trkpt lat="35.008540" lon="135.749570"/>
      <trkpt lat="35.008180" lon="135.749690"/>
      <trkpt lat="35.008500" lon="135.750120"/>
      <trkpt lat="35.008510" lon="135.750780"/>
      <trkpt lat="35.008490" lon="135.751010"/>
      <trkpt lat="35.007890" lon="135.751140"/>
      <trkpt lat="35.007710" lon="135.750420"/>
      <trkpt lat="35.007130" lon="135.750460"/>
      <trkpt lat="35.006690" lon="135.750320"/>
      <trkpt lat="35.006700" lon="135.751040"/>
      <trkpt lat="35.006140" lon="135.750780"/>
      <trkpt lat="35.006100" lon="135.751020"/>
      <trkpt lat="35.005660" lon="135.750460"/>
      <trkpt lat="35.005440" lon="135.751020"/>
      <trkpt lat="35.005440" lon="135.752000"/>
      <trkpt lat="35.006400" lon="135.752050"/>
      <trkpt lat="35.006090" lon="135.753030"/>
      <trkpt lat="35.005960" lon="135.753700"/>
      <trkpt lat="35.006050" lon="135.754370"/>
      <trkpt lat="35.005580" lon="135.755000"/>
      <trkpt lat="35.005010" lon="135.755220"/>
      <trkpt lat="35.004990" lon="135.755730"/>
      <trkpt lat="35.004450" lon="135.755880"/>
      <trkpt lat="35.004520" lon="135.755190"/>
      <trkpt lat="35.003620" lon="135.755310"/>
      <trkpt lat="35.003560" lon="135.755600"/>
      <trkpt lat="35.003560" lon="135.755960"/>
      <trkpt lat="35.003150" lon="135.755930"/>
      <trkpt lat="35.003090" lon="135.756580"/>
      <trkpt lat="35.003850" lon="135.756520"/>
      <trkpt lat="35.004510" lon="135.756690"/>
      <trkpt lat="35.004900" lon="135.756760"/>
      <trkpt lat="35.004990" lon="135.756980"/>
      <trkpt lat="35.004980" lon="135.757340"/>
      <trkpt lat="35.005260" lon="135.758150"/>
      <trkpt lat="35.005840" lon="135.758160"/>
      <trkpt lat="35.006200" lon="135.758340"/>
      <trkpt lat="35.006110" lon="135.758870"/>
      <trkpt lat="35.006650" lon="135.758030"/>
      <trkpt lat="35.006190" lon="135.757530"/>
      <trkpt lat="35.006150" lon="135.757140"/>
      <trkpt lat="35.006430" lon="135.756700"/>
      <trkpt lat="35.006810" lon="135.756470"/>
      <trkpt lat="35.007300" lon="135.757270"/>
      <trkpt lat="35.007370" lon="135.757450"/>
      <trkpt lat="35.008100" lon="135.757380"/>
      <trkpt lat="35.008640" lon="135.757320"/>
      <trkpt lat="35.008690" lon="135.757740"/>
      <trkpt lat="35.008630" lon="135.757980"/>
      <trkpt lat="35.008950" lon="135.758120"/>
      <trkpt lat="35.008540" lon="135.758790"/>
      <trkpt lat="35.008640" lon="135.759360"/>
      <trkpt lat="35.009350" lon="135.759720"/>
      <trkpt lat="35.009520" lon="135.760150"/>
      <trkpt lat="35.009810" lon="135.759830"/>
      <trkpt lat="35.010000" lon="135.759840"/>
      <trkpt lat="35.010000" lon="135.759840"/>
      <trkpt lat="35.009760" lon="135.759490"/>
      <trkpt lat="35.009780" lon="135.758490"/>
      <trkpt lat="35.010680" lon="135.758690"/>
      <trkpt lat="35.010570" lon="135.759180"/>
      <trkpt lat="35.010620" lon="135.759430"/>
      <trkpt lat="35.010980" lon="135.759180"/>
      <trkpt lat="35.011000" lon="135.759920"/>
      <trkpt lat="35.011350" lon="135.759770"/>
      <trkpt lat="35.011780" lon="135.760190"/>
      <trkpt lat="35.012270" lon="135.760350"/>
      <trkpt lat="35.012710" lon="135.760170"/>
      <trkpt lat="35.012720" lon="135.760160"/>
      <trkpt lat="35.011870" lon="135.759470"/>
      <trkpt lat="35.011560" lon="135.758840"/>
      <trkpt lat="35.011610" lon="135.758030"/>
      <trkpt lat="35.012120" lon="135.757940"/>
      <trkpt lat="35.012860" lon="135.758110"/>
      <trkpt lat="35.012590" lon="135.758860"/>
      <trkpt lat="35.013690" lon="135.758570"/>
      <trkpt lat="35.013780" lon="135.758020"/>
      <trkpt lat="35.014270" lon="135.757200"/>
      <trkpt lat="35.014500" lon="135.757190"/>
      <trkpt lat="35.015000" lon="135.757190"/>
      <trkpt lat="35.014790" lon="135.757990"/>
      <trkpt lat="35.014930" lon="135.759090"/>
      <trkpt lat="35.013930" lon="135.759480"/>
      <trkpt lat="35.015830" lon="135.757980"/>
      <trkpt lat="35.016260" lon="135.757580"/>
      <trkpt lat="35.016190" lon="135.756450"/>
      <trkpt lat="35.015620" lon="135.756520"/>
      <trkpt lat="35.014830" lon="135.756270"/>
      <trkpt lat="35.014320" lon="135.755630"/>
      <trkpt lat="35.014150" lon="135.755870"/>
      <trkpt lat="35.013540" lon="135.755760"/>
      <trkpt lat="35.013580" lon="135.755010"/>
      <trkpt lat="35.013110" lon="135.755090"/>
      <trkpt lat="35.013320" lon="135.754170"/>
      <trkpt lat="35.013030" lon="135.753270"/>
      <trkpt lat="35.012480" lon="135.753460"/>
      <trkpt lat="35.012520" lon="135.753930"/>
      <trkpt lat="35.012290" lon="135.753940"/>
      <trkpt lat="35.012220" lon="135.754710"/>
      <trkpt lat="35.011850" lon="135.755090"/>
      <trkpt lat="35.011730" lon="135.755580"/>
      <trkpt lat="35.012290" lon="135.755810"/>
      <trkpt lat="35.012220" lon="135.756200"/>
      <trkpt lat="35.010970" lon="135.755910"/>
      <trkpt lat="35.011060" lon="135.755290"/>
      <trkpt lat="35.010690" lon="135.755230"/>
      <trkpt lat="35.011240" lon="135.754270"/>
      <trkpt lat="35.011120" lon="135.754120"/>
      <trkpt lat="35.011520" lon="135.754150"/>
      <trkpt lat="35.011250" lon="135.753520"/>
      <trkpt lat="35.010830" lon="135.753450"/>
      <trkpt lat="35.010410" lon="135.753100"/>
      <trkpt lat="35.010180" lon="135.753640"/>
      <trkpt lat="35.009730" lon="135.753040"/>
      <trkpt lat="35.008990" lon="135.752420"/>
      <trkpt lat="35.008070" lon="135.752400"/>
      <trkpt lat="35.008270" lon="135.753570"/>
      <trkpt lat="35.008590" lon="135.753750"/>
      <trkpt lat="35.008980" lon="135.754270"/>
      <trkpt lat="35.009580" lon="135.754280"/>
      <trkpt lat="35.009190" lon="135.755120"/>
      <trkpt lat="35.008600" lon="135.755220"/>
      <trkpt lat="35.008500" lon="135.755510"/>
      <trkpt lat="35.008540" lon="135.755770"/>
      <trkpt lat="35.007970" lon="135.755200"/>
      <trkpt lat="35.007380" lon="135.754120"/>
      <trkpt lat="35.006540" lon="135.753690"/>
      <trkpt lat="35.006540" lon="135.755110"/>
      <trkpt lat="35.005670" lon="135.756610"/>
      <trkpt lat="35.004550" lon="135.758160"/>
      <trkpt lat="35.004910" lon="135.758950"/>
      <trkpt lat="35.003570" lon="135.757470"/>
      <trkpt lat="35.003570" lon="135.757470"/>
      <trkpt lat="35.003610" lon="135.757400"/>
      <trkpt lat="35.002510" lon="135.755950"/>
      <trkpt lat="35.003570" lon="135.754170"/>
      <trkpt lat="35.003800" lon="135.752930"/>
      <trkpt lat="35.003370" lon="135.752270"/>
      <trkpt lat="35.002740" lon="135.752370"/>
      <trkpt lat="35.002510" lon="135.752860"/>
      <trkpt lat="35.002060" lon="135.752360"/>
      <trkpt lat="35.001350" lon="135.751810"/>
      <trkpt lat="35.002500" lon="135.751420"/>
      <trkpt lat="35.002810" lon="135.750410"/>
      <trkpt lat="35.002480" lon="135.750080"/>
      <trkpt lat="35.003010" lon="135.749730"/>
      <trkpt lat="35.003080" lon="135.749490"/>
      <trkpt lat="35.003040" lon="135.749340"/>
      <trkpt lat="35.002810" lon="135.749050"/>
      <trkpt lat="35.002340" lon="135.748770"/>
      <trkpt lat="35.002390" lon="135.748130"/>
      <trkpt lat="35.002470" lon="135.747830"/>
      <trkpt lat="35.003470" lon="135.748020"/>
      <trkpt lat="35.003770" lon="135.748410"/>
      <trkpt lat="35.003780" lon="135.748570"/>
      <trkpt lat="35.004050" lon="135.748810"/>
      <trkpt lat="35.004260" lon="135.748550"/>
      <trkpt lat="35.004380" lon="135.747950"/>
      <trkpt lat="35.004960" lon="135.748300"/>
      <trkpt lat="35.004920" lon="135.748650"/>
      <trkpt lat="35.005860" lon="135.748870"/>
      <trkpt lat="35.006070" lon="135.748560"/>
      <trkpt lat="35.006130" lon="135.748140"/>
      <trkpt lat="35.006130" lon="135.747720"/>
      <trkpt lat="35.006340" lon="135.747370"/>
      <trkpt lat="35.006800" lon="135.747390"/>
      <trkpt lat="35.007430" lon="135.746890"/>
      <trkpt lat="35.007560" lon="135.746470"/>
      <trkpt lat="35.007970" lon="135.746770"/>
      <trkpt lat="35.008650" lon="135.746140"/>
      <trkpt lat="35.009280" lon="135.746730"/>
      <trkpt lat="35.009800" lon="135.746060"/>
      <trkpt lat="35.010170" lon="135.746190"/>
      <trkpt lat="35.010940" lon="135.746210"/>
      <trkpt lat="35.011370" lon="135.745800"/>
      <trkpt lat="35.011090" lon="135.745020"/>
      <trkpt lat="35.011090" lon="135.744430"/>
      <trkpt lat="35.010580" lon="135.744600"/>
      <trkpt lat="35.010130" lon="135.744540"/>
      <trkpt lat="35.010380" lon="135.745120"/>
      <trkpt lat="35.009600" lon="135.745090"/>
      <trkpt lat="35.009820" lon="135.743830"/>
      <trkpt lat="35.009920" lon="135.743090"/>
      <trkpt lat="35.009840" lon="135.742550"/>
      <trkpt lat="35.009290" lon="135.742510"/>
      <trkpt lat="35.008770" lon="135.742810"/>
      <trkpt lat="35.008380" lon="135.742490"/>
      <trkpt lat="35.007320" lon="135.743020"/>
      <trkpt lat="35.007760" lon="135.743900"/>
      <trkpt lat="35.008220" lon="135.744770"/>
      <trkpt lat="35.008790" lon="135.743860"/>
      <trkpt lat="35.007300" lon="135.745860"/>
      <trkpt lat="35.006580" lon="135.746340"/>
      <trkpt lat="35.005980" lon="135.745930"/>
      <trkpt lat="35.006670" lon="135.745020"/>
      <trkpt lat="35.006050" lon="135.744380"/>
      <trkpt lat="35.005460" lon="135.744350"/>
      <trkpt lat="35.005630" lon="135.743050"/>
      <trkpt lat="35.005660" lon="135.742590"/>
      <trkpt lat="35.004410" lon="135.742240"/>
      <trkpt lat="35.003500" lon="135.742470"/>
      <trkpt lat="35.003500" lon="135.742990"/>
      <trkpt lat="35.004310" lon="135.743430"/>
      <trkpt lat="35.004310" lon="135.743740"/>
      <trkpt lat="35.004180" lon="135.744430"/>
      <trkpt lat="35.003930" lon="135.744740"/>
      <trkpt lat="35.003380" lon="135.744370"/>
      <trkpt lat="35.002480" lon="135.744560"/>
      <trkpt lat="35.002480" lon="135.745960"/>
      <trkpt lat="35.002420" lon="135.746320"/>
      <trkpt lat="35.001710" lon="135.746110"/>
      <trkpt lat="35.001620" lon="135.746360"/>
      <trkpt lat="35.001270" lon="135.747820"/>
      <trkpt lat="35.001280" lon="135.748280"/>
      <trkpt lat="35.001280" lon="135.750000"/>
      <trkpt lat="35.003280" lon="135.749740"/>
      <trkpt lat="35.003810" lon="135.750050"/>
      <trkpt lat="35.003860" lon="135.749570"/>
      <trkpt lat="35.004210" lon="135.750450"/>
      <trkpt lat="35.004180" lon="135.751050"/>
      <trkpt lat="35.003730" lon="135.750820"/>
      <trkpt lat="35.003510" lon="135.750530"/>
      <trkpt lat="35.003510" lon="135.750530"/>
      <trkpt lat="35.004220" lon="135.752110"/>
      <trkpt lat="35.004610" lon="135.752910"/>
      <trkpt lat="35.004630" lon="135.753600"/>
      <trkpt lat="35.005070" lon="135.753730"/>
      <trkpt lat="35.004920" lon="135.754100"/>
      <trkpt lat="35.002430" lon="135.753680"/>
      <trkpt lat="35.005480" lon="135.749710"/>
      <trkpt lat="35.006060" lon="135.749460"/>
      <trkpt lat="35.007210" lon="135.748860"/>
      <trkpt lat="35.007350" lon="135.748160"/>
      <trkpt lat="35.008940" lon="135.748930"/>
      <trkpt lat="35.009400" lon="135.750500"/>
      <trkpt lat="35.010090" lon="135.751560"/>
      <trkpt lat="35.010570" lon="135.752160"/>
      <trkpt lat="35.011180" lon="135.752220"/>
      <trkpt lat="35.011420" lon="135.751970"/>
      <trkpt lat="35.011780" lon="135.752130"/>
      <trkpt lat="35.012200" lon="135.752000"/>
      <trkpt lat="35.012840" lon="135.752340"/>
      <trkpt lat="35.013540" lon="135.752110"/>
      <trkpt lat="35.014040" lon="135.751980"/>
      <trkpt lat="35.014820" lon="135.752010"/>
      <trkpt lat="35.015390" lon="135.751990"/>
      <trkpt lat="35.015620" lon="135.752170"/>
      <trkpt lat="35.015500" lon="135.752980"/>
      <trkpt lat="35.015170" lon="135.754260"/>
      <trkpt lat="35.014920" lon="135.754550"/>
      <trkpt lat="35.014950" lon="135.754990"/>
      <trkpt lat="35.014520" lon="135.754180"/>
      <trkpt lat="35.014090" lon="135.754970"/>
      <trkpt lat="35.013710" lon="135.753250"/>
      <trkpt lat="35.013160" lon="135.751370"/>
      <trkpt lat="35.012750" lon="135.751290"/>
      <trkpt lat="35.012720" lon="135.750910"/>
      <trkpt lat="35.012620" lon="135.750320"/>
      <trkpt lat="35.013010" lon="135.749940"/>
      <trkpt lat="35.013150" lon="135.749560"/>
      <trkpt lat="35.013150" lon="135.748770"/>
      <trkpt lat="35.013930" lon="135.748570"/>
      <trkpt lat="35.014220" lon="135.749310"/>
      <trkpt lat="35.014700" lon="135.748990"/>
      <trkpt lat="35.015020" lon="135.749290"/>
      <trkpt lat="35.015380" lon="135.748760"/>
      <trkpt lat="35.015000" lon="135.748080"/>
      <trkpt lat="35.015100" lon="135.747780"/>
      <trkpt lat="35.015480" lon="135.747540"/>
      <trkpt lat="35.014900" lon="135.746440"/>
      <trkpt lat="35.014770" lon="135.746000"/>
      <trkpt lat="35.014300" lon="135.746300"/>
      <trkpt lat="35.014060" lon="135.746100"/>
      <trkpt lat="35.014080" lon="135.745440"/>
      <trkpt lat="35.013080" lon="135.745240"/>
      <trkpt lat="35.012700" lon="135.745830"/>
      <trkpt lat="35.012320" lon="135.746060"/>
      <trkpt lat="35.012010" lon="135.746240"/>
      <trkpt lat="35.012000" lon="135.746860"/>
      <trkpt lat="35.011870" lon="135.747880"/>
      <trkpt lat="35.011190" lon="135.747860"/>
      <trkpt lat="35.011270" lon="135.748400"/>
      <trkpt lat="35.011060" lon="135.748910"/>
      <trkpt lat="35.011470" lon="135.749680"/>
      <trkpt lat="35.012060" lon="135.749630"/>
      <trkpt lat="35.012370" lon="135.749690"/>
      <trkpt lat="35.012080" lon="135.748790"/>
      <trkpt lat="35.012920" lon="135.747800"/>
      <trkpt lat="35.013670" lon="135.747660"/>
      <trkpt lat="35.013760" lon="135.747080"/>
      <trkpt lat="35.014280" lon="135.747390"/>
      <trkpt lat="35.015470" lon="135.745350"/>
      <trkpt lat="35.016160" lon="135.745610"/>
      <trkpt lat="35.016630" lon="135.745850"/>
      <trkpt lat="35.017100" lon="135.745870"/>
      <trkpt lat="35.016270" lon="135.746270"/>
      <trkpt lat="35.016580" lon="135.747710"/>
      <trkpt lat="35.017190" lon="135.747750"/>
      <trkpt lat="35.017130" lon="135.748320"/>
      <trkpt lat="35.017460" lon="135.748730"/>
      <trkpt lat="35.017420" lon="135.749150"/>
      <trkpt lat="35.017980" lon="135.749770"/>
      <trkpt lat="35.018810" lon="135.750500"/>
      <trkpt lat="35.018690" lon="135.751290"/>
      <trkpt lat="35.018290" lon="135.751190"/>
      <trkpt lat="35.017730" lon="135.751590"/>
      <trkpt lat="35.017060" lon="135.752500"/>
      <trkpt lat="35.017440" lon="135.752960"/>
      <trkpt lat="35.017450" lon="135.754010"/>
      <trkpt lat="35.017440" lon="135.754590"/>
      <trkpt lat="35.017030" lon="135.754990"/>
      <trkpt lat="35.016980" lon="135.754250"/>
      <trkpt lat="35.016650" lon="135.753430"/>
      <trkpt lat="35.016080" lon="135.754990"/>
      <trkpt lat="35.016270" lon="135.755700"/>
      <trkpt lat="35.017520" lon="135.755850"/>
      <trkpt lat="35.017920" lon="135.755030"/>
      <trkpt lat="35.017030" lon="135.750440"/>
      <trkpt lat="35.015890" lon="135.750860"/>
      <trkpt lat="35.015670" lon="135.751070"/>
      <trkpt lat="35.015760" lon="135.750320"/>
      <trkpt lat="35.014870" lon="135.750430"/>
      <trkpt lat="35.014910" lon="135.751160"/>
      <trkpt lat="35.014210" lon="135.750620"/>
      <trkpt lat="35.011430" lon="135.750460"/>
      <trkpt lat="35.010840" lon="135.750840"/>
      <trkpt lat="35.011230" lon="135.751420"/>
      <trkpt lat="35.009870" lon="135.756120"/>
      <trkpt lat="35.009590" lon="135.756650"/>
      <trkpt lat="35.008920" lon="135.756670"/>
      <trkpt lat="35.008120" lon="135.756670"/>
      <trkpt lat="35.007790" lon="135.756570"/>
      <trkpt lat="35.007310" lon="135.758550"/>
      <trkpt lat="35.007040" lon="135.759340"/>
      <trkpt lat="35.007290" lon="135.759970"/>
      <trkpt lat="35.007560" lon="135.760240"/>
      <trkpt lat="35.007790" lon="135.760390"/>
      <trkpt lat="35.007600" lon="135.759500"/>
      <trkpt lat="35.008570" lon="135.760330"/>
      <trkpt lat="35.008690" lon="135.760830"/>
      <trkpt lat="35.010380" lon="135.760970"/>
      <trkpt lat="35.011040" lon="135.760700"/>
      <trkpt lat="35.010660" lon="135.760120"/>
      <trkpt lat="35.010990" lon="135.758150"/>
      <trkpt lat="35.011010" lon="135.757310"/>
      <trkpt lat="35.010980" lon="135.756670"/>
      <trkpt lat="35.010680" lon="135.756460"/>
      <trkpt lat="35.016540" lon="135.748740"/>
      <trkpt lat="35.018100" lon="135.748400"/>
      <trkpt lat="35.018360" lon="135.747770"/>
      <trkpt lat="35.017910" lon="135.747270"/>
      <trkpt lat="35.018230" lon="135.745740"/>
      <trkpt lat="35.017320" lon="135.743920"/>
      <trkpt lat="35.016780" lon="135.744510"/>
      <trkpt lat="35.016330" lon="135.744070"/>
      <trkpt lat="35.015750" lon="135.743120"/>
      <trkpt lat="35.015440" lon="135.743270"/>
      <trkpt lat="35.015160" lon="135.743170"/>
      <trkpt lat="35.015580" lon="135.742320"/>
      <trkpt lat="35.014460" lon="135.742480"/>
      <trkpt lat="35.013750" lon="135.742640"/>
      <trkpt lat="35.012650" lon="135.742710"/>
      <trkpt lat="35.011650" lon="135.742920"/>
      <trkpt lat="35.010840" lon="135.742760"/>
      <trkpt lat="35.010780" lon="135.742260"/>
      <trkpt lat="35.011050" lon="135.742040"/>
      <trkpt lat="35.010790" lon="135.741790"/>
      <trkpt lat="35.011050" lon="135.741560"/>
      <trkpt lat="35.010430" lon="135.741200"/>
      <trkpt lat="35.010430" lon="135.741200"/>
      <trkpt lat="35.010300" lon="135.741050"/>
      <trkpt lat="35.010310" lon="135.741030"/>
      <trkpt lat="35.009200" lon="135.740870"/>
      <trkpt lat="35.008380" lon="135.740400"/>
      <trkpt lat="35.008220" lon="135.741070"/>
      <trkpt lat="35.009680" lon="135.739260"/>
      <trkpt lat="35.011450" lon="135.740660"/>
      <trkpt lat="35.011720" lon="135.741290"/>
      <trkpt lat="35.012450" lon="135.740940"/>
      <trkpt lat="35.012650" lon="135.739870"/>
      <trkpt lat="35.012040" lon="135.739910"/>
      <trkpt lat="35.012450" lon="135.743930"/>
      <trkpt lat="35.012980" lon="135.744250"/>
      <trkpt lat="35.012400" lon="135.745090"/>
      <trkpt lat="35.012160" lon="135.745200"/>
      <trkpt lat="35.011490" lon="135.743960"/>
      <trkpt lat="35.014310" lon="135.743880"/>
      <trkpt lat="35.006460" lon="135.743830"/>
      <trkpt lat="35.004800" lon="135.745470"/>
      <trkpt lat="35.004170" lon="135.745470"/>
      <trkpt lat="35.003270" lon="135.745640"/>
      <trkpt lat="35.003270" lon="135.745640"/>
      <trkpt lat="35.003270" lon="135.745640"/>
      <trkpt lat="35.003480" lon="135.746510"/>
      <trkpt lat="35.003700" lon="135.747200"/>
      <trkpt lat="35.004260" lon="135.746640"/>
      <trkpt lat="35.004910" lon="135.746640"/>
      <trkpt lat="35.004890" lon="135.747260"/>
    </trkseg>
  </trk>
</gpx>
