<?xml version="1.0" encoding="UTF-8"?>
<gpx xmlns="http://www.topografix.com/GPX/1/1" version="1.1" creator="GPS Visualizer http://www.gpsvisualizer.com/">
  <trk>
    <trkseg>
      <trkpt lat="35.710414" lon="139.773505"/>
      <trkpt lat="35.710605" lon="139.773218"/>
      <trkpt lat="35.710718" lon="139.773245"/>
      <trkpt lat="35.710854" lon="139.773546"/>
      <trkpt lat="35.711264" lon="139.773982"/>
      <trkpt lat="35.711658" lon="139.774017"/>
      <trkpt lat="35.711798" lon="139.774310"/>
      <trkpt lat="35.712224" lon="139.774690"/>
      <trkpt lat="35.712894" lon="139.774566"/>
      <trkpt lat="35.713595" lon="139.774811"/>
      <trkpt lat="35.714974" lon="139.776111"/>
      <trkpt lat="35.715756" lon="139.777196"/>
      <trkpt lat="35.716224" lon="139.777505"/>
      <trkpt lat="35.716600" lon="139.777699"/>
      <trkpt lat="35.717037" lon="139.778036"/>
      <trkpt lat="35.717510" lon="139.778681"/>
      <trkpt lat="35.718221" lon="139.778879"/>
      <trkpt lat="35.718973" lon="139.777556"/>
      <trkpt lat="35.719546" lon="139.777271"/>
      <trkpt lat="35.719615" lon="139.777032"/>
      <trkpt lat="35.719607" lon="139.776593"/>
      <trkpt lat="35.720610" lon="139.775163"/>
      <trkpt lat="35.721030" lon="139.774145"/>
      <trkpt lat="35.720388" lon="139.773732"/>
      <trkpt lat="35.720181" lon="139.773377"/>
      <trkpt lat="35.720138" lon="139.772199"/>
      <trkpt lat="35.720061" lon="139.771288"/>
      <trkpt lat="35.719758" lon="139.770365"/>
      <trkpt lat="35.719384" lon="139.770110"/>
      <trkpt lat="35.719227" lon="139.770469"/>
      <trkpt lat="35.719366" lon="139.770998"/>
      <trkpt lat="35.718956" lon="139.771462"/>
      <trkpt lat="35.718680" lon="139.772143"/>
      <trkpt lat="35.719136" lon="139.772071"/>
      <trkpt lat="35.719455" lon="139.772193"/>
      <trkpt lat="35.719758" lon="139.772532"/>
      <trkpt lat="35.719414" lon="139.772787"/>
      <trkpt lat="35.718804" lon="139.772725"/>
      <trkpt lat="35.718626" lon="139.773440"/>
      <trkpt lat="35.718846" lon="139.773376"/>
      <trkpt lat="35.719522" lon="139.773177"/>
      <trkpt lat="35.719271" lon="139.773841"/>
      <trkpt lat="35.720359" lon="139.774156"/>
      <trkpt lat="35.719923" lon="139.774389"/>
      <trkpt lat="35.719645" lon="139.774426"/>
      <trkpt lat="35.719311" lon="139.775625"/>
      <trkpt lat="35.718439" lon="139.776156"/>
      <trkpt lat="35.718060" lon="139.776735"/>
      <trkpt lat="35.717439" lon="139.777074"/>
      <trkpt lat="35.717082" lon="139.777558"/>
      <trkpt lat="35.716754" lon="139.777312"/>
      <trkpt lat="35.716790" lon="139.776502"/>
      <trkpt lat="35.717491" lon="139.776121"/>
      <trkpt lat="35.717937" lon="139.776122"/>
      <trkpt lat="35.718557" lon="139.775482"/>
      <trkpt lat="35.718868" lon="139.774642"/>
      <trkpt lat="35.718689" lon="139.774095"/>
      <trkpt lat="35.717856" lon="139.773097"/>
      <trkpt lat="35.717638" lon="139.773936"/>
      <trkpt lat="35.718110" lon="139.774616"/>
      <trkpt lat="35.718309" lon="139.775071"/>
      <trkpt lat="35.718016" lon="139.775004"/>
      <trkpt lat="35.717676" lon="139.775662"/>
      <trkpt lat="35.717185" lon="139.775643"/>
      <trkpt lat="35.716131" lon="139.776188"/>
      <trkpt lat="35.716088" lon="139.775880"/>
      <trkpt lat="35.716324" lon="139.775560"/>
      <trkpt lat="35.716973" lon="139.774919"/>
      <trkpt lat="35.717346" lon="139.774423"/>
      <trkpt lat="35.717233" lon="139.774022"/>
      <trkpt lat="35.716953" lon="139.773251"/>
      <trkpt lat="35.717100" lon="139.773077"/>
      <trkpt lat="35.717611" lon="139.772422"/>
      <trkpt lat="35.717840" lon="139.771991"/>
      <trkpt lat="35.718354" lon="139.771273"/>
      <trkpt lat="35.718227" lon="139.770302"/>
      <trkpt lat="35.717517" lon="139.770778"/>
      <trkpt lat="35.717794" lon="139.770915"/>
      <trkpt lat="35.717303" lon="139.771457"/>
      <trkpt lat="35.717521" lon="139.771546"/>
      <trkpt lat="35.717459" lon="139.772147"/>
      <trkpt lat="35.716968" lon="139.772399"/>
      <trkpt lat="35.716601" lon="139.772217"/>
      <trkpt lat="35.716454" lon="139.772683"/>
      <trkpt lat="35.716127" lon="139.772846"/>
      <trkpt lat="35.715920" lon="139.772968"/>
      <trkpt lat="35.715939" lon="139.773536"/>
      <trkpt lat="35.716653" lon="139.774131"/>
      <trkpt lat="35.716475" lon="139.774203"/>
      <trkpt lat="35.715544" lon="139.775031"/>
      <trkpt lat="35.715068" lon="139.775744"/>
      <trkpt lat="35.715074" lon="139.775467"/>
      <trkpt lat="35.715344" lon="139.774679"/>
      <trkpt lat="35.714681" lon="139.774755"/>
      <trkpt lat="35.713758" lon="139.774226"/>
      <trkpt lat="35.712906" lon="139.774224"/>
      <trkpt lat="35.712139" lon="139.773871"/>
      <trkpt lat="35.711411" lon="139.773207"/>
      <trkpt lat="35.711601" lon="139.772875"/>
      <trkpt lat="35.711953" lon="139.772540"/>
      <trkpt lat="35.712063" lon="139.773228"/>
      <trkpt lat="35.712611" lon="139.773555"/>
      <trkpt lat="35.713379" lon="139.773471"/>
      <trkpt lat="35.714927" lon="139.773603"/>
      <trkpt lat="35.715435" lon="139.773501"/>
      <trkpt lat="35.714811" lon="139.772812"/>
      <trkpt lat="35.714940" lon="139.772455"/>
      <trkpt lat="35.714957" lon="139.772188"/>
      <trkpt lat="35.715576" lon="139.771739"/>
      <trkpt lat="35.716181" lon="139.771675"/>
      <trkpt lat="35.716234" lon="139.771439"/>
      <trkpt lat="35.716308" lon="139.771101"/>
      <trkpt lat="35.716335" lon="139.770797"/>
      <trkpt lat="35.716690" lon="139.770883"/>
      <trkpt lat="35.716743" lon="139.770307"/>
      <trkpt lat="35.715990" lon="139.769740"/>
      <trkpt lat="35.715717" lon="139.770175"/>
      <trkpt lat="35.715211" lon="139.770298"/>
      <trkpt lat="35.715574" lon="139.770865"/>
      <trkpt lat="35.715427" lon="139.771066"/>
      <trkpt lat="35.714967" lon="139.770426"/>
      <trkpt lat="35.714441" lon="139.770544"/>
      <trkpt lat="35.714614" lon="139.770965"/>
      <trkpt lat="35.714103" lon="139.771527"/>
      <trkpt lat="35.713918" lon="139.771567"/>
      <trkpt lat="35.713878" lon="139.771861"/>
      <trkpt lat="35.714326" lon="139.772879"/>
      <trkpt lat="35.714065" lon="139.772846"/>
      <trkpt lat="35.712744" lon="139.773165"/>
      <trkpt lat="35.712809" lon="139.772789"/>
      <trkpt lat="35.712158" lon="139.772315"/>
      <trkpt lat="35.712865" lon="139.772096"/>
      <trkpt lat="35.713285" lon="139.771767"/>
      <trkpt lat="35.714113" lon="139.770589"/>
      <trkpt lat="35.714243" lon="139.769714"/>
      <trkpt lat="35.714722" lon="139.769118"/>
      <trkpt lat="35.715016" lon="139.768774"/>
      <trkpt lat="35.715458" lon="139.768419"/>
      <trkpt lat="35.715587" lon="139.767572"/>
      <trkpt lat="35.715311" lon="139.767956"/>
      <trkpt lat="35.714545" lon="139.768292"/>
      <trkpt lat="35.714332" lon="139.768490"/>
      <trkpt lat="35.713941" lon="139.768282"/>
      <trkpt lat="35.713860" lon="139.768970"/>
      <trkpt lat="35.713940" lon="139.769356"/>
      <trkpt lat="35.713322" lon="139.769047"/>
      <trkpt lat="35.713068" lon="139.769736"/>
      <trkpt lat="35.712631" lon="139.770458"/>
      <trkpt lat="35.712227" lon="139.770565"/>
      <trkpt lat="35.711496" lon="139.770418"/>
      <trkpt lat="35.710822" lon="139.769930"/>
      <trkpt lat="35.710389" lon="139.769142"/>
      <trkpt lat="35.710220" lon="139.767991"/>
      <trkpt lat="35.710316" lon="139.767443"/>
      <trkpt lat="35.710437" lon="139.766976"/>
      <trkpt lat="35.710553" lon="139.766777"/>
      <trkpt lat="35.710859" lon="139.767656"/>
      <trkpt lat="35.710820" lon="139.768049"/>
      <trkpt lat="35.711350" lon="139.768141"/>
      <trkpt lat="35.712338" lon="139.767975"/>
      <trkpt lat="35.712531" lon="139.767861"/>
      <trkpt lat="35.712702" lon="139.767672"/>
      <trkpt lat="35.713160" lon="139.767101"/>
      <trkpt lat="35.713266" lon="139.766535"/>
      <trkpt lat="35.713392" lon="139.766227"/>
      <trkpt lat="35.713677" lon="139.765978"/>
      <trkpt lat="35.714438" lon="139.766232"/>
      <trkpt lat="35.714536" lon="139.766877"/>
      <trkpt lat="35.713975" lon="139.767530"/>
      <trkpt lat="35.713358" lon="139.767744"/>
      <trkpt lat="35.713032" lon="139.768618"/>
      <trkpt lat="35.712485" lon="139.768703"/>
      <trkpt lat="35.711980" lon="139.768966"/>
      <trkpt lat="35.711258" lon="139.768932"/>
      <trkpt lat="35.710718" lon="139.768844"/>
      <trkpt lat="35.710100" lon="139.769003"/>
      <trkpt lat="35.709294" lon="139.769490"/>
      <trkpt lat="35.709678" lon="139.769800"/>
      <trkpt lat="35.709498" lon="139.770321"/>
      <trkpt lat="35.709856" lon="139.771138"/>
      <trkpt lat="35.709517" lon="139.771413"/>
      <trkpt lat="35.709815" lon="139.772099"/>
      <trkpt lat="35.710049" lon="139.772193"/>
      <trkpt lat="35.710035" lon="139.772739"/>
      <trkpt lat="35.710010" lon="139.773201"/>
      <trkpt lat="35.710685" lon="139.772698"/>
      <trkpt lat="35.710414" lon="139.773505"/>
    </trkseg>
  </trk>
</gpx>
