<?xml version="1.0" encoding="UTF-8"?>
<gpx xmlns="http://www.topografix.com/GPX/1/1" version="1.1">
  <trk>
    <trkseg>
      <trkpt lat="47.528592" lon="19.050200"/>
      <trkpt lat="47.528763" lon="19.050528"/>
      <trkpt lat="47.528778" lon="19.050793"/>
      <trkpt lat="47.528740" lon="19.051412"/>
      <trkpt lat="47.528980" lon="19.051629"/>
      <trkpt lat="47.529171" lon="19.051745"/>
      <trkpt lat="47.529289" lon="19.051721"/>
      <trkpt lat="47.529412" lon="19.051707"/>
      <trkpt lat="47.529545" lon="19.051592"/>
      <trkpt lat="47.529644" lon="19.051897"/>
      <trkpt lat="47.529830" lon="19.051977"/>
      <trkpt lat="47.529925" lon="19.051883"/>
      <trkpt lat="47.530313" lon="19.051810"/>
      <trkpt lat="47.530319" lon="19.052170"/>
      <trkpt lat="47.530358" lon="19.052341"/>
      <trkpt lat="47.530609" lon="19.052066"/>
      <trkpt lat="47.530792" lon="19.052025"/>
      <trkpt lat="47.530930" lon="19.052139"/>
      <trkpt lat="47.531192" lon="19.052343"/>
      <trkpt lat="47.531140" lon="19.052624"/>
      <trkpt lat="47.531276" lon="19.052744"/>
      <trkpt lat="47.531332" lon="19.053150"/>
      <trkpt lat="47.531495" lon="19.053143"/>
      <trkpt lat="47.531391" lon="19.052880"/>
      <trkpt lat="47.531469" lon="19.052469"/>
      <trkpt lat="47.531666" lon="19.052343"/>
      <trkpt lat="47.531389" lon="19.052016"/>
      <trkpt lat="47.531192" lon="19.052343"/>
      <trkpt lat="47.531469" lon="19.052469"/>
      <trkpt lat="47.531140" lon="19.052624"/>
      <trkpt lat="47.531391" lon="19.052880"/>
      <trkpt lat="47.531389" lon="19.052016"/>
      <trkpt lat="47.531495" lon="19.051596"/>
      <trkpt lat="47.531242" lon="19.051406"/>
      <trkpt lat="47.531110" lon="19.051178"/>
      <trkpt lat="47.530918" lon="19.051045"/>
      <trkpt lat="47.530678" lon="19.051088"/>
      <trkpt lat="47.530606" lon="19.051278"/>
      <trkpt lat="47.530583" lon="19.051002"/>
      <trkpt lat="47.530566" lon="19.051434"/>
      <trkpt lat="47.530491" lon="19.050968"/>
      <trkpt lat="47.530398" lon="19.051251"/>
      <trkpt lat="47.530392" lon="19.050884"/>
      <trkpt lat="47.530260" lon="19.050971"/>
      <trkpt lat="47.530248" lon="19.051257"/>
      <trkpt lat="47.530380" lon="19.050992"/>
      <trkpt lat="47.530494" lon="19.051305"/>
      <trkpt lat="47.530525" lon="19.050960"/>
      <trkpt lat="47.530510" lon="19.051454"/>
      <trkpt lat="47.530668" lon="19.051011"/>
      <trkpt lat="47.530662" lon="19.051447"/>
      <trkpt lat="47.530434" lon="19.050935"/>
      <trkpt lat="47.530553" lon="19.050490"/>
      <trkpt lat="47.530519" lon="19.049979"/>
      <trkpt lat="47.530289" lon="19.050100"/>
      <trkpt lat="47.530151" lon="19.049792"/>
      <trkpt lat="47.529959" lon="19.049530"/>
      <trkpt lat="47.529728" lon="19.049454"/>
      <trkpt lat="47.529509" lon="19.049296"/>
      <trkpt lat="47.529278" lon="19.049405"/>
      <trkpt lat="47.528884" lon="19.049640"/>
      <trkpt lat="47.528741" lon="19.050356"/>
      <trkpt lat="47.528879" lon="19.050680"/>
      <trkpt lat="47.529303" lon="19.050351"/>
      <trkpt lat="47.529627" lon="19.050254"/>
      <trkpt lat="47.529526" lon="19.050526"/>
      <trkpt lat="47.529544" lon="19.050862"/>
      <trkpt lat="47.529686" lon="19.050987"/>
      <trkpt lat="47.529618" lon="19.051348"/>
      <trkpt lat="47.529545" lon="19.051592"/>
      <trkpt lat="47.529289" lon="19.051721"/>
      <trkpt lat="47.528980" lon="19.051629"/>
      <trkpt lat="47.528740" lon="19.051412"/>
      <trkpt lat="47.528693" lon="19.050773"/>
      <trkpt lat="47.528592" lon="19.050200"/>
    </trkseg>
  </trk>
</gpx>
