<?xml version="1.0" encoding="UTF-8"?>
<gpx xmlns="http://www.topografix.com/GPX/1/1" version="1.1" creator="GPS Visualizer http://www.gpsvisualizer.com/">
  <trk>
    <name>0</name>
    <trkseg>
      <wpt lat="47.530289" lon="19.050100"/>
      <wpt lat="47.530151" lon="19.049792"/>
      <wpt lat="47.529959" lon="19.049530"/>
      <wpt lat="47.529728" lon="19.049454"/>
      <wpt lat="47.529509" lon="19.049296"/>
      <wpt lat="47.529278" lon="19.049405"/>
      <wpt lat="47.528884" lon="19.049640"/>
      <wpt lat="47.528419" lon="19.049749"/>
      <wpt lat="47.528216" lon="19.049737"/>
      <wpt lat="47.528592" lon="19.050200"/>
      <wpt lat="47.528741" lon="19.050356"/>
      <wpt lat="47.528814" lon="19.049998"/>
      <wpt lat="47.529303" lon="19.050351"/>
      <wpt lat="47.529627" lon="19.050254"/>
      <wpt lat="47.529526" lon="19.050526"/>
      <wpt lat="47.528879" lon="19.050680"/>
      <wpt lat="47.528693" lon="19.050773"/>
      <wpt lat="47.528740" lon="19.051412"/>
      <wpt lat="47.528980" lon="19.051629"/>
      <wpt lat="47.529171" lon="19.051745"/>
      <wpt lat="47.529412" lon="19.051707"/>
      <wpt lat="47.529545" lon="19.051592"/>
      <wpt lat="47.529618" lon="19.051348"/>
      <wpt lat="47.529544" lon="19.050862"/>
      <wpt lat="47.529686" lon="19.050987"/>
      <wpt lat="47.529644" lon="19.051897"/>
      <wpt lat="47.529830" lon="19.051977"/>
      <wpt lat="47.529925" lon="19.051883"/>
      <wpt lat="47.530358" lon="19.052341"/>
      <wpt lat="47.530319" lon="19.052170"/>
      <wpt lat="47.530313" lon="19.051810"/>
      <wpt lat="47.530609" lon="19.052066"/>
      <wpt lat="47.530792" lon="19.052025"/>
      <wpt lat="47.530930" lon="19.052139"/>
      <wpt lat="47.531192" lon="19.052343"/>
      <wpt lat="47.531140" lon="19.052624"/>
      <wpt lat="47.531391" lon="19.052880"/>
      <wpt lat="47.531469" lon="19.052469"/>
      <wpt lat="47.531797" lon="19.052353"/>
      <wpt lat="47.531389" lon="19.052016"/>
      <wpt lat="47.531495" lon="19.051596"/>
      <wpt lat="47.531242" lon="19.051406"/>
      <wpt lat="47.530884" lon="19.051679"/>
      <wpt lat="47.531110" lon="19.051178"/>
      <wpt lat="47.530566" lon="19.051434"/>
      <wpt lat="47.530918" lon="19.051045"/>
      <wpt lat="47.530248" lon="19.051257"/>
      <wpt lat="47.530583" lon="19.051002"/>
      <wpt lat="47.530260" lon="19.050971"/>
      <wpt lat="47.530116" lon="19.050518"/>
      <wpt lat="47.530553" lon="19.050490"/>
      <wpt lat="47.530837" lon="19.050157"/>
      <wpt lat="47.530519" lon="19.049979"/>
    </trkseg>
  </trk>
</gpx>
