<?xml version="1.0" encoding="UTF-8"?>
<gpx xmlns="http://www.topografix.com/GPX/1/1"
     xmlns:pgr="https://joshuaspence.github.io/pokemon-go-gpx-routes/gpx/1"
     version="1.1">
  <trk>
    <name>The Walk</name>
    <extensions>
      <pgr:city>Dubai</pgr:city>
      <pgr:country>United Arab Emirates</pgr:country>
    </extensions>
    <trkseg>
      <trkpt lat="25.077867" lon="55.133697"/>
      <trkpt lat="25.077928" lon="55.134128"/>
      <trkpt lat="25.078070" lon="55.134046"/>
      <trkpt lat="25.078156" lon="55.134080"/>
      <trkpt lat="25.078060" lon="55.134386"/>
      <trkpt lat="25.078084" lon="55.134653"/>
      <trkpt lat="25.078198" lon="55.134856"/>
      <trkpt lat="25.078249" lon="55.134791"/>
      <trkpt lat="25.078484" lon="55.134664"/>
      <trkpt lat="25.078553" lon="55.134875"/>
      <trkpt lat="25.078559" lon="55.135013"/>
      <trkpt lat="25.078666" lon="55.135234"/>
      <trkpt lat="25.078844" lon="55.135101"/>
      <trkpt lat="25.078939" lon="55.135082"/>
      <trkpt lat="25.078979" lon="55.134975"/>
      <trkpt lat="25.079124" lon="55.134775"/>
      <trkpt lat="25.078996" lon="55.135335"/>
      <trkpt lat="25.078872" lon="55.135434"/>
      <trkpt lat="25.079151" lon="55.135721"/>
      <trkpt lat="25.079341" lon="55.135394"/>
      <trkpt lat="25.079466" lon="55.135812"/>
      <trkpt lat="25.079786" lon="55.135841"/>
      <trkpt lat="25.079822" lon="55.136181"/>
      <trkpt lat="25.080073" lon="55.136005"/>
      <trkpt lat="25.080166" lon="55.136668"/>
      <trkpt lat="25.080399" lon="55.136531"/>
      <trkpt lat="25.080522" lon="55.136725"/>
      <trkpt lat="25.080823" lon="55.136775"/>
      <trkpt lat="25.081004" lon="55.136838"/>
      <trkpt lat="25.081141" lon="55.137023"/>
      <trkpt lat="25.080763" lon="55.137303"/>
      <trkpt lat="25.080917" lon="55.137325"/>
      <trkpt lat="25.081301" lon="55.137251"/>
      <trkpt lat="25.081489" lon="55.137376"/>
      <trkpt lat="25.081815" lon="55.137530"/>
      <trkpt lat="25.081602" lon="55.137916"/>
      <trkpt lat="25.081853" lon="55.138049"/>
      <trkpt lat="25.082031" lon="55.137918"/>
      <trkpt lat="25.082141" lon="55.138211"/>
      <trkpt lat="25.082001" lon="55.138389"/>
      <trkpt lat="25.082302" lon="55.138536"/>
      <trkpt lat="25.082407" lon="55.138547"/>
      <trkpt lat="25.082576" lon="55.138248"/>
      <trkpt lat="25.082782" lon="55.138849"/>
      <trkpt lat="25.082704" lon="55.139154"/>
      <trkpt lat="25.082407" lon="55.138547"/>
      <trkpt lat="25.082302" lon="55.138536"/>
      <trkpt lat="25.082001" lon="55.138389"/>
      <trkpt lat="25.082141" lon="55.138211"/>
      <trkpt lat="25.082031" lon="55.137918"/>
      <trkpt lat="25.081853" lon="55.138049"/>
      <trkpt lat="25.081602" lon="55.137916"/>
      <trkpt lat="25.081815" lon="55.137530"/>
      <trkpt lat="25.081489" lon="55.137376"/>
      <trkpt lat="25.081301" lon="55.137251"/>
      <trkpt lat="25.080917" lon="55.137325"/>
      <trkpt lat="25.080763" lon="55.137303"/>
      <trkpt lat="25.081141" lon="55.137023"/>
      <trkpt lat="25.081004" lon="55.136838"/>
      <trkpt lat="25.080823" lon="55.136775"/>
      <trkpt lat="25.080522" lon="55.136725"/>
      <trkpt lat="25.080399" lon="55.136531"/>
      <trkpt lat="25.080166" lon="55.136668"/>
      <trkpt lat="25.080073" lon="55.136005"/>
      <trkpt lat="25.079822" lon="55.136181"/>
      <trkpt lat="25.079786" lon="55.135841"/>
      <trkpt lat="25.079466" lon="55.135812"/>
      <trkpt lat="25.079341" lon="55.135394"/>
      <trkpt lat="25.079151" lon="55.135721"/>
      <trkpt lat="25.078872" lon="55.135434"/>
      <trkpt lat="25.078996" lon="55.135335"/>
      <trkpt lat="25.079124" lon="55.134775"/>
      <trkpt lat="25.078979" lon="55.134975"/>
      <trkpt lat="25.078939" lon="55.135082"/>
      <trkpt lat="25.078844" lon="55.135101"/>
      <trkpt lat="25.078666" lon="55.135234"/>
      <trkpt lat="25.078559" lon="55.135013"/>
      <trkpt lat="25.078553" lon="55.134875"/>
      <trkpt lat="25.078484" lon="55.134664"/>
      <trkpt lat="25.078249" lon="55.134791"/>
      <trkpt lat="25.078198" lon="55.134856"/>
      <trkpt lat="25.078084" lon="55.134653"/>
      <trkpt lat="25.078060" lon="55.134386"/>
      <trkpt lat="25.078156" lon="55.134080"/>
      <trkpt lat="25.078070" lon="55.134046"/>
      <trkpt lat="25.077928" lon="55.134128"/>
      <trkpt lat="25.077867" lon="55.133697"/>
      <trkpt lat="25.078117" lon="55.133393"/>
      <trkpt lat="25.077867" lon="55.133697"/>
      <trkpt lat="25.077591" lon="55.133659"/>
      <trkpt lat="25.077458" lon="55.133305"/>
      <trkpt lat="25.077310" lon="55.133553"/>
      <trkpt lat="25.077073" lon="55.133387"/>
      <trkpt lat="25.076810" lon="55.133285"/>
      <trkpt lat="25.076822" lon="55.133168"/>
      <trkpt lat="25.076933" lon="55.133120"/>
      <trkpt lat="25.076987" lon="55.133009"/>
      <trkpt lat="25.077071" lon="55.132957"/>
      <trkpt lat="25.076990" lon="55.132878"/>
      <trkpt lat="25.076875" lon="55.132843"/>
      <trkpt lat="25.076750" lon="55.132874"/>
      <trkpt lat="25.076752" lon="55.133016"/>
      <trkpt lat="25.076857" lon="55.133041"/>
      <trkpt lat="25.076786" lon="55.132574"/>
      <trkpt lat="25.076527" lon="55.132792"/>
      <trkpt lat="25.076459" lon="55.132537"/>
      <trkpt lat="25.076571" lon="55.132328"/>
      <trkpt lat="25.076344" lon="55.132438"/>
      <trkpt lat="25.076216" lon="55.132273"/>
      <trkpt lat="25.076427" lon="55.131933"/>
      <trkpt lat="25.076170" lon="55.131810"/>
      <trkpt lat="25.076150" lon="55.131814"/>
      <trkpt lat="25.076044" lon="55.131572"/>
      <trkpt lat="25.075867" lon="55.131584"/>
      <trkpt lat="25.075810" lon="55.131809"/>
      <trkpt lat="25.075826" lon="55.131952"/>
      <trkpt lat="25.075687" lon="55.132002"/>
      <trkpt lat="25.075401" lon="55.131772"/>
      <trkpt lat="25.075625" lon="55.131414"/>
      <trkpt lat="25.075797" lon="55.131160"/>
      <trkpt lat="25.075194" lon="55.131581"/>
      <trkpt lat="25.075232" lon="55.131176"/>
      <trkpt lat="25.075139" lon="55.131294"/>
      <trkpt lat="25.074828" lon="55.131436"/>
      <trkpt lat="25.074859" lon="55.131223"/>
      <trkpt lat="25.074969" lon="55.131071"/>
      <trkpt lat="25.075042" lon="55.131015"/>
      <trkpt lat="25.074962" lon="55.130962"/>
      <trkpt lat="25.074890" lon="55.130897"/>
      <trkpt lat="25.074730" lon="55.131065"/>
      <trkpt lat="25.074703" lon="55.131141"/>
      <trkpt lat="25.074704" lon="55.131226"/>
      <trkpt lat="25.074565" lon="55.131198"/>
      <trkpt lat="25.074696" lon="55.130947"/>
      <trkpt lat="25.074804" lon="55.130593"/>
      <trkpt lat="25.074648" lon="55.130783"/>
      <trkpt lat="25.074475" lon="55.131055"/>
      <trkpt lat="25.074427" lon="55.130827"/>
      <trkpt lat="25.074509" lon="55.130751"/>
      <trkpt lat="25.074428" lon="55.130372"/>
      <trkpt lat="25.074085" lon="55.130536"/>
      <trkpt lat="25.074230" lon="55.130240"/>
      <trkpt lat="25.074098" lon="55.130187"/>
      <trkpt lat="25.073977" lon="55.129916"/>
      <trkpt lat="25.073745" lon="55.130007"/>
      <trkpt lat="25.073645" lon="55.129934"/>
      <trkpt lat="25.073579" lon="55.129726"/>
      <trkpt lat="25.073430" lon="55.129608"/>
      <trkpt lat="25.073403" lon="55.129639"/>
      <trkpt lat="25.073271" lon="55.129459"/>
      <trkpt lat="25.073133" lon="55.129224"/>
      <trkpt lat="25.072982" lon="55.129613"/>
      <trkpt lat="25.072913" lon="55.129453"/>
      <trkpt lat="25.072784" lon="55.129198"/>
      <trkpt lat="25.072739" lon="55.129123"/>
      <trkpt lat="25.072511" lon="55.128871"/>
      <trkpt lat="25.072318" lon="55.128504"/>
      <trkpt lat="25.072270" lon="55.128544"/>
      <trkpt lat="25.072251" lon="55.129011"/>
      <trkpt lat="25.072511" lon="55.128871"/>
      <trkpt lat="25.072739" lon="55.129123"/>
      <trkpt lat="25.072784" lon="55.129198"/>
      <trkpt lat="25.072913" lon="55.129453"/>
      <trkpt lat="25.073133" lon="55.129224"/>
      <trkpt lat="25.072982" lon="55.129613"/>
      <trkpt lat="25.073271" lon="55.129459"/>
      <trkpt lat="25.073403" lon="55.129639"/>
      <trkpt lat="25.073430" lon="55.129608"/>
      <trkpt lat="25.073579" lon="55.129726"/>
      <trkpt lat="25.073645" lon="55.129934"/>
      <trkpt lat="25.073745" lon="55.130007"/>
      <trkpt lat="25.073977" lon="55.129916"/>
      <trkpt lat="25.074098" lon="55.130187"/>
      <trkpt lat="25.074230" lon="55.130240"/>
      <trkpt lat="25.074085" lon="55.130536"/>
      <trkpt lat="25.074428" lon="55.130372"/>
      <trkpt lat="25.074509" lon="55.130751"/>
      <trkpt lat="25.074427" lon="55.130827"/>
      <trkpt lat="25.074475" lon="55.131055"/>
      <trkpt lat="25.074648" lon="55.130783"/>
      <trkpt lat="25.074804" lon="55.130593"/>
      <trkpt lat="25.074696" lon="55.130947"/>
      <trkpt lat="25.074565" lon="55.131198"/>
      <trkpt lat="25.074704" lon="55.131226"/>
      <trkpt lat="25.074703" lon="55.131141"/>
      <trkpt lat="25.074730" lon="55.131065"/>
      <trkpt lat="25.074890" lon="55.130897"/>
      <trkpt lat="25.074962" lon="55.130962"/>
      <trkpt lat="25.075042" lon="55.131015"/>
      <trkpt lat="25.074969" lon="55.131071"/>
      <trkpt lat="25.074859" lon="55.131223"/>
      <trkpt lat="25.074828" lon="55.131436"/>
      <trkpt lat="25.075139" lon="55.131294"/>
      <trkpt lat="25.075232" lon="55.131176"/>
      <trkpt lat="25.075194" lon="55.131581"/>
      <trkpt lat="25.075797" lon="55.131160"/>
      <trkpt lat="25.075625" lon="55.131414"/>
      <trkpt lat="25.075401" lon="55.131772"/>
      <trkpt lat="25.075687" lon="55.132002"/>
      <trkpt lat="25.075826" lon="55.131952"/>
      <trkpt lat="25.075810" lon="55.131809"/>
      <trkpt lat="25.075867" lon="55.131584"/>
      <trkpt lat="25.076044" lon="55.131572"/>
      <trkpt lat="25.076150" lon="55.131814"/>
      <trkpt lat="25.076170" lon="55.131810"/>
      <trkpt lat="25.076427" lon="55.131933"/>
      <trkpt lat="25.076216" lon="55.132273"/>
      <trkpt lat="25.076344" lon="55.132438"/>
      <trkpt lat="25.076571" lon="55.132328"/>
      <trkpt lat="25.076459" lon="55.132537"/>
      <trkpt lat="25.076527" lon="55.132792"/>
      <trkpt lat="25.076786" lon="55.132574"/>
      <trkpt lat="25.076750" lon="55.132874"/>
      <trkpt lat="25.076875" lon="55.132843"/>
      <trkpt lat="25.076752" lon="55.133016"/>
      <trkpt lat="25.076857" lon="55.133041"/>
      <trkpt lat="25.076990" lon="55.132878"/>
      <trkpt lat="25.077071" lon="55.132957"/>
      <trkpt lat="25.076987" lon="55.133009"/>
      <trkpt lat="25.076933" lon="55.133120"/>
      <trkpt lat="25.076822" lon="55.133168"/>
      <trkpt lat="25.076810" lon="55.133285"/>
      <trkpt lat="25.077073" lon="55.133387"/>
      <trkpt lat="25.077310" lon="55.133553"/>
      <trkpt lat="25.077458" lon="55.133305"/>
      <trkpt lat="25.077591" lon="55.133659"/>
      <trkpt lat="25.077867" lon="55.133697"/>
      <trkpt lat="25.078117" lon="55.133393"/>
    </trkseg>
  </trk>
</gpx>
