<?xml version="1.0" encoding="UTF-8"?>
<gpx xmlns="http://www.topografix.com/GPX/1/1" version="1.1">
  <trk>
    <name>Chester Zoo, Chester, Cheshire</name>
    <desc>England</desc>
    <trkseg>
      <trkpt lat="53.226575" lon="-2.887075"/>
      <trkpt lat="53.226077" lon="-2.886551"/>
      <trkpt lat="53.225660" lon="-2.887350"/>
      <trkpt lat="53.224931" lon="-2.886907"/>
      <trkpt lat="53.224291" lon="-2.886664"/>
      <trkpt lat="53.223589" lon="-2.886431"/>
      <trkpt lat="53.223186" lon="-2.886758"/>
      <trkpt lat="53.222733" lon="-2.885650"/>
      <trkpt lat="53.222448" lon="-2.885192"/>
      <trkpt lat="53.222663" lon="-2.884271"/>
      <trkpt lat="53.222055" lon="-2.884214"/>
      <trkpt lat="53.223547" lon="-2.885068"/>
      <trkpt lat="53.224311" lon="-2.885094"/>
      <trkpt lat="53.224957" lon="-2.883892"/>
      <trkpt lat="53.225348" lon="-2.883963"/>
      <trkpt lat="53.225393" lon="-2.884643"/>
      <trkpt lat="53.225822" lon="-2.884421"/>
      <trkpt lat="53.225988" lon="-2.885318"/>
      <trkpt lat="53.226225" lon="-2.883572"/>
      <trkpt lat="53.226462" lon="-2.883322"/>
      <trkpt lat="53.226625" lon="-2.883673"/>
      <trkpt lat="53.227035" lon="-2.883752"/>
      <trkpt lat="53.227609" lon="-2.884384"/>
      <trkpt lat="53.227827" lon="-2.884141"/>
      <trkpt lat="53.227644" lon="-2.881958"/>
      <trkpt lat="53.228043" lon="-2.881772"/>
      <trkpt lat="53.227360" lon="-2.881189"/>
      <trkpt lat="53.227030" lon="-2.881546"/>
      <trkpt lat="53.227691" lon="-2.880521"/>
      <trkpt lat="53.227849" lon="-2.879842"/>
      <trkpt lat="53.228266" lon="-2.880271"/>
      <trkpt lat="53.226890" lon="-2.879721"/>
      <trkpt lat="53.226421" lon="-2.879556"/>
      <trkpt lat="53.225294" lon="-2.879392"/>
      <trkpt lat="53.224987" lon="-2.879242"/>
      <trkpt lat="53.225092" lon="-2.880263"/>
      <trkpt lat="53.225559" lon="-2.881059"/>
      <trkpt lat="53.225440" lon="-2.882155"/>
      <trkpt lat="53.225060" lon="-2.882808"/>
      <trkpt lat="53.224650" lon="-2.883044"/>
      <trkpt lat="53.224266" lon="-2.880088"/>
      <trkpt lat="53.224386" lon="-2.879558"/>
      <trkpt lat="53.225333" lon="-2.888971"/>
      <trkpt lat="53.224722" lon="-2.889997"/>
      <trkpt lat="53.224695" lon="-2.890763"/>
    </trkseg>
  </trk>
</gpx>
