<?xml version="1.0" encoding="UTF-8"?>
<gpx xmlns="http://www.topografix.com/GPX/1/1"
     xmlns:pgr="https://joshuaspence.github.io/pokemon-go-gpx-routes/gpx/1"
     version="1.1"
     creator="https://github.com/joshuaspence/pokemon-go-gpx-routes">
  <trk>
    <name>City of London</name>
    <extensions>
      <pgr:city>London</pgr:city>
      <pgr:country>England</pgr:country>
    </extensions>
    <trkseg>
      <trkpt lat="51.512210" lon="-0.091490"/>
      <trkpt lat="51.512550" lon="-0.091230"/>
      <trkpt lat="51.512640" lon="-0.090830"/>
      <trkpt lat="51.512750" lon="-0.089940"/>
      <trkpt lat="51.513240" lon="-0.089590"/>
      <trkpt lat="51.513180" lon="-0.089290"/>
      <trkpt lat="51.512670" lon="-0.089060"/>
      <trkpt lat="51.512320" lon="-0.089000"/>
      <trkpt lat="51.512220" lon="-0.088760"/>
      <trkpt lat="51.512130" lon="-0.087980"/>
      <trkpt lat="51.512080" lon="-0.087170"/>
      <trkpt lat="51.512310" lon="-0.086380"/>
      <trkpt lat="51.512620" lon="-0.085560"/>
      <trkpt lat="51.512830" lon="-0.084810"/>
      <trkpt lat="51.513070" lon="-0.084720"/>
      <trkpt lat="51.513340" lon="-0.085130"/>
      <trkpt lat="51.513420" lon="-0.084220"/>
      <trkpt lat="51.513730" lon="-0.083400"/>
      <trkpt lat="51.513580" lon="-0.082660"/>
      <trkpt lat="51.513640" lon="-0.081970"/>
      <trkpt lat="51.513750" lon="-0.081630"/>
      <trkpt lat="51.513940" lon="-0.081390"/>
      <trkpt lat="51.513630" lon="-0.081270"/>
      <trkpt lat="51.514190" lon="-0.080380"/>
      <trkpt lat="51.514530" lon="-0.079900"/>
      <trkpt lat="51.514700" lon="-0.079740"/>
      <trkpt lat="51.514730" lon="-0.080470"/>
      <trkpt lat="51.514630" lon="-0.080750"/>
      <trkpt lat="51.514950" lon="-0.080790"/>
      <trkpt lat="51.514660" lon="-0.081730"/>
      <trkpt lat="51.514770" lon="-0.081990"/>
      <trkpt lat="51.514650" lon="-0.082390"/>
      <trkpt lat="51.515010" lon="-0.082610"/>
      <trkpt lat="51.514820" lon="-0.083210"/>
      <trkpt lat="51.514520" lon="-0.083700"/>
      <trkpt lat="51.514120" lon="-0.084030"/>
      <trkpt lat="51.514270" lon="-0.084960"/>
      <trkpt lat="51.514220" lon="-0.085670"/>
      <trkpt lat="51.514270" lon="-0.086300"/>
      <trkpt lat="51.514480" lon="-0.086460"/>
      <trkpt lat="51.514810" lon="-0.086860"/>
      <trkpt lat="51.515280" lon="-0.086690"/>
      <trkpt lat="51.515220" lon="-0.086230"/>
      <trkpt lat="51.515560" lon="-0.085440"/>
      <trkpt lat="51.515720" lon="-0.085260"/>
      <trkpt lat="51.515650" lon="-0.084490"/>
      <trkpt lat="51.515310" lon="-0.084000"/>
      <trkpt lat="51.514820" lon="-0.084410"/>
      <trkpt lat="51.515030" lon="-0.084800"/>
      <trkpt lat="51.516100" lon="-0.084170"/>
      <trkpt lat="51.516600" lon="-0.083930"/>
      <trkpt lat="51.516660" lon="-0.084580"/>
      <trkpt lat="51.516290" lon="-0.085460"/>
      <trkpt lat="51.516810" lon="-0.086050"/>
      <trkpt lat="51.517180" lon="-0.086580"/>
      <trkpt lat="51.517240" lon="-0.086880"/>
      <trkpt lat="51.516800" lon="-0.086880"/>
      <trkpt lat="51.517240" lon="-0.087630"/>
      <trkpt lat="51.517960" lon="-0.087340"/>
      <trkpt lat="51.517910" lon="-0.086770"/>
      <trkpt lat="51.518400" lon="-0.087820"/>
      <trkpt lat="51.518490" lon="-0.088200"/>
      <trkpt lat="51.518010" lon="-0.088210"/>
      <trkpt lat="51.517630" lon="-0.089420"/>
      <trkpt lat="51.517160" lon="-0.089600"/>
      <trkpt lat="51.516990" lon="-0.090440"/>
      <trkpt lat="51.516360" lon="-0.089940"/>
      <trkpt lat="51.515710" lon="-0.090240"/>
      <trkpt lat="51.515440" lon="-0.090110"/>
      <trkpt lat="51.515180" lon="-0.089400"/>
      <trkpt lat="51.514840" lon="-0.089260"/>
      <trkpt lat="51.514620" lon="-0.089640"/>
      <trkpt lat="51.514190" lon="-0.089420"/>
      <trkpt lat="51.514110" lon="-0.088480"/>
      <trkpt lat="51.513800" lon="-0.088510"/>
      <trkpt lat="51.513420" lon="-0.088430"/>
      <trkpt lat="51.513540" lon="-0.088040"/>
      <trkpt lat="51.513680" lon="-0.087730"/>
      <trkpt lat="51.513390" lon="-0.086740"/>
      <trkpt lat="51.513450" lon="-0.086400"/>
      <trkpt lat="51.514200" lon="-0.087020"/>
      <trkpt lat="51.514650" lon="-0.087780"/>
      <trkpt lat="51.514640" lon="-0.088770"/>
      <trkpt lat="51.515400" lon="-0.087550"/>
      <trkpt lat="51.516210" lon="-0.087850"/>
      <trkpt lat="51.516280" lon="-0.088580"/>
      <trkpt lat="51.516410" lon="-0.088540"/>
      <trkpt lat="51.516600" lon="-0.088910"/>
      <trkpt lat="51.516290" lon="-0.091160"/>
      <trkpt lat="51.515990" lon="-0.091220"/>
      <trkpt lat="51.515090" lon="-0.091140"/>
      <trkpt lat="51.515230" lon="-0.092160"/>
      <trkpt lat="51.515490" lon="-0.092560"/>
      <trkpt lat="51.515370" lon="-0.092990"/>
      <trkpt lat="51.515500" lon="-0.093340"/>
      <trkpt lat="51.515890" lon="-0.093740"/>
      <trkpt lat="51.515760" lon="-0.094370"/>
      <trkpt lat="51.516210" lon="-0.094950"/>
      <trkpt lat="51.516720" lon="-0.094940"/>
      <trkpt lat="51.516580" lon="-0.095560"/>
      <trkpt lat="51.516970" lon="-0.095650"/>
      <trkpt lat="51.517240" lon="-0.095380"/>
      <trkpt lat="51.517810" lon="-0.095340"/>
      <trkpt lat="51.517710" lon="-0.096260"/>
      <trkpt lat="51.517490" lon="-0.096610"/>
      <trkpt lat="51.517750" lon="-0.096950"/>
      <trkpt lat="51.518480" lon="-0.096860"/>
      <trkpt lat="51.518610" lon="-0.097220"/>
      <trkpt lat="51.519390" lon="-0.098140"/>
      <trkpt lat="51.519300" lon="-0.098880"/>
      <trkpt lat="51.519040" lon="-0.099820"/>
      <trkpt lat="51.518710" lon="-0.099800"/>
      <trkpt lat="51.518490" lon="-0.100130"/>
      <trkpt lat="51.518970" lon="-0.100440"/>
      <trkpt lat="51.518560" lon="-0.101150"/>
      <trkpt lat="51.518120" lon="-0.101350"/>
      <trkpt lat="51.517760" lon="-0.101160"/>
      <trkpt lat="51.517250" lon="-0.101570"/>
      <trkpt lat="51.516430" lon="-0.101770"/>
      <trkpt lat="51.516020" lon="-0.101170"/>
      <trkpt lat="51.515560" lon="-0.101760"/>
      <trkpt lat="51.515690" lon="-0.101990"/>
      <trkpt lat="51.516030" lon="-0.102410"/>
      <trkpt lat="51.516040" lon="-0.103230"/>
      <trkpt lat="51.516290" lon="-0.103610"/>
      <trkpt lat="51.516510" lon="-0.103250"/>
      <trkpt lat="51.516610" lon="-0.102660"/>
      <trkpt lat="51.517350" lon="-0.103010"/>
      <trkpt lat="51.517460" lon="-0.100120"/>
      <trkpt lat="51.517050" lon="-0.099810"/>
      <trkpt lat="51.517740" lon="-0.099020"/>
      <trkpt lat="51.518200" lon="-0.099190"/>
      <trkpt lat="51.517020" lon="-0.098100"/>
      <trkpt lat="51.516780" lon="-0.097870"/>
      <trkpt lat="51.516640" lon="-0.098460"/>
      <trkpt lat="51.516130" lon="-0.098790"/>
      <trkpt lat="51.515850" lon="-0.099400"/>
      <trkpt lat="51.515780" lon="-0.100010"/>
      <trkpt lat="51.515430" lon="-0.100890"/>
      <trkpt lat="51.514650" lon="-0.100870"/>
      <trkpt lat="51.514280" lon="-0.100550"/>
      <trkpt lat="51.513830" lon="-0.100480"/>
      <trkpt lat="51.513620" lon="-0.099590"/>
      <trkpt lat="51.514120" lon="-0.099410"/>
      <trkpt lat="51.514550" lon="-0.099300"/>
      <trkpt lat="51.514630" lon="-0.099040"/>
      <trkpt lat="51.515030" lon="-0.099600"/>
      <trkpt lat="51.515490" lon="-0.098920"/>
      <trkpt lat="51.515290" lon="-0.098020"/>
      <trkpt lat="51.514940" lon="-0.097550"/>
      <trkpt lat="51.514730" lon="-0.097610"/>
      <trkpt lat="51.514220" lon="-0.097720"/>
      <trkpt lat="51.514210" lon="-0.098380"/>
      <trkpt lat="51.513470" lon="-0.097930"/>
      <trkpt lat="51.513340" lon="-0.098280"/>
      <trkpt lat="51.512870" lon="-0.098130"/>
      <trkpt lat="51.512820" lon="-0.098470"/>
      <trkpt lat="51.513060" lon="-0.099030"/>
      <trkpt lat="51.512950" lon="-0.100020"/>
      <trkpt lat="51.513150" lon="-0.100230"/>
      <trkpt lat="51.513080" lon="-0.100550"/>
      <trkpt lat="51.513140" lon="-0.101360"/>
      <trkpt lat="51.512670" lon="-0.101390"/>
      <trkpt lat="51.512810" lon="-0.102130"/>
      <trkpt lat="51.513040" lon="-0.102260"/>
      <trkpt lat="51.513420" lon="-0.102790"/>
      <trkpt lat="51.513330" lon="-0.103750"/>
      <trkpt lat="51.513230" lon="-0.104690"/>
      <trkpt lat="51.513550" lon="-0.105180"/>
      <trkpt lat="51.514100" lon="-0.105190"/>
      <trkpt lat="51.514270" lon="-0.104650"/>
      <trkpt lat="51.514460" lon="-0.104740"/>
      <trkpt lat="51.514050" lon="-0.104070"/>
      <trkpt lat="51.513980" lon="-0.102070"/>
      <trkpt lat="51.513930" lon="-0.101720"/>
      <trkpt lat="51.514310" lon="-0.101460"/>
      <trkpt lat="51.515250" lon="-0.102160"/>
      <trkpt lat="51.515540" lon="-0.103310"/>
      <trkpt lat="51.515410" lon="-0.104880"/>
      <trkpt lat="51.512820" lon="-0.105660"/>
      <trkpt lat="51.512550" lon="-0.104850"/>
      <trkpt lat="51.512690" lon="-0.104090"/>
      <trkpt lat="51.512810" lon="-0.103280"/>
      <trkpt lat="51.512140" lon="-0.103380"/>
      <trkpt lat="51.512020" lon="-0.103770"/>
      <trkpt lat="51.511910" lon="-0.104430"/>
      <trkpt lat="51.511640" lon="-0.104650"/>
      <trkpt lat="51.511540" lon="-0.103890"/>
      <trkpt lat="51.511040" lon="-0.104440"/>
      <trkpt lat="51.510810" lon="-0.105330"/>
      <trkpt lat="51.511270" lon="-0.105470"/>
      <trkpt lat="51.511240" lon="-0.102880"/>
      <trkpt lat="51.510890" lon="-0.102150"/>
      <trkpt lat="51.510820" lon="-0.101330"/>
      <trkpt lat="51.510930" lon="-0.101060"/>
      <trkpt lat="51.510870" lon="-0.099480"/>
      <trkpt lat="51.510940" lon="-0.098400"/>
      <trkpt lat="51.510620" lon="-0.097860"/>
      <trkpt lat="51.510430" lon="-0.098480"/>
      <trkpt lat="51.509730" lon="-0.098510"/>
      <trkpt lat="51.510830" lon="-0.096990"/>
      <trkpt lat="51.511350" lon="-0.096780"/>
      <trkpt lat="51.511430" lon="-0.097980"/>
      <trkpt lat="51.511720" lon="-0.097950"/>
      <trkpt lat="51.512050" lon="-0.098790"/>
      <trkpt lat="51.512090" lon="-0.099750"/>
      <trkpt lat="51.512180" lon="-0.100820"/>
      <trkpt lat="51.512010" lon="-0.101910"/>
      <trkpt lat="51.512170" lon="-0.097080"/>
      <trkpt lat="51.512940" lon="-0.097240"/>
      <trkpt lat="51.513240" lon="-0.097170"/>
      <trkpt lat="51.513460" lon="-0.096450"/>
      <trkpt lat="51.513800" lon="-0.096280"/>
      <trkpt lat="51.513790" lon="-0.095500"/>
      <trkpt lat="51.513080" lon="-0.095540"/>
      <trkpt lat="51.512720" lon="-0.096180"/>
      <trkpt lat="51.511970" lon="-0.095300"/>
      <trkpt lat="51.511850" lon="-0.095570"/>
      <trkpt lat="51.511620" lon="-0.094780"/>
      <trkpt lat="51.511260" lon="-0.095400"/>
      <trkpt lat="51.510900" lon="-0.094390"/>
      <trkpt lat="51.511080" lon="-0.094140"/>
      <trkpt lat="51.511170" lon="-0.093700"/>
      <trkpt lat="51.510790" lon="-0.093520"/>
      <trkpt lat="51.511300" lon="-0.092770"/>
      <trkpt lat="51.511270" lon="-0.092440"/>
      <trkpt lat="51.510850" lon="-0.091990"/>
      <trkpt lat="51.510760" lon="-0.091060"/>
      <trkpt lat="51.510920" lon="-0.090910"/>
      <trkpt lat="51.511500" lon="-0.090380"/>
      <trkpt lat="51.511300" lon="-0.090020"/>
      <trkpt lat="51.511490" lon="-0.089450"/>
      <trkpt lat="51.510940" lon="-0.089510"/>
      <trkpt lat="51.510730" lon="-0.088840"/>
      <trkpt lat="51.511120" lon="-0.088080"/>
      <trkpt lat="51.510720" lon="-0.087660"/>
      <trkpt lat="51.511240" lon="-0.087020"/>
      <trkpt lat="51.511030" lon="-0.085560"/>
      <trkpt lat="51.511030" lon="-0.084840"/>
      <trkpt lat="51.511560" lon="-0.085130"/>
      <trkpt lat="51.511890" lon="-0.085320"/>
      <trkpt lat="51.511820" lon="-0.084710"/>
      <trkpt lat="51.511740" lon="-0.083820"/>
      <trkpt lat="51.511470" lon="-0.083760"/>
      <trkpt lat="51.510900" lon="-0.083100"/>
      <trkpt lat="51.510560" lon="-0.083870"/>
      <trkpt lat="51.510520" lon="-0.083900"/>
      <trkpt lat="51.510320" lon="-0.084010"/>
      <trkpt lat="51.509980" lon="-0.083530"/>
      <trkpt lat="51.509500" lon="-0.083800"/>
      <trkpt lat="51.509830" lon="-0.082660"/>
      <trkpt lat="51.509520" lon="-0.082370"/>
      <trkpt lat="51.508930" lon="-0.082340"/>
      <trkpt lat="51.508430" lon="-0.081310"/>
      <trkpt lat="51.508890" lon="-0.079540"/>
      <trkpt lat="51.508360" lon="-0.079330"/>
      <trkpt lat="51.508440" lon="-0.078950"/>
      <trkpt lat="51.508150" lon="-0.078670"/>
      <trkpt lat="51.509530" lon="-0.078710"/>
      <trkpt lat="51.509700" lon="-0.077920"/>
      <trkpt lat="51.509980" lon="-0.078200"/>
      <trkpt lat="51.510270" lon="-0.077780"/>
      <trkpt lat="51.510840" lon="-0.077860"/>
      <trkpt lat="51.511380" lon="-0.077610"/>
      <trkpt lat="51.511150" lon="-0.078830"/>
      <trkpt lat="51.511450" lon="-0.079310"/>
      <trkpt lat="51.511690" lon="-0.079250"/>
      <trkpt lat="51.511730" lon="-0.079590"/>
      <trkpt lat="51.511510" lon="-0.080270"/>
      <trkpt lat="51.511790" lon="-0.080990"/>
      <trkpt lat="51.512190" lon="-0.081530"/>
      <trkpt lat="51.512620" lon="-0.081100"/>
      <trkpt lat="51.512740" lon="-0.081930"/>
      <trkpt lat="51.511980" lon="-0.082930"/>
      <trkpt lat="51.511490" lon="-0.082520"/>
      <trkpt lat="51.511330" lon="-0.081440"/>
      <trkpt lat="51.510710" lon="-0.081340"/>
      <trkpt lat="51.510730" lon="-0.082020"/>
      <trkpt lat="51.510950" lon="-0.079990"/>
      <trkpt lat="51.510700" lon="-0.079320"/>
      <trkpt lat="51.510160" lon="-0.078820"/>
      <trkpt lat="51.509420" lon="-0.079880"/>
      <trkpt lat="51.509610" lon="-0.080750"/>
      <trkpt lat="51.508620" lon="-0.084390"/>
      <trkpt lat="51.508610" lon="-0.085070"/>
      <trkpt lat="51.508610" lon="-0.085410"/>
      <trkpt lat="51.508930" lon="-0.086380"/>
      <trkpt lat="51.509200" lon="-0.086450"/>
      <trkpt lat="51.509250" lon="-0.086960"/>
      <trkpt lat="51.508870" lon="-0.087020"/>
      <trkpt lat="51.509130" lon="-0.087930"/>
      <trkpt lat="51.509690" lon="-0.088550"/>
      <trkpt lat="51.509880" lon="-0.088790"/>
      <trkpt lat="51.510170" lon="-0.089260"/>
      <trkpt lat="51.509340" lon="-0.090310"/>
      <trkpt lat="51.508980" lon="-0.089710"/>
      <trkpt lat="51.509240" lon="-0.091140"/>
      <trkpt lat="51.509450" lon="-0.091730"/>
      <trkpt lat="51.509550" lon="-0.092640"/>
      <trkpt lat="51.509770" lon="-0.093370"/>
      <trkpt lat="51.508970" lon="-0.094120"/>
      <trkpt lat="51.508030" lon="-0.094730"/>
      <trkpt lat="51.507960" lon="-0.094440"/>
      <trkpt lat="51.507750" lon="-0.094620"/>
      <trkpt lat="51.507390" lon="-0.095030"/>
      <trkpt lat="51.507100" lon="-0.095270"/>
      <trkpt lat="51.506900" lon="-0.094620"/>
      <trkpt lat="51.507100" lon="-0.094530"/>
      <trkpt lat="51.507690" lon="-0.093530"/>
      <trkpt lat="51.507200" lon="-0.092840"/>
      <trkpt lat="51.506790" lon="-0.092710"/>
      <trkpt lat="51.506390" lon="-0.092850"/>
      <trkpt lat="51.506340" lon="-0.093500"/>
      <trkpt lat="51.506040" lon="-0.094790"/>
      <trkpt lat="51.504870" lon="-0.095820"/>
      <trkpt lat="51.504720" lon="-0.095110"/>
      <trkpt lat="51.504680" lon="-0.094150"/>
      <trkpt lat="51.504580" lon="-0.093390"/>
      <trkpt lat="51.504130" lon="-0.093330"/>
      <trkpt lat="51.503590" lon="-0.093770"/>
      <trkpt lat="51.504190" lon="-0.094350"/>
      <trkpt lat="51.503900" lon="-0.094850"/>
      <trkpt lat="51.503810" lon="-0.095910"/>
      <trkpt lat="51.505290" lon="-0.097140"/>
      <trkpt lat="51.505130" lon="-0.097670"/>
      <trkpt lat="51.506000" lon="-0.097570"/>
      <trkpt lat="51.505930" lon="-0.098570"/>
      <trkpt lat="51.506520" lon="-0.098600"/>
      <trkpt lat="51.506720" lon="-0.099190"/>
      <trkpt lat="51.506610" lon="-0.100390"/>
      <trkpt lat="51.506380" lon="-0.100470"/>
      <trkpt lat="51.505950" lon="-0.100630"/>
      <trkpt lat="51.505630" lon="-0.100290"/>
      <trkpt lat="51.505480" lon="-0.099670"/>
      <trkpt lat="51.504580" lon="-0.098940"/>
      <trkpt lat="51.505960" lon="-0.101470"/>
      <trkpt lat="51.506620" lon="-0.101400"/>
      <trkpt lat="51.507100" lon="-0.101090"/>
      <trkpt lat="51.507600" lon="-0.100420"/>
      <trkpt lat="51.508110" lon="-0.099880"/>
      <trkpt lat="51.507910" lon="-0.099350"/>
      <trkpt lat="51.508120" lon="-0.098760"/>
      <trkpt lat="51.508160" lon="-0.098130"/>
      <trkpt lat="51.508060" lon="-0.097740"/>
      <trkpt lat="51.508250" lon="-0.097080"/>
      <trkpt lat="51.508380" lon="-0.096700"/>
      <trkpt lat="51.508450" lon="-0.096300"/>
      <trkpt lat="51.508260" lon="-0.095790"/>
      <trkpt lat="51.507320" lon="-0.095990"/>
      <trkpt lat="51.507150" lon="-0.097340"/>
      <trkpt lat="51.506460" lon="-0.096880"/>
      <trkpt lat="51.508550" lon="-0.099970"/>
      <trkpt lat="51.508330" lon="-0.101200"/>
      <trkpt lat="51.508160" lon="-0.101310"/>
      <trkpt lat="51.508420" lon="-0.101550"/>
      <trkpt lat="51.508090" lon="-0.102140"/>
      <trkpt lat="51.508420" lon="-0.102550"/>
      <trkpt lat="51.508490" lon="-0.103730"/>
      <trkpt lat="51.508330" lon="-0.104190"/>
      <trkpt lat="51.506600" lon="-0.102290"/>
      <trkpt lat="51.510400" lon="-0.095930"/>
      <trkpt lat="51.510180" lon="-0.095170"/>
      <trkpt lat="51.510450" lon="-0.095070"/>
      <trkpt lat="51.511860" lon="-0.093980"/>
      <trkpt lat="51.512050" lon="-0.093770"/>
      <trkpt lat="51.511770" lon="-0.092880"/>
      <trkpt lat="51.511560" lon="-0.091310"/>
      <trkpt lat="51.511850" lon="-0.090780"/>
      <trkpt lat="51.511870" lon="-0.090480"/>
      <trkpt lat="51.512110" lon="-0.090160"/>
      <trkpt lat="51.513090" lon="-0.091440"/>
      <trkpt lat="51.513210" lon="-0.091830"/>
      <trkpt lat="51.512760" lon="-0.092450"/>
      <trkpt lat="51.512810" lon="-0.093000"/>
      <trkpt lat="51.512880" lon="-0.093570"/>
      <trkpt lat="51.513230" lon="-0.093640"/>
      <trkpt lat="51.513860" lon="-0.093740"/>
      <trkpt lat="51.514110" lon="-0.093530"/>
      <trkpt lat="51.514140" lon="-0.094040"/>
      <trkpt lat="51.514360" lon="-0.094780"/>
      <trkpt lat="51.514910" lon="-0.094410"/>
      <trkpt lat="51.515020" lon="-0.095490"/>
      <trkpt lat="51.515790" lon="-0.095440"/>
      <trkpt lat="51.516350" lon="-0.096300"/>
      <trkpt lat="51.516160" lon="-0.097210"/>
      <trkpt lat="51.516770" lon="-0.097030"/>
      <trkpt lat="51.516980" lon="-0.096960"/>
      <trkpt lat="51.517280" lon="-0.094100"/>
      <trkpt lat="51.517550" lon="-0.093490"/>
      <trkpt lat="51.517310" lon="-0.092590"/>
      <trkpt lat="51.517970" lon="-0.092530"/>
      <trkpt lat="51.518880" lon="-0.092810"/>
      <trkpt lat="51.518700" lon="-0.093870"/>
      <trkpt lat="51.518020" lon="-0.094180"/>
      <trkpt lat="51.516600" lon="-0.094070"/>
      <trkpt lat="51.516590" lon="-0.093270"/>
      <trkpt lat="51.516310" lon="-0.093140"/>
      <trkpt lat="51.516570" lon="-0.092440"/>
      <trkpt lat="51.517800" lon="-0.090690"/>
      <trkpt lat="51.519390" lon="-0.091720"/>
      <trkpt lat="51.519740" lon="-0.090970"/>
      <trkpt lat="51.520780" lon="-0.090760"/>
      <trkpt lat="51.520840" lon="-0.091330"/>
      <trkpt lat="51.521050" lon="-0.091690"/>
      <trkpt lat="51.520910" lon="-0.092290"/>
      <trkpt lat="51.520870" lon="-0.092680"/>
      <trkpt lat="51.520700" lon="-0.093480"/>
      <trkpt lat="51.520500" lon="-0.094620"/>
      <trkpt lat="51.520570" lon="-0.095380"/>
      <trkpt lat="51.519620" lon="-0.094340"/>
      <trkpt lat="51.520020" lon="-0.092830"/>
      <trkpt lat="51.520740" lon="-0.089170"/>
      <trkpt lat="51.520940" lon="-0.088650"/>
      <trkpt lat="51.520550" lon="-0.088600"/>
      <trkpt lat="51.520470" lon="-0.087440"/>
      <trkpt lat="51.520040" lon="-0.087310"/>
      <trkpt lat="51.520560" lon="-0.086170"/>
      <trkpt lat="51.519300" lon="-0.084670"/>
      <trkpt lat="51.519310" lon="-0.084260"/>
      <trkpt lat="51.519490" lon="-0.084270"/>
      <trkpt lat="51.519780" lon="-0.083720"/>
      <trkpt lat="51.518540" lon="-0.083180"/>
      <trkpt lat="51.518210" lon="-0.083830"/>
      <trkpt lat="51.517590" lon="-0.083710"/>
      <trkpt lat="51.517270" lon="-0.083100"/>
      <trkpt lat="51.517630" lon="-0.082670"/>
      <trkpt lat="51.517500" lon="-0.082360"/>
      <trkpt lat="51.517250" lon="-0.082030"/>
      <trkpt lat="51.517270" lon="-0.081670"/>
      <trkpt lat="51.517340" lon="-0.081320"/>
      <trkpt lat="51.517800" lon="-0.081920"/>
      <trkpt lat="51.517850" lon="-0.082190"/>
      <trkpt lat="51.517730" lon="-0.080490"/>
      <trkpt lat="51.517220" lon="-0.079630"/>
      <trkpt lat="51.516900" lon="-0.080300"/>
      <trkpt lat="51.516660" lon="-0.081350"/>
      <trkpt lat="51.516340" lon="-0.081590"/>
      <trkpt lat="51.516160" lon="-0.081290"/>
      <trkpt lat="51.516030" lon="-0.082070"/>
      <trkpt lat="51.515570" lon="-0.082120"/>
      <trkpt lat="51.516690" lon="-0.082910"/>
      <trkpt lat="51.517620" lon="-0.084710"/>
      <trkpt lat="51.518500" lon="-0.085050"/>
      <trkpt lat="51.518650" lon="-0.085780"/>
      <trkpt lat="51.518790" lon="-0.086100"/>
      <trkpt lat="51.519240" lon="-0.088900"/>
      <trkpt lat="51.516020" lon="-0.086400"/>
      <trkpt lat="51.514230" lon="-0.090840"/>
      <trkpt lat="51.514320" lon="-0.091200"/>
      <trkpt lat="51.514080" lon="-0.091380"/>
      <trkpt lat="51.513860" lon="-0.092220"/>
      <trkpt lat="51.513850" lon="-0.092850"/>
      <trkpt lat="51.513460" lon="-0.090780"/>
      <trkpt lat="51.512820" lon="-0.088230"/>
      <trkpt lat="51.512820" lon="-0.087920"/>
      <trkpt lat="51.512630" lon="-0.087210"/>
      <trkpt lat="51.512550" lon="-0.083740"/>
      <trkpt lat="51.512860" lon="-0.083620"/>
      <trkpt lat="51.513950" lon="-0.079600"/>
      <trkpt lat="51.513350" lon="-0.079270"/>
      <trkpt lat="51.513180" lon="-0.077910"/>
      <trkpt lat="51.513460" lon="-0.077670"/>
      <trkpt lat="51.513950" lon="-0.077390"/>
      <trkpt lat="51.514730" lon="-0.078900"/>
      <trkpt lat="51.515280" lon="-0.078590"/>
      <trkpt lat="51.512540" lon="-0.078680"/>
      <trkpt lat="51.512340" lon="-0.078300"/>
      <trkpt lat="51.512250" lon="-0.079240"/>
      <trkpt lat="51.509970" lon="-0.085300"/>
      <trkpt lat="51.509650" lon="-0.085480"/>
      <trkpt lat="51.510100" lon="-0.085880"/>
      <trkpt lat="51.508090" lon="-0.087830"/>
      <trkpt lat="51.506730" lon="-0.087930"/>
      <trkpt lat="51.506570" lon="-0.088700"/>
      <trkpt lat="51.506190" lon="-0.088640"/>
      <trkpt lat="51.506210" lon="-0.087960"/>
      <trkpt lat="51.506670" lon="-0.087110"/>
      <trkpt lat="51.506290" lon="-0.086690"/>
      <trkpt lat="51.505970" lon="-0.086210"/>
      <trkpt lat="51.505940" lon="-0.085730"/>
      <trkpt lat="51.505610" lon="-0.085750"/>
      <trkpt lat="51.505130" lon="-0.086100"/>
      <trkpt lat="51.504820" lon="-0.086610"/>
      <trkpt lat="51.504700" lon="-0.086810"/>
      <trkpt lat="51.505320" lon="-0.086880"/>
      <trkpt lat="51.505240" lon="-0.088070"/>
      <trkpt lat="51.505000" lon="-0.088700"/>
      <trkpt lat="51.505390" lon="-0.089050"/>
      <trkpt lat="51.505780" lon="-0.089490"/>
      <trkpt lat="51.505450" lon="-0.089920"/>
      <trkpt lat="51.504910" lon="-0.089780"/>
      <trkpt lat="51.504570" lon="-0.089290"/>
      <trkpt lat="51.504300" lon="-0.090150"/>
      <trkpt lat="51.504250" lon="-0.090940"/>
      <trkpt lat="51.503800" lon="-0.091080"/>
      <trkpt lat="51.504790" lon="-0.091170"/>
      <trkpt lat="51.504870" lon="-0.090730"/>
      <trkpt lat="51.505470" lon="-0.091140"/>
      <trkpt lat="51.506230" lon="-0.091280"/>
      <trkpt lat="51.506700" lon="-0.090430"/>
      <trkpt lat="51.506510" lon="-0.090020"/>
      <trkpt lat="51.506540" lon="-0.089420"/>
      <trkpt lat="51.506040" lon="-0.090050"/>
      <trkpt lat="51.506940" lon="-0.091100"/>
      <trkpt lat="51.507140" lon="-0.090430"/>
      <trkpt lat="51.507180" lon="-0.091940"/>
      <trkpt lat="51.506980" lon="-0.091920"/>
      <trkpt lat="51.504760" lon="-0.092660"/>
      <trkpt lat="51.503320" lon="-0.092500"/>
      <trkpt lat="51.503480" lon="-0.089060"/>
      <trkpt lat="51.503720" lon="-0.088570"/>
      <trkpt lat="51.503850" lon="-0.088150"/>
      <trkpt lat="51.503890" lon="-0.087480"/>
      <trkpt lat="51.504140" lon="-0.085380"/>
      <trkpt lat="51.504740" lon="-0.085180"/>
      <trkpt lat="51.504970" lon="-0.084360"/>
      <trkpt lat="51.505080" lon="-0.083890"/>
      <trkpt lat="51.505560" lon="-0.083890"/>
      <trkpt lat="51.506040" lon="-0.083370"/>
      <trkpt lat="51.506140" lon="-0.082830"/>
      <trkpt lat="51.505380" lon="-0.082700"/>
      <trkpt lat="51.506370" lon="-0.084180"/>
      <trkpt lat="51.506440" lon="-0.084650"/>
      <trkpt lat="51.505450" lon="-0.084900"/>
      <trkpt lat="51.506670" lon="-0.081860"/>
      <trkpt lat="51.514710" lon="-0.096770"/>
      <trkpt lat="51.520180" lon="-0.097590"/>
    </trkseg>
  </trk>
</gpx>
