<?xml version="1.0" encoding="UTF-8"?>
<gpx xmlns="http://www.topografix.com/GPX/1/1" version="1.1">
  <trk>
    <name>West End, London</name>
    <desc>England</desc>
    <trkseg>
      <trkpt lat="51.510000" lon="-0.128310"/>
      <trkpt lat="51.509920" lon="-0.127950"/>
      <trkpt lat="51.509630" lon="-0.128290"/>
      <trkpt lat="51.509440" lon="-0.127250"/>
      <trkpt lat="51.509480" lon="-0.126640"/>
      <trkpt lat="51.509760" lon="-0.126860"/>
      <trkpt lat="51.510170" lon="-0.127030"/>
      <trkpt lat="51.510710" lon="-0.127450"/>
      <trkpt lat="51.510810" lon="-0.126960"/>
      <trkpt lat="51.511070" lon="-0.127160"/>
      <trkpt lat="51.511060" lon="-0.127820"/>
      <trkpt lat="51.510960" lon="-0.128240"/>
      <trkpt lat="51.510780" lon="-0.128560"/>
      <trkpt lat="51.511100" lon="-0.129540"/>
      <trkpt lat="51.511380" lon="-0.130450"/>
      <trkpt lat="51.511130" lon="-0.131350"/>
      <trkpt lat="51.510810" lon="-0.131840"/>
      <trkpt lat="51.510410" lon="-0.131340"/>
      <trkpt lat="51.510470" lon="-0.130520"/>
      <trkpt lat="51.510270" lon="-0.130230"/>
      <trkpt lat="51.510470" lon="-0.130060"/>
      <trkpt lat="51.509810" lon="-0.130070"/>
      <trkpt lat="51.509520" lon="-0.129570"/>
      <trkpt lat="51.509870" lon="-0.129330"/>
      <trkpt lat="51.508870" lon="-0.129730"/>
      <trkpt lat="51.508360" lon="-0.129580"/>
      <trkpt lat="51.508470" lon="-0.128900"/>
      <trkpt lat="51.508200" lon="-0.128730"/>
      <trkpt lat="51.508110" lon="-0.128080"/>
      <trkpt lat="51.508430" lon="-0.127930"/>
      <trkpt lat="51.508520" lon="-0.128290"/>
      <trkpt lat="51.507780" lon="-0.127940"/>
      <trkpt lat="51.507580" lon="-0.128350"/>
      <trkpt lat="51.507340" lon="-0.127690"/>
      <trkpt lat="51.506990" lon="-0.127930"/>
      <trkpt lat="51.506790" lon="-0.127550"/>
      <trkpt lat="51.506770" lon="-0.128400"/>
      <trkpt lat="51.506410" lon="-0.128730"/>
      <trkpt lat="51.506330" lon="-0.129350"/>
      <trkpt lat="51.506790" lon="-0.129380"/>
      <trkpt lat="51.506830" lon="-0.129450"/>
      <trkpt lat="51.507210" lon="-0.129000"/>
      <trkpt lat="51.507500" lon="-0.129410"/>
      <trkpt lat="51.507310" lon="-0.130040"/>
      <trkpt lat="51.507570" lon="-0.130690"/>
      <trkpt lat="51.507790" lon="-0.130540"/>
      <trkpt lat="51.508220" lon="-0.131680"/>
      <trkpt lat="51.508480" lon="-0.131540"/>
      <trkpt lat="51.508400" lon="-0.132250"/>
      <trkpt lat="51.509010" lon="-0.132060"/>
      <trkpt lat="51.509580" lon="-0.131760"/>
      <trkpt lat="51.509790" lon="-0.131910"/>
      <trkpt lat="51.510140" lon="-0.132290"/>
      <trkpt lat="51.510360" lon="-0.132340"/>
      <trkpt lat="51.509960" lon="-0.133490"/>
      <trkpt lat="51.510150" lon="-0.134170"/>
      <trkpt lat="51.509890" lon="-0.134680"/>
      <trkpt lat="51.509390" lon="-0.134210"/>
      <trkpt lat="51.509260" lon="-0.134550"/>
      <trkpt lat="51.508980" lon="-0.135220"/>
      <trkpt lat="51.509470" lon="-0.135760"/>
      <trkpt lat="51.509290" lon="-0.136420"/>
      <trkpt lat="51.509980" lon="-0.136300"/>
      <trkpt lat="51.510330" lon="-0.136590"/>
      <trkpt lat="51.510530" lon="-0.137150"/>
      <trkpt lat="51.510100" lon="-0.137390"/>
      <trkpt lat="51.510410" lon="-0.138500"/>
      <trkpt lat="51.510280" lon="-0.139010"/>
      <trkpt lat="51.509980" lon="-0.139870"/>
      <trkpt lat="51.509840" lon="-0.140310"/>
      <trkpt lat="51.509640" lon="-0.140910"/>
      <trkpt lat="51.509190" lon="-0.141260"/>
      <trkpt lat="51.508960" lon="-0.141810"/>
      <trkpt lat="51.509170" lon="-0.141950"/>
      <trkpt lat="51.510010" lon="-0.142170"/>
      <trkpt lat="51.510390" lon="-0.142600"/>
      <trkpt lat="51.511800" lon="-0.141200"/>
      <trkpt lat="51.512350" lon="-0.140720"/>
      <trkpt lat="51.512660" lon="-0.140150"/>
      <trkpt lat="51.513010" lon="-0.140990"/>
      <trkpt lat="51.512760" lon="-0.141360"/>
      <trkpt lat="51.512410" lon="-0.141860"/>
      <trkpt lat="51.511560" lon="-0.140240"/>
      <trkpt lat="51.511060" lon="-0.139670"/>
      <trkpt lat="51.510910" lon="-0.138930"/>
      <trkpt lat="51.510990" lon="-0.138590"/>
      <trkpt lat="51.511460" lon="-0.139050"/>
      <trkpt lat="51.512020" lon="-0.139520"/>
      <trkpt lat="51.512630" lon="-0.138810"/>
      <trkpt lat="51.512760" lon="-0.138180"/>
      <trkpt lat="51.512300" lon="-0.137860"/>
      <trkpt lat="51.511850" lon="-0.138040"/>
      <trkpt lat="51.511830" lon="-0.137540"/>
      <trkpt lat="51.511640" lon="-0.137210"/>
      <trkpt lat="51.511320" lon="-0.137510"/>
      <trkpt lat="51.511180" lon="-0.136290"/>
      <trkpt lat="51.510730" lon="-0.135510"/>
      <trkpt lat="51.511030" lon="-0.134810"/>
      <trkpt lat="51.511130" lon="-0.134200"/>
      <trkpt lat="51.510860" lon="-0.133660"/>
      <trkpt lat="51.511390" lon="-0.133310"/>
      <trkpt lat="51.511720" lon="-0.133640"/>
      <trkpt lat="51.512110" lon="-0.132890"/>
      <trkpt lat="51.511810" lon="-0.132570"/>
      <trkpt lat="51.511450" lon="-0.132280"/>
      <trkpt lat="51.511500" lon="-0.131930"/>
      <trkpt lat="51.511940" lon="-0.131740"/>
      <trkpt lat="51.512070" lon="-0.131350"/>
      <trkpt lat="51.512580" lon="-0.131620"/>
      <trkpt lat="51.512840" lon="-0.132280"/>
      <trkpt lat="51.512540" lon="-0.132890"/>
      <trkpt lat="51.513300" lon="-0.133040"/>
      <trkpt lat="51.513400" lon="-0.132510"/>
      <trkpt lat="51.513450" lon="-0.131520"/>
      <trkpt lat="51.513530" lon="-0.131400"/>
      <trkpt lat="51.513750" lon="-0.131000"/>
      <trkpt lat="51.514070" lon="-0.130610"/>
      <trkpt lat="51.514320" lon="-0.129840"/>
      <trkpt lat="51.514460" lon="-0.129640"/>
      <trkpt lat="51.513980" lon="-0.129170"/>
      <trkpt lat="51.513510" lon="-0.129160"/>
      <trkpt lat="51.513420" lon="-0.128740"/>
      <trkpt lat="51.513220" lon="-0.129520"/>
      <trkpt lat="51.513250" lon="-0.130270"/>
      <trkpt lat="51.513710" lon="-0.129840"/>
      <trkpt lat="51.512790" lon="-0.129150"/>
      <trkpt lat="51.513020" lon="-0.128180"/>
      <trkpt lat="51.512770" lon="-0.127910"/>
      <trkpt lat="51.512670" lon="-0.127680"/>
      <trkpt lat="51.513180" lon="-0.127080"/>
      <trkpt lat="51.513530" lon="-0.126620"/>
      <trkpt lat="51.513730" lon="-0.127000"/>
      <trkpt lat="51.513830" lon="-0.126060"/>
      <trkpt lat="51.513490" lon="-0.125670"/>
      <trkpt lat="51.513320" lon="-0.125310"/>
      <trkpt lat="51.512780" lon="-0.124950"/>
      <trkpt lat="51.512920" lon="-0.124570"/>
      <trkpt lat="51.513010" lon="-0.124150"/>
      <trkpt lat="51.513140" lon="-0.124220"/>
      <trkpt lat="51.512790" lon="-0.123840"/>
      <trkpt lat="51.513090" lon="-0.123310"/>
      <trkpt lat="51.513040" lon="-0.122070"/>
      <trkpt lat="51.512680" lon="-0.121440"/>
      <trkpt lat="51.512350" lon="-0.121960"/>
      <trkpt lat="51.512370" lon="-0.122610"/>
      <trkpt lat="51.511950" lon="-0.122800"/>
      <trkpt lat="51.511460" lon="-0.122570"/>
      <trkpt lat="51.511220" lon="-0.122440"/>
      <trkpt lat="51.510970" lon="-0.122430"/>
      <trkpt lat="51.510790" lon="-0.121780"/>
      <trkpt lat="51.510310" lon="-0.122150"/>
      <trkpt lat="51.510020" lon="-0.122830"/>
      <trkpt lat="51.509460" lon="-0.122830"/>
      <trkpt lat="51.509300" lon="-0.122450"/>
      <trkpt lat="51.508990" lon="-0.122910"/>
      <trkpt lat="51.508980" lon="-0.123380"/>
      <trkpt lat="51.509480" lon="-0.123950"/>
      <trkpt lat="51.510230" lon="-0.123950"/>
      <trkpt lat="51.510450" lon="-0.123610"/>
      <trkpt lat="51.510730" lon="-0.123200"/>
      <trkpt lat="51.510870" lon="-0.124320"/>
      <trkpt lat="51.511570" lon="-0.124730"/>
      <trkpt lat="51.511240" lon="-0.125450"/>
      <trkpt lat="51.511650" lon="-0.125670"/>
      <trkpt lat="51.511640" lon="-0.126290"/>
      <trkpt lat="51.512040" lon="-0.126120"/>
      <trkpt lat="51.512350" lon="-0.125960"/>
      <trkpt lat="51.512460" lon="-0.125610"/>
      <trkpt lat="51.512110" lon="-0.124420"/>
      <trkpt lat="51.512010" lon="-0.123640"/>
      <trkpt lat="51.511640" lon="-0.123740"/>
      <trkpt lat="51.511550" lon="-0.121740"/>
      <trkpt lat="51.511980" lon="-0.121660"/>
      <trkpt lat="51.512220" lon="-0.120910"/>
      <trkpt lat="51.512050" lon="-0.120300"/>
      <trkpt lat="51.512440" lon="-0.120280"/>
      <trkpt lat="51.512640" lon="-0.120400"/>
      <trkpt lat="51.513130" lon="-0.120690"/>
      <trkpt lat="51.513830" lon="-0.120570"/>
      <trkpt lat="51.513770" lon="-0.120080"/>
      <trkpt lat="51.513550" lon="-0.119650"/>
      <trkpt lat="51.513170" lon="-0.119130"/>
      <trkpt lat="51.513100" lon="-0.118030"/>
      <trkpt lat="51.512950" lon="-0.117310"/>
      <trkpt lat="51.513450" lon="-0.116800"/>
      <trkpt lat="51.513610" lon="-0.117800"/>
      <trkpt lat="51.514270" lon="-0.117590"/>
      <trkpt lat="51.514410" lon="-0.117380"/>
      <trkpt lat="51.514350" lon="-0.118140"/>
      <trkpt lat="51.514100" lon="-0.118870"/>
      <trkpt lat="51.514690" lon="-0.119160"/>
      <trkpt lat="51.515040" lon="-0.118530"/>
      <trkpt lat="51.515340" lon="-0.119170"/>
      <trkpt lat="51.515440" lon="-0.119760"/>
      <trkpt lat="51.515260" lon="-0.120610"/>
      <trkpt lat="51.514870" lon="-0.120120"/>
      <trkpt lat="51.514910" lon="-0.121660"/>
      <trkpt lat="51.515360" lon="-0.121450"/>
      <trkpt lat="51.515040" lon="-0.122640"/>
      <trkpt lat="51.514430" lon="-0.122140"/>
      <trkpt lat="51.514030" lon="-0.122710"/>
      <trkpt lat="51.514150" lon="-0.124230"/>
      <trkpt lat="51.514530" lon="-0.124730"/>
      <trkpt lat="51.514790" lon="-0.125210"/>
      <trkpt lat="51.514300" lon="-0.126080"/>
      <trkpt lat="51.514490" lon="-0.126490"/>
      <trkpt lat="51.515010" lon="-0.126560"/>
      <trkpt lat="51.515080" lon="-0.127100"/>
      <trkpt lat="51.515660" lon="-0.127270"/>
      <trkpt lat="51.515650" lon="-0.128040"/>
      <trkpt lat="51.515690" lon="-0.128590"/>
      <trkpt lat="51.515280" lon="-0.128600"/>
      <trkpt lat="51.515120" lon="-0.129570"/>
      <trkpt lat="51.514860" lon="-0.130440"/>
      <trkpt lat="51.514670" lon="-0.130740"/>
      <trkpt lat="51.514930" lon="-0.131450"/>
      <trkpt lat="51.515400" lon="-0.131590"/>
      <trkpt lat="51.515680" lon="-0.132000"/>
      <trkpt lat="51.515890" lon="-0.132720"/>
      <trkpt lat="51.515540" lon="-0.132960"/>
      <trkpt lat="51.515120" lon="-0.132180"/>
      <trkpt lat="51.514710" lon="-0.132470"/>
      <trkpt lat="51.514180" lon="-0.132800"/>
      <trkpt lat="51.514090" lon="-0.133600"/>
      <trkpt lat="51.513990" lon="-0.134310"/>
      <trkpt lat="51.513940" lon="-0.134760"/>
      <trkpt lat="51.514420" lon="-0.134820"/>
      <trkpt lat="51.514120" lon="-0.135490"/>
      <trkpt lat="51.513420" lon="-0.135130"/>
      <trkpt lat="51.513500" lon="-0.136200"/>
      <trkpt lat="51.513670" lon="-0.136440"/>
      <trkpt lat="51.513260" lon="-0.137000"/>
      <trkpt lat="51.513260" lon="-0.137750"/>
      <trkpt lat="51.513580" lon="-0.138070"/>
      <trkpt lat="51.513860" lon="-0.138920"/>
      <trkpt lat="51.514360" lon="-0.139170"/>
      <trkpt lat="51.514420" lon="-0.138240"/>
      <trkpt lat="51.514910" lon="-0.137350"/>
      <trkpt lat="51.515100" lon="-0.137330"/>
      <trkpt lat="51.514800" lon="-0.137030"/>
      <trkpt lat="51.514980" lon="-0.136430"/>
      <trkpt lat="51.515170" lon="-0.135780"/>
      <trkpt lat="51.514930" lon="-0.135230"/>
      <trkpt lat="51.515480" lon="-0.134760"/>
      <trkpt lat="51.515110" lon="-0.134270"/>
      <trkpt lat="51.514870" lon="-0.133900"/>
      <trkpt lat="51.515870" lon="-0.135380"/>
      <trkpt lat="51.516070" lon="-0.135370"/>
      <trkpt lat="51.516310" lon="-0.136300"/>
      <trkpt lat="51.516040" lon="-0.136710"/>
      <trkpt lat="51.515910" lon="-0.136430"/>
      <trkpt lat="51.515560" lon="-0.136680"/>
      <trkpt lat="51.516500" lon="-0.137320"/>
      <trkpt lat="51.515730" lon="-0.138610"/>
      <trkpt lat="51.515470" lon="-0.138910"/>
      <trkpt lat="51.513930" lon="-0.140220"/>
      <trkpt lat="51.513700" lon="-0.140690"/>
      <trkpt lat="51.513510" lon="-0.140370"/>
      <trkpt lat="51.513290" lon="-0.140100"/>
      <trkpt lat="51.513930" lon="-0.141210"/>
      <trkpt lat="51.512670" lon="-0.136700"/>
      <trkpt lat="51.512800" lon="-0.136430"/>
      <trkpt lat="51.512440" lon="-0.136370"/>
      <trkpt lat="51.511850" lon="-0.135810"/>
      <trkpt lat="51.511550" lon="-0.135310"/>
      <trkpt lat="51.511900" lon="-0.134960"/>
      <trkpt lat="51.512230" lon="-0.135250"/>
      <trkpt lat="51.512820" lon="-0.134210"/>
      <trkpt lat="51.513330" lon="-0.133860"/>
      <trkpt lat="51.513990" lon="-0.131880"/>
      <trkpt lat="51.512850" lon="-0.130890"/>
      <trkpt lat="51.512620" lon="-0.130530"/>
      <trkpt lat="51.512120" lon="-0.130200"/>
      <trkpt lat="51.512110" lon="-0.129560"/>
      <trkpt lat="51.511800" lon="-0.127390"/>
      <trkpt lat="51.514250" lon="-0.127980"/>
      <trkpt lat="51.514310" lon="-0.127670"/>
      <trkpt lat="51.514600" lon="-0.128380"/>
      <trkpt lat="51.515460" lon="-0.126180"/>
      <trkpt lat="51.515910" lon="-0.126390"/>
      <trkpt lat="51.515930" lon="-0.126020"/>
      <trkpt lat="51.516520" lon="-0.126730"/>
      <trkpt lat="51.516270" lon="-0.127690"/>
      <trkpt lat="51.516660" lon="-0.127960"/>
      <trkpt lat="51.516420" lon="-0.129050"/>
      <trkpt lat="51.516150" lon="-0.129740"/>
      <trkpt lat="51.516670" lon="-0.130260"/>
      <trkpt lat="51.516470" lon="-0.130790"/>
      <trkpt lat="51.516160" lon="-0.130910"/>
      <trkpt lat="51.516440" lon="-0.131330"/>
      <trkpt lat="51.516930" lon="-0.130850"/>
      <trkpt lat="51.517200" lon="-0.130340"/>
      <trkpt lat="51.517560" lon="-0.128790"/>
      <trkpt lat="51.517650" lon="-0.128530"/>
      <trkpt lat="51.517820" lon="-0.127930"/>
      <trkpt lat="51.517890" lon="-0.127340"/>
      <trkpt lat="51.517970" lon="-0.126530"/>
      <trkpt lat="51.517710" lon="-0.125770"/>
      <trkpt lat="51.518000" lon="-0.125110"/>
      <trkpt lat="51.517570" lon="-0.124610"/>
      <trkpt lat="51.517350" lon="-0.125080"/>
      <trkpt lat="51.516900" lon="-0.125850"/>
      <trkpt lat="51.516570" lon="-0.125430"/>
      <trkpt lat="51.516340" lon="-0.124720"/>
      <trkpt lat="51.516120" lon="-0.124200"/>
      <trkpt lat="51.516470" lon="-0.123940"/>
      <trkpt lat="51.516230" lon="-0.123000"/>
      <trkpt lat="51.516650" lon="-0.122480"/>
      <trkpt lat="51.517050" lon="-0.122490"/>
      <trkpt lat="51.517420" lon="-0.123170"/>
      <trkpt lat="51.517650" lon="-0.123440"/>
      <trkpt lat="51.518230" lon="-0.124090"/>
      <trkpt lat="51.518340" lon="-0.123070"/>
      <trkpt lat="51.517880" lon="-0.121860"/>
      <trkpt lat="51.517310" lon="-0.121540"/>
      <trkpt lat="51.517030" lon="-0.120370"/>
      <trkpt lat="51.516830" lon="-0.119730"/>
      <trkpt lat="51.516630" lon="-0.119610"/>
      <trkpt lat="51.516240" lon="-0.119320"/>
      <trkpt lat="51.516130" lon="-0.118390"/>
      <trkpt lat="51.515830" lon="-0.118170"/>
      <trkpt lat="51.515450" lon="-0.117460"/>
      <trkpt lat="51.515520" lon="-0.117090"/>
      <trkpt lat="51.514560" lon="-0.116190"/>
      <trkpt lat="51.514290" lon="-0.116620"/>
      <trkpt lat="51.514140" lon="-0.115790"/>
      <trkpt lat="51.513280" lon="-0.115450"/>
      <trkpt lat="51.512810" lon="-0.114660"/>
      <trkpt lat="51.512240" lon="-0.115900"/>
      <trkpt lat="51.512060" lon="-0.116370"/>
      <trkpt lat="51.512110" lon="-0.117040"/>
      <trkpt lat="51.512130" lon="-0.117950"/>
      <trkpt lat="51.512310" lon="-0.118370"/>
      <trkpt lat="51.512530" lon="-0.118390"/>
      <trkpt lat="51.512310" lon="-0.118980"/>
      <trkpt lat="51.512330" lon="-0.119010"/>
      <trkpt lat="51.511730" lon="-0.119210"/>
      <trkpt lat="51.511660" lon="-0.118770"/>
      <trkpt lat="51.511400" lon="-0.119500"/>
      <trkpt lat="51.511250" lon="-0.119670"/>
      <trkpt lat="51.510650" lon="-0.119280"/>
      <trkpt lat="51.510390" lon="-0.119780"/>
      <trkpt lat="51.510010" lon="-0.119720"/>
      <trkpt lat="51.509760" lon="-0.119070"/>
      <trkpt lat="51.509890" lon="-0.118870"/>
      <trkpt lat="51.509580" lon="-0.118520"/>
      <trkpt lat="51.509540" lon="-0.119510"/>
      <trkpt lat="51.509360" lon="-0.120070"/>
      <trkpt lat="51.509080" lon="-0.120530"/>
      <trkpt lat="51.508600" lon="-0.120240"/>
      <trkpt lat="51.508410" lon="-0.120430"/>
      <trkpt lat="51.508250" lon="-0.120780"/>
      <trkpt lat="51.508210" lon="-0.121220"/>
      <trkpt lat="51.508430" lon="-0.121140"/>
      <trkpt lat="51.508570" lon="-0.122290"/>
      <trkpt lat="51.508120" lon="-0.123080"/>
      <trkpt lat="51.508170" lon="-0.123840"/>
      <trkpt lat="51.507570" lon="-0.124670"/>
      <trkpt lat="51.507240" lon="-0.125280"/>
      <trkpt lat="51.507160" lon="-0.125660"/>
      <trkpt lat="51.506470" lon="-0.125650"/>
      <trkpt lat="51.505840" lon="-0.126090"/>
      <trkpt lat="51.506110" lon="-0.126850"/>
      <trkpt lat="51.506260" lon="-0.127280"/>
      <trkpt lat="51.505370" lon="-0.128220"/>
      <trkpt lat="51.505200" lon="-0.127610"/>
      <trkpt lat="51.504820" lon="-0.127580"/>
      <trkpt lat="51.504170" lon="-0.127270"/>
      <trkpt lat="51.503860" lon="-0.127850"/>
      <trkpt lat="51.503550" lon="-0.128650"/>
      <trkpt lat="51.502870" lon="-0.129130"/>
      <trkpt lat="51.502980" lon="-0.129790"/>
      <trkpt lat="51.502650" lon="-0.130020"/>
      <trkpt lat="51.502350" lon="-0.129550"/>
      <trkpt lat="51.502390" lon="-0.128600"/>
      <trkpt lat="51.502060" lon="-0.128210"/>
      <trkpt lat="51.501220" lon="-0.127910"/>
      <trkpt lat="51.501060" lon="-0.128490"/>
      <trkpt lat="51.501170" lon="-0.129030"/>
      <trkpt lat="51.501420" lon="-0.129750"/>
      <trkpt lat="51.501120" lon="-0.130110"/>
      <trkpt lat="51.501340" lon="-0.130730"/>
      <trkpt lat="51.502090" lon="-0.130760"/>
      <trkpt lat="51.502270" lon="-0.132060"/>
      <trkpt lat="51.503270" lon="-0.132730"/>
      <trkpt lat="51.503130" lon="-0.134130"/>
      <trkpt lat="51.503720" lon="-0.134880"/>
      <trkpt lat="51.504130" lon="-0.134610"/>
      <trkpt lat="51.503550" lon="-0.135890"/>
      <trkpt lat="51.504020" lon="-0.136460"/>
      <trkpt lat="51.504640" lon="-0.136780"/>
      <trkpt lat="51.505090" lon="-0.136940"/>
      <trkpt lat="51.505480" lon="-0.137640"/>
      <trkpt lat="51.505570" lon="-0.138210"/>
      <trkpt lat="51.504970" lon="-0.137870"/>
      <trkpt lat="51.504950" lon="-0.138750"/>
      <trkpt lat="51.504550" lon="-0.139600"/>
      <trkpt lat="51.505510" lon="-0.140010"/>
      <trkpt lat="51.505720" lon="-0.140520"/>
      <trkpt lat="51.506160" lon="-0.140300"/>
      <trkpt lat="51.506420" lon="-0.140440"/>
      <trkpt lat="51.507020" lon="-0.140980"/>
      <trkpt lat="51.507550" lon="-0.141510"/>
      <trkpt lat="51.507790" lon="-0.140810"/>
      <trkpt lat="51.507610" lon="-0.140620"/>
      <trkpt lat="51.508390" lon="-0.140430"/>
      <trkpt lat="51.508290" lon="-0.139560"/>
      <trkpt lat="51.508690" lon="-0.139640"/>
      <trkpt lat="51.508620" lon="-0.139150"/>
      <trkpt lat="51.508600" lon="-0.138810"/>
      <trkpt lat="51.508370" lon="-0.138450"/>
      <trkpt lat="51.507760" lon="-0.138860"/>
      <trkpt lat="51.507620" lon="-0.137990"/>
      <trkpt lat="51.508090" lon="-0.137410"/>
      <trkpt lat="51.508380" lon="-0.137030"/>
      <trkpt lat="51.508090" lon="-0.136600"/>
      <trkpt lat="51.507790" lon="-0.135930"/>
      <trkpt lat="51.507580" lon="-0.136070"/>
      <trkpt lat="51.507480" lon="-0.136520"/>
      <trkpt lat="51.507470" lon="-0.135070"/>
      <trkpt lat="51.507770" lon="-0.135100"/>
      <trkpt lat="51.507970" lon="-0.134900"/>
      <trkpt lat="51.507330" lon="-0.134370"/>
      <trkpt lat="51.506780" lon="-0.134920"/>
      <trkpt lat="51.506650" lon="-0.135500"/>
      <trkpt lat="51.506110" lon="-0.135650"/>
      <trkpt lat="51.505820" lon="-0.135920"/>
      <trkpt lat="51.505650" lon="-0.136330"/>
      <trkpt lat="51.506420" lon="-0.136980"/>
      <trkpt lat="51.506340" lon="-0.137520"/>
      <trkpt lat="51.506930" lon="-0.139100"/>
      <trkpt lat="51.505840" lon="-0.139430"/>
      <trkpt lat="51.504380" lon="-0.137410"/>
      <trkpt lat="51.502950" lon="-0.135490"/>
      <trkpt lat="51.502360" lon="-0.135270"/>
      <trkpt lat="51.503760" lon="-0.131550"/>
      <trkpt lat="51.504040" lon="-0.131590"/>
      <trkpt lat="51.504290" lon="-0.130710"/>
      <trkpt lat="51.504240" lon="-0.130160"/>
      <trkpt lat="51.504390" lon="-0.129730"/>
      <trkpt lat="51.504280" lon="-0.129360"/>
      <trkpt lat="51.504650" lon="-0.129580"/>
      <trkpt lat="51.505270" lon="-0.129080"/>
      <trkpt lat="51.505580" lon="-0.129560"/>
      <trkpt lat="51.505760" lon="-0.130160"/>
      <trkpt lat="51.505970" lon="-0.131050"/>
      <trkpt lat="51.505580" lon="-0.131090"/>
      <trkpt lat="51.506300" lon="-0.131740"/>
      <trkpt lat="51.506710" lon="-0.131840"/>
      <trkpt lat="51.506800" lon="-0.132540"/>
      <trkpt lat="51.506870" lon="-0.132800"/>
      <trkpt lat="51.506950" lon="-0.133370"/>
      <trkpt lat="51.507330" lon="-0.132720"/>
      <trkpt lat="51.507400" lon="-0.132090"/>
      <trkpt lat="51.507750" lon="-0.132810"/>
      <trkpt lat="51.507590" lon="-0.133220"/>
      <trkpt lat="51.508070" lon="-0.133520"/>
      <trkpt lat="51.508250" lon="-0.133690"/>
      <trkpt lat="51.508510" lon="-0.133920"/>
      <trkpt lat="51.508900" lon="-0.131000"/>
      <trkpt lat="51.508650" lon="-0.130630"/>
      <trkpt lat="51.509120" lon="-0.130550"/>
      <trkpt lat="51.509830" lon="-0.131180"/>
      <trkpt lat="51.508730" lon="-0.126990"/>
      <trkpt lat="51.508790" lon="-0.126300"/>
      <trkpt lat="51.508660" lon="-0.125960"/>
      <trkpt lat="51.508370" lon="-0.125280"/>
      <trkpt lat="51.508760" lon="-0.124780"/>
      <trkpt lat="51.509390" lon="-0.126010"/>
      <trkpt lat="51.508140" lon="-0.127000"/>
      <trkpt lat="51.507930" lon="-0.127420"/>
      <trkpt lat="51.507700" lon="-0.126690"/>
      <trkpt lat="51.506150" lon="-0.124450"/>
      <trkpt lat="51.505680" lon="-0.124320"/>
      <trkpt lat="51.505550" lon="-0.123670"/>
      <trkpt lat="51.505690" lon="-0.123390"/>
      <trkpt lat="51.505290" lon="-0.123230"/>
      <trkpt lat="51.505050" lon="-0.123600"/>
      <trkpt lat="51.504870" lon="-0.124980"/>
      <trkpt lat="51.505100" lon="-0.125030"/>
      <trkpt lat="51.504790" lon="-0.126200"/>
      <trkpt lat="51.505250" lon="-0.126620"/>
      <trkpt lat="51.504200" lon="-0.126410"/>
      <trkpt lat="51.503870" lon="-0.126000"/>
      <trkpt lat="51.503310" lon="-0.125750"/>
      <trkpt lat="51.503180" lon="-0.125050"/>
      <trkpt lat="51.503400" lon="-0.124290"/>
      <trkpt lat="51.503230" lon="-0.123910"/>
      <trkpt lat="51.503170" lon="-0.124000"/>
      <trkpt lat="51.502920" lon="-0.124060"/>
      <trkpt lat="51.502980" lon="-0.123550"/>
      <trkpt lat="51.503990" lon="-0.123090"/>
      <trkpt lat="51.504040" lon="-0.123910"/>
      <trkpt lat="51.503280" lon="-0.126480"/>
      <trkpt lat="51.503000" lon="-0.126370"/>
      <trkpt lat="51.502640" lon="-0.125940"/>
      <trkpt lat="51.502030" lon="-0.125870"/>
      <trkpt lat="51.502100" lon="-0.126540"/>
      <trkpt lat="51.501560" lon="-0.126440"/>
      <trkpt lat="51.501230" lon="-0.127060"/>
      <trkpt lat="51.501930" lon="-0.124380"/>
      <trkpt lat="51.501540" lon="-0.123730"/>
      <trkpt lat="51.502940" lon="-0.119430"/>
      <trkpt lat="51.503330" lon="-0.119410"/>
      <trkpt lat="51.503400" lon="-0.118670"/>
      <trkpt lat="51.504010" lon="-0.118210"/>
      <trkpt lat="51.504410" lon="-0.119060"/>
      <trkpt lat="51.504650" lon="-0.118770"/>
      <trkpt lat="51.504770" lon="-0.118130"/>
      <trkpt lat="51.505190" lon="-0.118060"/>
      <trkpt lat="51.505360" lon="-0.118320"/>
      <trkpt lat="51.505940" lon="-0.117640"/>
      <trkpt lat="51.505960" lon="-0.117030"/>
      <trkpt lat="51.506430" lon="-0.117080"/>
      <trkpt lat="51.506450" lon="-0.116740"/>
      <trkpt lat="51.506320" lon="-0.116540"/>
      <trkpt lat="51.506380" lon="-0.117460"/>
      <trkpt lat="51.506970" lon="-0.116410"/>
      <trkpt lat="51.507070" lon="-0.116130"/>
      <trkpt lat="51.506890" lon="-0.115710"/>
      <trkpt lat="51.507330" lon="-0.115270"/>
      <trkpt lat="51.507510" lon="-0.114700"/>
      <trkpt lat="51.506440" lon="-0.115180"/>
      <trkpt lat="51.505980" lon="-0.115700"/>
      <trkpt lat="51.505300" lon="-0.116460"/>
      <trkpt lat="51.505420" lon="-0.117060"/>
      <trkpt lat="51.504640" lon="-0.116770"/>
      <trkpt lat="51.505760" lon="-0.119770"/>
      <trkpt lat="51.505980" lon="-0.120640"/>
      <trkpt lat="51.506310" lon="-0.120090"/>
      <trkpt lat="51.506390" lon="-0.121910"/>
      <trkpt lat="51.506420" lon="-0.122250"/>
      <trkpt lat="51.506490" lon="-0.123200"/>
      <trkpt lat="51.506800" lon="-0.123560"/>
      <trkpt lat="51.507270" lon="-0.122710"/>
      <trkpt lat="51.507190" lon="-0.122110"/>
      <trkpt lat="51.507150" lon="-0.121640"/>
      <trkpt lat="51.507900" lon="-0.122230"/>
      <trkpt lat="51.509600" lon="-0.121310"/>
      <trkpt lat="51.510220" lon="-0.121180"/>
      <trkpt lat="51.510270" lon="-0.120810"/>
      <trkpt lat="51.510720" lon="-0.120480"/>
      <trkpt lat="51.511390" lon="-0.120830"/>
      <trkpt lat="51.510640" lon="-0.118300"/>
      <trkpt lat="51.510950" lon="-0.117530"/>
      <trkpt lat="51.511070" lon="-0.117140"/>
      <trkpt lat="51.510720" lon="-0.116960"/>
      <trkpt lat="51.510590" lon="-0.116690"/>
      <trkpt lat="51.511260" lon="-0.116180"/>
      <trkpt lat="51.511620" lon="-0.115380"/>
      <trkpt lat="51.511020" lon="-0.114640"/>
      <trkpt lat="51.510580" lon="-0.114690"/>
      <trkpt lat="51.510490" lon="-0.115170"/>
      <trkpt lat="51.510830" lon="-0.115280"/>
      <trkpt lat="51.511460" lon="-0.117510"/>
      <trkpt lat="51.509920" lon="-0.117460"/>
      <trkpt lat="51.509150" lon="-0.117260"/>
      <trkpt lat="51.508330" lon="-0.116500"/>
      <trkpt lat="51.505790" lon="-0.122600"/>
      <trkpt lat="51.505880" lon="-0.132390"/>
      <trkpt lat="51.505980" lon="-0.133280"/>
      <trkpt lat="51.505670" lon="-0.133300"/>
      <trkpt lat="51.505300" lon="-0.133780"/>
      <trkpt lat="51.505070" lon="-0.133720"/>
      <trkpt lat="51.506400" lon="-0.134220"/>
      <trkpt lat="51.506250" lon="-0.134870"/>
      <trkpt lat="51.508990" lon="-0.137660"/>
      <trkpt lat="51.509610" lon="-0.138520"/>
      <trkpt lat="51.509020" lon="-0.139350"/>
      <trkpt lat="51.509230" lon="-0.140000"/>
      <trkpt lat="51.508380" lon="-0.141410"/>
      <trkpt lat="51.516780" lon="-0.133490"/>
      <trkpt lat="51.517180" lon="-0.133820"/>
      <trkpt lat="51.517290" lon="-0.133120"/>
      <trkpt lat="51.517680" lon="-0.133440"/>
      <trkpt lat="51.517700" lon="-0.134130"/>
      <trkpt lat="51.517970" lon="-0.134690"/>
      <trkpt lat="51.517730" lon="-0.135160"/>
      <trkpt lat="51.517430" lon="-0.135500"/>
      <trkpt lat="51.517680" lon="-0.132520"/>
      <trkpt lat="51.516760" lon="-0.132100"/>
      <trkpt lat="51.516530" lon="-0.132680"/>
      <trkpt lat="51.518370" lon="-0.130850"/>
      <trkpt lat="51.518540" lon="-0.130380"/>
      <trkpt lat="51.518300" lon="-0.129860"/>
      <trkpt lat="51.518270" lon="-0.127970"/>
      <trkpt lat="51.518520" lon="-0.127220"/>
      <trkpt lat="51.518580" lon="-0.126330"/>
      <trkpt lat="51.518580" lon="-0.125930"/>
      <trkpt lat="51.518990" lon="-0.128220"/>
      <trkpt lat="51.516430" lon="-0.121150"/>
      <trkpt lat="51.516270" lon="-0.120950"/>
      <trkpt lat="51.516020" lon="-0.120480"/>
      <trkpt lat="51.513890" lon="-0.125060"/>
    </trkseg>
  </trk>
</gpx>
