<?xml version="1.0" encoding="UTF-8"?>
<gpx xmlns="http://www.topografix.com/GPX/1/1" version="1.1">
  <trk>
    <name>City Centre, Amsterdam</name>
    <desc>Netherlands</desc>
    <trkseg>
      <trkpt lat="52.369910" lon="4.887110"/>
      <trkpt lat="52.369980" lon="4.887150"/>
      <trkpt lat="52.369900" lon="4.886520"/>
      <trkpt lat="52.370440" lon="4.887190"/>
      <trkpt lat="52.370030" lon="4.888400"/>
      <trkpt lat="52.370210" lon="4.888930"/>
      <trkpt lat="52.370830" lon="4.889280"/>
      <trkpt lat="52.371260" lon="4.889380"/>
      <trkpt lat="52.371680" lon="4.889490"/>
      <trkpt lat="52.372200" lon="4.890410"/>
      <trkpt lat="52.372050" lon="4.891250"/>
      <trkpt lat="52.371900" lon="4.892670"/>
      <trkpt lat="52.371600" lon="4.893230"/>
      <trkpt lat="52.371420" lon="4.893200"/>
      <trkpt lat="52.371520" lon="4.894220"/>
      <trkpt lat="52.370850" lon="4.894500"/>
      <trkpt lat="52.370760" lon="4.894170"/>
      <trkpt lat="52.370580" lon="4.894420"/>
      <trkpt lat="52.370710" lon="4.893600"/>
      <trkpt lat="52.370640" lon="4.893010"/>
      <trkpt lat="52.369900" lon="4.892790"/>
      <trkpt lat="52.369790" lon="4.892100"/>
      <trkpt lat="52.370230" lon="4.891860"/>
      <trkpt lat="52.370400" lon="4.891490"/>
      <trkpt lat="52.370520" lon="4.890720"/>
      <trkpt lat="52.370250" lon="4.890070"/>
      <trkpt lat="52.369760" lon="4.890140"/>
      <trkpt lat="52.369170" lon="4.889930"/>
      <trkpt lat="52.368810" lon="4.889880"/>
      <trkpt lat="52.368920" lon="4.890460"/>
      <trkpt lat="52.368540" lon="4.890530"/>
      <trkpt lat="52.368130" lon="4.890720"/>
      <trkpt lat="52.368240" lon="4.891480"/>
      <trkpt lat="52.367920" lon="4.891660"/>
      <trkpt lat="52.368130" lon="4.892450"/>
      <trkpt lat="52.368630" lon="4.892000"/>
      <trkpt lat="52.368770" lon="4.892920"/>
      <trkpt lat="52.368330" lon="4.893390"/>
      <trkpt lat="52.368650" lon="4.894630"/>
      <trkpt lat="52.368960" lon="4.894640"/>
      <trkpt lat="52.369240" lon="4.895050"/>
      <trkpt lat="52.369930" lon="4.894750"/>
      <trkpt lat="52.369540" lon="4.893670"/>
      <trkpt lat="52.369300" lon="4.893680"/>
      <trkpt lat="52.369190" lon="4.892310"/>
      <trkpt lat="52.369240" lon="4.891070"/>
      <trkpt lat="52.369720" lon="4.891290"/>
      <trkpt lat="52.371140" lon="4.890710"/>
      <trkpt lat="52.371230" lon="4.891860"/>
      <trkpt lat="52.372710" lon="4.892410"/>
      <trkpt lat="52.373050" lon="4.891870"/>
      <trkpt lat="52.373140" lon="4.891900"/>
      <trkpt lat="52.373520" lon="4.892030"/>
      <trkpt lat="52.373890" lon="4.891670"/>
      <trkpt lat="52.374130" lon="4.891550"/>
      <trkpt lat="52.374270" lon="4.892120"/>
      <trkpt lat="52.374300" lon="4.893070"/>
      <trkpt lat="52.373690" lon="4.893630"/>
      <trkpt lat="52.373380" lon="4.892890"/>
      <trkpt lat="52.372830" lon="4.893680"/>
      <trkpt lat="52.372450" lon="4.893860"/>
      <trkpt lat="52.373080" lon="4.894610"/>
      <trkpt lat="52.373160" lon="4.895380"/>
      <trkpt lat="52.373580" lon="4.895580"/>
      <trkpt lat="52.373800" lon="4.896550"/>
      <trkpt lat="52.373620" lon="4.896960"/>
      <trkpt lat="52.373180" lon="4.897140"/>
      <trkpt lat="52.373680" lon="4.897780"/>
      <trkpt lat="52.374010" lon="4.897920"/>
      <trkpt lat="52.374140" lon="4.897410"/>
      <trkpt lat="52.374090" lon="4.896280"/>
      <trkpt lat="52.374260" lon="4.895480"/>
      <trkpt lat="52.374360" lon="4.895040"/>
      <trkpt lat="52.373990" lon="4.894500"/>
      <trkpt lat="52.375210" lon="4.894220"/>
      <trkpt lat="52.375390" lon="4.894840"/>
      <trkpt lat="52.375790" lon="4.893820"/>
      <trkpt lat="52.375760" lon="4.893470"/>
      <trkpt lat="52.376180" lon="4.894200"/>
      <trkpt lat="52.376260" lon="4.895380"/>
      <trkpt lat="52.376420" lon="4.895790"/>
      <trkpt lat="52.376780" lon="4.896600"/>
      <trkpt lat="52.376210" lon="4.896850"/>
      <trkpt lat="52.375650" lon="4.896620"/>
      <trkpt lat="52.375510" lon="4.897430"/>
      <trkpt lat="52.375240" lon="4.897600"/>
      <trkpt lat="52.375380" lon="4.898250"/>
      <trkpt lat="52.374930" lon="4.898800"/>
      <trkpt lat="52.374470" lon="4.898730"/>
      <trkpt lat="52.373910" lon="4.899360"/>
      <trkpt lat="52.373680" lon="4.899450"/>
      <trkpt lat="52.373760" lon="4.900200"/>
      <trkpt lat="52.373140" lon="4.899720"/>
      <trkpt lat="52.373030" lon="4.898750"/>
      <trkpt lat="52.372600" lon="4.897900"/>
      <trkpt lat="52.372280" lon="4.897540"/>
      <trkpt lat="52.371870" lon="4.897910"/>
      <trkpt lat="52.371690" lon="4.898090"/>
      <trkpt lat="52.372010" lon="4.898520"/>
      <trkpt lat="52.372350" lon="4.898950"/>
      <trkpt lat="52.372140" lon="4.899720"/>
      <trkpt lat="52.372020" lon="4.900670"/>
      <trkpt lat="52.371490" lon="4.900410"/>
      <trkpt lat="52.371470" lon="4.899550"/>
      <trkpt lat="52.371560" lon="4.898920"/>
      <trkpt lat="52.370910" lon="4.899000"/>
      <trkpt lat="52.370720" lon="4.899650"/>
      <trkpt lat="52.370270" lon="4.899490"/>
      <trkpt lat="52.370230" lon="4.900300"/>
      <trkpt lat="52.369650" lon="4.900590"/>
      <trkpt lat="52.369570" lon="4.901240"/>
      <trkpt lat="52.369830" lon="4.901190"/>
      <trkpt lat="52.370530" lon="4.901280"/>
      <trkpt lat="52.370970" lon="4.901050"/>
      <trkpt lat="52.370280" lon="4.898570"/>
      <trkpt lat="52.370360" lon="4.897820"/>
      <trkpt lat="52.370060" lon="4.896920"/>
      <trkpt lat="52.369990" lon="4.896590"/>
      <trkpt lat="52.370260" lon="4.895930"/>
      <trkpt lat="52.370690" lon="4.896340"/>
      <trkpt lat="52.371090" lon="4.896990"/>
      <trkpt lat="52.371030" lon="4.897950"/>
      <trkpt lat="52.371760" lon="4.896980"/>
      <trkpt lat="52.371900" lon="4.896170"/>
      <trkpt lat="52.372170" lon="4.895920"/>
      <trkpt lat="52.372480" lon="4.895500"/>
      <trkpt lat="52.371470" lon="4.895530"/>
      <trkpt lat="52.371080" lon="4.895630"/>
      <trkpt lat="52.369350" lon="4.896210"/>
      <trkpt lat="52.369120" lon="4.896490"/>
      <trkpt lat="52.369260" lon="4.897520"/>
      <trkpt lat="52.369000" lon="4.898570"/>
      <trkpt lat="52.368570" lon="4.897800"/>
      <trkpt lat="52.368210" lon="4.897580"/>
      <trkpt lat="52.368280" lon="4.896430"/>
      <trkpt lat="52.367930" lon="4.896100"/>
      <trkpt lat="52.368050" lon="4.894820"/>
      <trkpt lat="52.367860" lon="4.894760"/>
      <trkpt lat="52.367580" lon="4.894250"/>
      <trkpt lat="52.367450" lon="4.893730"/>
      <trkpt lat="52.367050" lon="4.893210"/>
      <trkpt lat="52.366660" lon="4.893360"/>
      <trkpt lat="52.366060" lon="4.893660"/>
      <trkpt lat="52.365970" lon="4.894530"/>
      <trkpt lat="52.366540" lon="4.894690"/>
      <trkpt lat="52.366950" lon="4.896010"/>
      <trkpt lat="52.367000" lon="4.896730"/>
      <trkpt lat="52.366130" lon="4.896500"/>
      <trkpt lat="52.365940" lon="4.896470"/>
      <trkpt lat="52.366040" lon="4.895980"/>
      <trkpt lat="52.366080" lon="4.897590"/>
      <trkpt lat="52.365610" lon="4.897730"/>
      <trkpt lat="52.365050" lon="4.898500"/>
      <trkpt lat="52.365570" lon="4.899070"/>
      <trkpt lat="52.365970" lon="4.898880"/>
      <trkpt lat="52.366220" lon="4.899850"/>
      <trkpt lat="52.367320" lon="4.900160"/>
      <trkpt lat="52.367630" lon="4.898970"/>
      <trkpt lat="52.368030" lon="4.899560"/>
      <trkpt lat="52.368310" lon="4.899860"/>
      <trkpt lat="52.368200" lon="4.898770"/>
      <trkpt lat="52.368990" lon="4.900640"/>
      <trkpt lat="52.368710" lon="4.901370"/>
      <trkpt lat="52.368530" lon="4.901640"/>
      <trkpt lat="52.372650" lon="4.900400"/>
      <trkpt lat="52.373170" lon="4.900820"/>
      <trkpt lat="52.375070" lon="4.896420"/>
      <trkpt lat="52.375190" lon="4.896040"/>
      <trkpt lat="52.377130" lon="4.894840"/>
      <trkpt lat="52.377340" lon="4.894200"/>
      <trkpt lat="52.377750" lon="4.894150"/>
      <trkpt lat="52.376980" lon="4.893510"/>
      <trkpt lat="52.377420" lon="4.892070"/>
      <trkpt lat="52.377220" lon="4.891070"/>
      <trkpt lat="52.376590" lon="4.890950"/>
      <trkpt lat="52.376700" lon="4.890060"/>
      <trkpt lat="52.377270" lon="4.889860"/>
      <trkpt lat="52.377030" lon="4.889160"/>
      <trkpt lat="52.376070" lon="4.889450"/>
      <trkpt lat="52.375830" lon="4.890320"/>
      <trkpt lat="52.375370" lon="4.890750"/>
      <trkpt lat="52.375010" lon="4.891640"/>
      <trkpt lat="52.374440" lon="4.891080"/>
      <trkpt lat="52.374250" lon="4.890700"/>
      <trkpt lat="52.373750" lon="4.890550"/>
      <trkpt lat="52.373300" lon="4.890400"/>
      <trkpt lat="52.373160" lon="4.890890"/>
      <trkpt lat="52.373350" lon="4.889430"/>
      <trkpt lat="52.372850" lon="4.889080"/>
      <trkpt lat="52.373010" lon="4.888290"/>
      <trkpt lat="52.372740" lon="4.888260"/>
      <trkpt lat="52.373060" lon="4.887470"/>
      <trkpt lat="52.372900" lon="4.886810"/>
      <trkpt lat="52.373350" lon="4.886810"/>
      <trkpt lat="52.373570" lon="4.886050"/>
      <trkpt lat="52.373720" lon="4.885750"/>
      <trkpt lat="52.373830" lon="4.885500"/>
      <trkpt lat="52.374400" lon="4.884910"/>
      <trkpt lat="52.374350" lon="4.884530"/>
      <trkpt lat="52.374570" lon="4.884620"/>
      <trkpt lat="52.374630" lon="4.885690"/>
      <trkpt lat="52.375080" lon="4.886320"/>
      <trkpt lat="52.375630" lon="4.885790"/>
      <trkpt lat="52.375810" lon="4.885970"/>
      <trkpt lat="52.376390" lon="4.887270"/>
      <trkpt lat="52.377320" lon="4.887360"/>
      <trkpt lat="52.377670" lon="4.887270"/>
      <trkpt lat="52.377890" lon="4.886930"/>
      <trkpt lat="52.378130" lon="4.886590"/>
      <trkpt lat="52.378630" lon="4.887070"/>
      <trkpt lat="52.378480" lon="4.888370"/>
      <trkpt lat="52.377690" lon="4.885490"/>
      <trkpt lat="52.378110" lon="4.884790"/>
      <trkpt lat="52.378560" lon="4.884880"/>
      <trkpt lat="52.378300" lon="4.883400"/>
      <trkpt lat="52.377940" lon="4.882260"/>
      <trkpt lat="52.377780" lon="4.881540"/>
      <trkpt lat="52.377400" lon="4.881770"/>
      <trkpt lat="52.377030" lon="4.882470"/>
      <trkpt lat="52.377200" lon="4.882870"/>
      <trkpt lat="52.377370" lon="4.883950"/>
      <trkpt lat="52.377530" lon="4.884360"/>
      <trkpt lat="52.377100" lon="4.884220"/>
      <trkpt lat="52.376560" lon="4.883310"/>
      <trkpt lat="52.376420" lon="4.883520"/>
      <trkpt lat="52.376290" lon="4.884190"/>
      <trkpt lat="52.375320" lon="4.884040"/>
      <trkpt lat="52.375640" lon="4.882870"/>
      <trkpt lat="52.375560" lon="4.881930"/>
      <trkpt lat="52.375950" lon="4.881850"/>
      <trkpt lat="52.376340" lon="4.882300"/>
      <trkpt lat="52.375080" lon="4.882050"/>
      <trkpt lat="52.374940" lon="4.882380"/>
      <trkpt lat="52.374870" lon="4.882920"/>
      <trkpt lat="52.374550" lon="4.883480"/>
      <trkpt lat="52.374340" lon="4.883600"/>
      <trkpt lat="52.374360" lon="4.882380"/>
      <trkpt lat="52.374250" lon="4.881540"/>
      <trkpt lat="52.374610" lon="4.881320"/>
      <trkpt lat="52.374620" lon="4.880950"/>
      <trkpt lat="52.375090" lon="4.880070"/>
      <trkpt lat="52.375510" lon="4.879830"/>
      <trkpt lat="52.375600" lon="4.879050"/>
      <trkpt lat="52.376080" lon="4.879210"/>
      <trkpt lat="52.375790" lon="4.878260"/>
      <trkpt lat="52.376560" lon="4.877310"/>
      <trkpt lat="52.375390" lon="4.876580"/>
      <trkpt lat="52.374900" lon="4.875300"/>
      <trkpt lat="52.374210" lon="4.875520"/>
      <trkpt lat="52.374240" lon="4.876130"/>
      <trkpt lat="52.374020" lon="4.876660"/>
      <trkpt lat="52.374030" lon="4.877140"/>
      <trkpt lat="52.374170" lon="4.877910"/>
      <trkpt lat="52.373430" lon="4.878040"/>
      <trkpt lat="52.373020" lon="4.878660"/>
      <trkpt lat="52.372600" lon="4.877990"/>
      <trkpt lat="52.372660" lon="4.877200"/>
      <trkpt lat="52.373120" lon="4.876990"/>
      <trkpt lat="52.373350" lon="4.875960"/>
      <trkpt lat="52.372910" lon="4.875440"/>
      <trkpt lat="52.372060" lon="4.874710"/>
      <trkpt lat="52.371130" lon="4.873150"/>
      <trkpt lat="52.370720" lon="4.874310"/>
      <trkpt lat="52.369470" lon="4.873640"/>
      <trkpt lat="52.369830" lon="4.875970"/>
      <trkpt lat="52.370190" lon="4.876810"/>
      <trkpt lat="52.370500" lon="4.877310"/>
      <trkpt lat="52.370900" lon="4.878380"/>
      <trkpt lat="52.370720" lon="4.878670"/>
      <trkpt lat="52.370910" lon="4.879670"/>
      <trkpt lat="52.370700" lon="4.879840"/>
      <trkpt lat="52.370210" lon="4.880180"/>
      <trkpt lat="52.370540" lon="4.881030"/>
      <trkpt lat="52.370810" lon="4.881750"/>
      <trkpt lat="52.370540" lon="4.882450"/>
      <trkpt lat="52.370120" lon="4.882170"/>
      <trkpt lat="52.369940" lon="4.881790"/>
      <trkpt lat="52.369490" lon="4.882370"/>
      <trkpt lat="52.369270" lon="4.882870"/>
      <trkpt lat="52.368940" lon="4.883490"/>
      <trkpt lat="52.369270" lon="4.884280"/>
      <trkpt lat="52.369770" lon="4.883770"/>
      <trkpt lat="52.370040" lon="4.884320"/>
      <trkpt lat="52.370520" lon="4.885040"/>
      <trkpt lat="52.370930" lon="4.884410"/>
      <trkpt lat="52.370500" lon="4.883440"/>
      <trkpt lat="52.371650" lon="4.882250"/>
      <trkpt lat="52.371950" lon="4.882430"/>
      <trkpt lat="52.372090" lon="4.883220"/>
      <trkpt lat="52.372540" lon="4.882620"/>
      <trkpt lat="52.373010" lon="4.882040"/>
      <trkpt lat="52.373130" lon="4.882260"/>
      <trkpt lat="52.373230" lon="4.882660"/>
      <trkpt lat="52.372900" lon="4.881420"/>
      <trkpt lat="52.372830" lon="4.880560"/>
      <trkpt lat="52.373380" lon="4.879950"/>
      <trkpt lat="52.373790" lon="4.879580"/>
      <trkpt lat="52.374300" lon="4.879590"/>
      <trkpt lat="52.374420" lon="4.879120"/>
      <trkpt lat="52.375340" lon="4.880920"/>
      <trkpt lat="52.376890" lon="4.879950"/>
      <trkpt lat="52.377150" lon="4.880620"/>
      <trkpt lat="52.377340" lon="4.879400"/>
      <trkpt lat="52.373630" lon="4.881160"/>
      <trkpt lat="52.372000" lon="4.881040"/>
      <trkpt lat="52.371480" lon="4.880590"/>
      <trkpt lat="52.371380" lon="4.880280"/>
      <trkpt lat="52.371660" lon="4.878760"/>
      <trkpt lat="52.371980" lon="4.879030"/>
      <trkpt lat="52.372350" lon="4.878810"/>
      <trkpt lat="52.371770" lon="4.877300"/>
      <trkpt lat="52.371350" lon="4.877780"/>
      <trkpt lat="52.369980" lon="4.878910"/>
      <trkpt lat="52.369580" lon="4.880150"/>
      <trkpt lat="52.369230" lon="4.880010"/>
      <trkpt lat="52.369020" lon="4.880500"/>
      <trkpt lat="52.368690" lon="4.881020"/>
      <trkpt lat="52.368820" lon="4.881960"/>
      <trkpt lat="52.369310" lon="4.881680"/>
      <trkpt lat="52.368130" lon="4.880720"/>
      <trkpt lat="52.368010" lon="4.880290"/>
      <trkpt lat="52.368610" lon="4.879230"/>
      <trkpt lat="52.368930" lon="4.879020"/>
      <trkpt lat="52.368330" lon="4.878900"/>
      <trkpt lat="52.368620" lon="4.877850"/>
      <trkpt lat="52.368870" lon="4.877610"/>
      <trkpt lat="52.368440" lon="4.877010"/>
      <trkpt lat="52.368200" lon="4.876320"/>
      <trkpt lat="52.367460" lon="4.876730"/>
      <trkpt lat="52.367060" lon="4.876370"/>
      <trkpt lat="52.366750" lon="4.874540"/>
      <trkpt lat="52.366780" lon="4.873710"/>
      <trkpt lat="52.365920" lon="4.875150"/>
      <trkpt lat="52.365400" lon="4.875060"/>
      <trkpt lat="52.365410" lon="4.875890"/>
      <trkpt lat="52.365680" lon="4.876810"/>
      <trkpt lat="52.365950" lon="4.877910"/>
      <trkpt lat="52.365130" lon="4.878460"/>
      <trkpt lat="52.364950" lon="4.878900"/>
      <trkpt lat="52.364570" lon="4.878940"/>
      <trkpt lat="52.363900" lon="4.879180"/>
      <trkpt lat="52.363510" lon="4.880010"/>
      <trkpt lat="52.363190" lon="4.880150"/>
      <trkpt lat="52.363720" lon="4.881040"/>
      <trkpt lat="52.363640" lon="4.881560"/>
      <trkpt lat="52.364020" lon="4.881490"/>
      <trkpt lat="52.363980" lon="4.882240"/>
      <trkpt lat="52.363650" lon="4.882490"/>
      <trkpt lat="52.364130" lon="4.883060"/>
      <trkpt lat="52.364830" lon="4.883890"/>
      <trkpt lat="52.364860" lon="4.884290"/>
      <trkpt lat="52.365450" lon="4.883400"/>
      <trkpt lat="52.365020" lon="4.882930"/>
      <trkpt lat="52.364940" lon="4.882070"/>
      <trkpt lat="52.364820" lon="4.881360"/>
      <trkpt lat="52.364780" lon="4.880670"/>
      <trkpt lat="52.363980" lon="4.880560"/>
      <trkpt lat="52.363200" lon="4.881540"/>
      <trkpt lat="52.362530" lon="4.881090"/>
      <trkpt lat="52.362200" lon="4.881560"/>
      <trkpt lat="52.361700" lon="4.881710"/>
      <trkpt lat="52.362120" lon="4.883050"/>
      <trkpt lat="52.362470" lon="4.882970"/>
      <trkpt lat="52.362580" lon="4.882260"/>
      <trkpt lat="52.362990" lon="4.883640"/>
      <trkpt lat="52.362980" lon="4.884080"/>
      <trkpt lat="52.363310" lon="4.883670"/>
      <trkpt lat="52.363490" lon="4.884450"/>
      <trkpt lat="52.363520" lon="4.884870"/>
      <trkpt lat="52.363130" lon="4.885680"/>
      <trkpt lat="52.363360" lon="4.886580"/>
      <trkpt lat="52.362730" lon="4.886580"/>
      <trkpt lat="52.362670" lon="4.887540"/>
      <trkpt lat="52.363260" lon="4.887620"/>
      <trkpt lat="52.363040" lon="4.888420"/>
      <trkpt lat="52.362790" lon="4.888720"/>
      <trkpt lat="52.362610" lon="4.890080"/>
      <trkpt lat="52.362420" lon="4.891370"/>
      <trkpt lat="52.362290" lon="4.892350"/>
      <trkpt lat="52.361680" lon="4.891760"/>
      <trkpt lat="52.361730" lon="4.890280"/>
      <trkpt lat="52.361350" lon="4.889760"/>
      <trkpt lat="52.361090" lon="4.889020"/>
      <trkpt lat="52.361840" lon="4.888860"/>
      <trkpt lat="52.361640" lon="4.887270"/>
      <trkpt lat="52.361880" lon="4.886760"/>
      <trkpt lat="52.361320" lon="4.886470"/>
      <trkpt lat="52.362400" lon="4.884330"/>
      <trkpt lat="52.362190" lon="4.883830"/>
      <trkpt lat="52.364190" lon="4.885310"/>
      <trkpt lat="52.364300" lon="4.886010"/>
      <trkpt lat="52.365020" lon="4.885990"/>
      <trkpt lat="52.365610" lon="4.885590"/>
      <trkpt lat="52.365850" lon="4.886070"/>
      <trkpt lat="52.365990" lon="4.886900"/>
      <trkpt lat="52.365510" lon="4.887710"/>
      <trkpt lat="52.364710" lon="4.888220"/>
      <trkpt lat="52.364690" lon="4.889180"/>
      <trkpt lat="52.364490" lon="4.889510"/>
      <trkpt lat="52.364310" lon="4.890500"/>
      <trkpt lat="52.364100" lon="4.892230"/>
      <trkpt lat="52.363960" lon="4.892630"/>
      <trkpt lat="52.363960" lon="4.893280"/>
      <trkpt lat="52.363810" lon="4.894330"/>
      <trkpt lat="52.364860" lon="4.894200"/>
      <trkpt lat="52.365290" lon="4.894810"/>
      <trkpt lat="52.365010" lon="4.895870"/>
      <trkpt lat="52.364750" lon="4.896970"/>
      <trkpt lat="52.364240" lon="4.898090"/>
      <trkpt lat="52.363720" lon="4.896990"/>
      <trkpt lat="52.364020" lon="4.896130"/>
      <trkpt lat="52.362470" lon="4.895130"/>
      <trkpt lat="52.364580" lon="4.892400"/>
      <trkpt lat="52.365100" lon="4.892600"/>
      <trkpt lat="52.365130" lon="4.891650"/>
      <trkpt lat="52.365580" lon="4.891510"/>
      <trkpt lat="52.365610" lon="4.890920"/>
      <trkpt lat="52.366570" lon="4.890390"/>
      <trkpt lat="52.366690" lon="4.891440"/>
      <trkpt lat="52.367270" lon="4.890700"/>
      <trkpt lat="52.367880" lon="4.889360"/>
      <trkpt lat="52.368200" lon="4.888640"/>
      <trkpt lat="52.368780" lon="4.889070"/>
      <trkpt lat="52.369020" lon="4.888180"/>
      <trkpt lat="52.369530" lon="4.888720"/>
      <trkpt lat="52.368420" lon="4.887050"/>
      <trkpt lat="52.368210" lon="4.887050"/>
      <trkpt lat="52.367850" lon="4.886320"/>
      <trkpt lat="52.367630" lon="4.886340"/>
      <trkpt lat="52.366940" lon="4.885420"/>
      <trkpt lat="52.367120" lon="4.885010"/>
      <trkpt lat="52.366970" lon="4.884340"/>
      <trkpt lat="52.367590" lon="4.884090"/>
      <trkpt lat="52.368250" lon="4.884160"/>
      <trkpt lat="52.368560" lon="4.884850"/>
      <trkpt lat="52.368860" lon="4.885550"/>
      <trkpt lat="52.368180" lon="4.882890"/>
      <trkpt lat="52.367990" lon="4.882080"/>
      <trkpt lat="52.367380" lon="4.881430"/>
      <trkpt lat="52.366970" lon="4.882110"/>
      <trkpt lat="52.366720" lon="4.882130"/>
      <trkpt lat="52.366340" lon="4.881700"/>
      <trkpt lat="52.366040" lon="4.882610"/>
      <trkpt lat="52.365970" lon="4.883410"/>
      <trkpt lat="52.365580" lon="4.881570"/>
      <trkpt lat="52.365760" lon="4.880080"/>
      <trkpt lat="52.365290" lon="4.879560"/>
      <trkpt lat="52.366370" lon="4.879570"/>
      <trkpt lat="52.366570" lon="4.879420"/>
      <trkpt lat="52.367500" lon="4.878800"/>
      <trkpt lat="52.369530" lon="4.877350"/>
      <trkpt lat="52.367880" lon="4.874720"/>
      <trkpt lat="52.363950" lon="4.876330"/>
      <trkpt lat="52.363560" lon="4.877630"/>
      <trkpt lat="52.363180" lon="4.877400"/>
      <trkpt lat="52.367210" lon="4.882780"/>
      <trkpt lat="52.366690" lon="4.885750"/>
      <trkpt lat="52.366630" lon="4.888010"/>
      <trkpt lat="52.367150" lon="4.888090"/>
      <trkpt lat="52.367290" lon="4.887810"/>
      <trkpt lat="52.366860" lon="4.889040"/>
      <trkpt lat="52.366180" lon="4.888850"/>
      <trkpt lat="52.367470" lon="4.892600"/>
      <trkpt lat="52.371070" lon="4.888660"/>
      <trkpt lat="52.371360" lon="4.886690"/>
      <trkpt lat="52.371890" lon="4.886720"/>
      <trkpt lat="52.372290" lon="4.887360"/>
      <trkpt lat="52.372350" lon="4.886010"/>
      <trkpt lat="52.372370" lon="4.885300"/>
      <trkpt lat="52.372720" lon="4.885260"/>
      <trkpt lat="52.372830" lon="4.884700"/>
      <trkpt lat="52.373160" lon="4.884570"/>
      <trkpt lat="52.373010" lon="4.883980"/>
      <trkpt lat="52.374090" lon="4.886930"/>
      <trkpt lat="52.374650" lon="4.887460"/>
      <trkpt lat="52.374990" lon="4.887590"/>
      <trkpt lat="52.374590" lon="4.888820"/>
      <trkpt lat="52.374660" lon="4.889420"/>
      <trkpt lat="52.374990" lon="4.889320"/>
      <trkpt lat="52.375480" lon="4.889510"/>
      <trkpt lat="52.376220" lon="4.891720"/>
      <trkpt lat="52.375900" lon="4.892300"/>
      <trkpt lat="52.375380" lon="4.892620"/>
      <trkpt lat="52.373920" lon="4.888700"/>
      <trkpt lat="52.373310" lon="4.873720"/>
    </trkseg>
  </trk>
</gpx>
