<?xml version="1.0" encoding="UTF-8"?>
<gpx xmlns="http://www.topografix.com/GPX/1/1" version="1.1" creator="GPS Visualizer http://www.gpsvisualizer.com/">
  <trk>
    <name>0</name>
    <trkseg>
      <wpt lat="-31.961709" lon="115.833228"/>
      <wpt lat="-31.961891" lon="115.832605"/>
      <wpt lat="-31.961975" lon="115.831988"/>
      <wpt lat="-31.962207" lon="115.831459"/>
      <wpt lat="-31.962785" lon="115.830146"/>
      <wpt lat="-31.963382" lon="115.829391"/>
      <wpt lat="-31.963517" lon="115.829230"/>
      <wpt lat="-31.964579" lon="115.828787"/>
      <wpt lat="-31.964586" lon="115.828497"/>
      <wpt lat="-31.965242" lon="115.828361"/>
      <wpt lat="-31.965989" lon="115.828239"/>
      <wpt lat="-31.966413" lon="115.828207"/>
      <wpt lat="-31.966549" lon="115.828690"/>
      <wpt lat="-31.967175" lon="115.827849"/>
      <wpt lat="-31.967529" lon="115.827624"/>
      <wpt lat="-31.962711" lon="115.825098"/>
      <wpt lat="-31.962198" lon="115.825296"/>
      <wpt lat="-31.962197" lon="115.824734"/>
      <wpt lat="-31.962549" lon="115.824419"/>
      <wpt lat="-31.962231" lon="115.823589"/>
      <wpt lat="-31.962519" lon="115.823257"/>
      <wpt lat="-31.961706" lon="115.823615"/>
      <wpt lat="-31.961348" lon="115.823522"/>
      <wpt lat="-31.960844" lon="115.823140"/>
      <wpt lat="-31.960871" lon="115.824103"/>
      <wpt lat="-31.960669" lon="115.824884"/>
      <wpt lat="-31.961548" lon="115.825340"/>
      <wpt lat="-31.961593" lon="115.826015"/>
      <wpt lat="-31.961477" lon="115.826315"/>
      <wpt lat="-31.961236" lon="115.826713"/>
      <wpt lat="-31.960660" lon="115.827476"/>
      <wpt lat="-31.960419" lon="115.827697"/>
      <wpt lat="-31.959806" lon="115.828155"/>
      <wpt lat="-31.959411" lon="115.828468"/>
      <wpt lat="-31.958961" lon="115.828689"/>
      <wpt lat="-31.958561" lon="115.829062"/>
      <wpt lat="-31.957531" lon="115.829896"/>
      <wpt lat="-31.957327" lon="115.830169"/>
      <wpt lat="-31.957190" lon="115.830428"/>
      <wpt lat="-31.956891" lon="115.830922"/>
      <wpt lat="-31.956495" lon="115.831638"/>
      <wpt lat="-31.956564" lon="115.832702"/>
      <wpt lat="-31.956491" lon="115.833084"/>
      <wpt lat="-31.957058" lon="115.833075"/>
      <wpt lat="-31.955828" lon="115.832408"/>
      <wpt lat="-31.956083" lon="115.834373"/>
      <wpt lat="-31.956132" lon="115.834785"/>
      <wpt lat="-31.956288" lon="115.835620"/>
      <wpt lat="-31.955868" lon="115.835685"/>
      <wpt lat="-31.956574" lon="115.836241"/>
      <wpt lat="-31.956585" lon="115.836615"/>
      <wpt lat="-31.956885" lon="115.837344"/>
      <wpt lat="-31.957186" lon="115.837855"/>
      <wpt lat="-31.957346" lon="115.838211"/>
      <wpt lat="-31.957790" lon="115.838766"/>
      <wpt lat="-31.957189" lon="115.839219"/>
      <wpt lat="-31.956537" lon="115.839186"/>
      <wpt lat="-31.955875" lon="115.838865"/>
      <wpt lat="-31.955608" lon="115.838980"/>
      <wpt lat="-31.954703" lon="115.840189"/>
      <wpt lat="-31.954064" lon="115.837098"/>
      <wpt lat="-31.953601" lon="115.837202"/>
      <wpt lat="-31.953111" lon="115.837028"/>
      <wpt lat="-31.953087" lon="115.835800"/>
      <wpt lat="-31.958114" lon="115.839945"/>
      <wpt lat="-31.958612" lon="115.839670"/>
      <wpt lat="-31.958774" lon="115.839523"/>
      <wpt lat="-31.958425" lon="115.839393"/>
      <wpt lat="-31.959390" lon="115.840308"/>
      <wpt lat="-31.959728" lon="115.840578"/>
      <wpt lat="-31.959759" lon="115.841353"/>
      <wpt lat="-31.960457" lon="115.841080"/>
      <wpt lat="-31.960527" lon="115.841289"/>
      <wpt lat="-31.961153" lon="115.840939"/>
      <wpt lat="-31.961495" lon="115.841453"/>
      <wpt lat="-31.961182" lon="115.841656"/>
      <wpt lat="-31.960995" lon="115.842469"/>
      <wpt lat="-31.961055" lon="115.842785"/>
      <wpt lat="-31.961594" lon="115.842655"/>
      <wpt lat="-31.961824" lon="115.842491"/>
      <wpt lat="-31.962018" lon="115.842448"/>
      <wpt lat="-31.962408" lon="115.842604"/>
      <wpt lat="-31.962830" lon="115.842907"/>
      <wpt lat="-31.962182" lon="115.841458"/>
      <wpt lat="-31.962267" lon="115.841013"/>
      <wpt lat="-31.962251" lon="115.840278"/>
      <wpt lat="-31.961822" lon="115.840402"/>
      <wpt lat="-31.961612" lon="115.839788"/>
      <wpt lat="-31.961098" lon="115.839880"/>
      <wpt lat="-31.961055" lon="115.839500"/>
      <wpt lat="-31.961756" lon="115.838792"/>
      <wpt lat="-31.961896" lon="115.839049"/>
      <wpt lat="-31.962567" lon="115.839472"/>
      <wpt lat="-31.963075" lon="115.839167"/>
      <wpt lat="-31.963137" lon="115.838833"/>
      <wpt lat="-31.963632" lon="115.838823"/>
      <wpt lat="-31.963635" lon="115.839262"/>
      <wpt lat="-31.963738" lon="115.839876"/>
      <wpt lat="-31.963733" lon="115.840253"/>
      <wpt lat="-31.963637" lon="115.840859"/>
      <wpt lat="-31.963160" lon="115.840362"/>
      <wpt lat="-31.964133" lon="115.839010"/>
      <wpt lat="-31.964098" lon="115.838684"/>
      <wpt lat="-31.963815" lon="115.837583"/>
      <wpt lat="-31.964032" lon="115.837094"/>
      <wpt lat="-31.964136" lon="115.836285"/>
      <wpt lat="-31.963334" lon="115.836322"/>
      <wpt lat="-31.963294" lon="115.835980"/>
      <wpt lat="-31.963133" lon="115.835355"/>
      <wpt lat="-31.962460" lon="115.835376"/>
      <wpt lat="-31.962385" lon="115.834882"/>
      <wpt lat="-31.962190" lon="115.834504"/>
      <wpt lat="-31.962445" lon="115.833688"/>
      <wpt lat="-31.962623" lon="115.833648"/>
      <wpt lat="-31.962877" lon="115.834107"/>
      <wpt lat="-31.961540" lon="115.833885"/>
      <wpt lat="-31.961320" lon="115.835136"/>
      <wpt lat="-31.961270" lon="115.835641"/>
      <wpt lat="-31.961320" lon="115.835997"/>
      <wpt lat="-31.961254" lon="115.836517"/>
      <wpt lat="-31.961277" lon="115.836920"/>
      <wpt lat="-31.961103" lon="115.837779"/>
      <wpt lat="-31.961061" lon="115.838279"/>
      <wpt lat="-31.962443" lon="115.838298"/>
      <wpt lat="-31.962638" lon="115.837835"/>
      <wpt lat="-31.962830" lon="115.837184"/>
      <wpt lat="-31.964665" lon="115.837482"/>
      <wpt lat="-31.965276" lon="115.838743"/>
      <wpt lat="-31.965649" lon="115.838908"/>
      <wpt lat="-31.965834" lon="115.838128"/>
      <wpt lat="-31.966185" lon="115.837528"/>
      <wpt lat="-31.966299" lon="115.837153"/>
      <wpt lat="-31.966528" lon="115.837691"/>
      <wpt lat="-31.966998" lon="115.837370"/>
      <wpt lat="-31.967337" lon="115.837495"/>
      <wpt lat="-31.967500" lon="115.836944"/>
      <wpt lat="-31.967956" lon="115.837284"/>
      <wpt lat="-31.967800" lon="115.835246"/>
      <wpt lat="-31.965997" lon="115.835699"/>
      <wpt lat="-31.965847" lon="115.836063"/>
      <wpt lat="-31.964944" lon="115.839307"/>
      <wpt lat="-31.965241" lon="115.839856"/>
      <wpt lat="-31.965761" lon="115.840159"/>
      <wpt lat="-31.960108" lon="115.843055"/>
      <wpt lat="-31.959561" lon="115.842773"/>
    </trkseg>
  </trk>
</gpx>
