<?xml version="1.0" encoding="UTF-8"?>
<gpx xmlns="http://www.topografix.com/GPX/1/1" version="1.1">
  <trk>
    <trkseg>
      <trkpt lat="-33.86631865143274" lon="151.21678388085223"/>
      <trkpt lat="-33.867018" lon="151.217565"/>
      <trkpt lat="-33.866287" lon="151.218426"/>
      <trkpt lat="-33.865793" lon="151.218345"/>
      <trkpt lat="-33.865959" lon="151.21905"/>
      <trkpt lat="-33.865066" lon="151.219212"/>
      <trkpt lat="-33.865032" lon="151.218796"/>
      <trkpt lat="-33.865337" lon="151.217951"/>
      <trkpt lat="-33.864913" lon="151.217992"/>
      <trkpt lat="-33.863667" lon="151.219477"/>
      <trkpt lat="-33.863593" lon="151.219795"/>
      <trkpt lat="-33.864123" lon="151.218456"/>
      <trkpt lat="-33.863778" lon="151.218507"/>
      <trkpt lat="-33.864081" lon="151.217894"/>
      <trkpt lat="-33.864074" lon="151.21752"/>
      <trkpt lat="-33.863427" lon="151.217715"/>
      <trkpt lat="-33.863006" lon="151.217364"/>
      <trkpt lat="-33.863519" lon="151.217155"/>
      <trkpt lat="-33.863666" lon="151.216703"/>
      <trkpt lat="-33.862909" lon="151.216092"/>
      <trkpt lat="-33.862676" lon="151.216264"/>
      <trkpt lat="-33.862057" lon="151.216412"/>
      <trkpt lat="-33.861579" lon="151.216445"/>
      <trkpt lat="-33.86231" lon="151.215999"/>
      <trkpt lat="-33.863022" lon="151.215349"/>
      <trkpt lat="-33.863022" lon="151.215349"/>
      <trkpt lat="-33.86318" lon="151.215098"/>
      <trkpt lat="-33.863498" lon="151.215384"/>
      <trkpt lat="-33.863757" lon="151.214941"/>
      <trkpt lat="-33.864005" lon="151.215495"/>
      <trkpt lat="-33.864488" lon="151.215267"/>
      <trkpt lat="-33.864754" lon="151.214882"/>
      <trkpt lat="-33.865342" lon="151.214737"/>
      <trkpt lat="-33.865684" lon="151.214164"/>
      <trkpt lat="-33.865701" lon="151.214733"/>
      <trkpt lat="-33.865828" lon="151.215136"/>
      <trkpt lat="-33.866142" lon="151.215423"/>
      <trkpt lat="-33.865321" lon="151.215581"/>
      <trkpt lat="-33.865113" lon="151.21585"/>
      <trkpt lat="-33.865177" lon="151.216319"/>
      <trkpt lat="-33.864891" lon="151.216605"/>
      <trkpt lat="-33.864666" lon="151.216838"/>
      <trkpt lat="-33.865396" lon="151.217061"/>
      <trkpt lat="-33.86586" lon="151.217618"/>
      <trkpt lat="-33.865974" lon="151.217228"/>
      <trkpt lat="-33.86583" lon="151.216616"/>
      <trkpt lat="-33.866164" lon="151.216515"/>
      <trkpt lat="-33.866517" lon="151.217156"/>
    </trkseg>
  </trk>
</gpx>
