<?xml version="1.0" encoding="UTF-8"?>
<gpx xmlns="http://www.topografix.com/GPX/1/1" version="1.1">
  <trk>
    <name>Royal Botanic Gardens, Sydney, New South Wales</name>
    <desc>Australia</desc>
    <trkseg>
      <trkpt lat="-33.858375" lon="151.214833"/>
      <trkpt lat="-33.858629" lon="151.215369"/>
      <trkpt lat="-33.858923" lon="151.215584"/>
      <trkpt lat="-33.860122" lon="151.214983"/>
      <trkpt lat="-33.860701" lon="151.215031"/>
      <trkpt lat="-33.860335" lon="151.215680"/>
      <trkpt lat="-33.859912" lon="151.215568"/>
      <trkpt lat="-33.859654" lon="151.216464"/>
      <trkpt lat="-33.859792" lon="151.216775"/>
      <trkpt lat="-33.860340" lon="151.216995"/>
      <trkpt lat="-33.860277" lon="151.216506"/>
      <trkpt lat="-33.861048" lon="151.215857"/>
      <trkpt lat="-33.861569" lon="151.216437"/>
      <trkpt lat="-33.862068" lon="151.216367"/>
      <trkpt lat="-33.862344" lon="151.216018"/>
      <trkpt lat="-33.862683" lon="151.216244"/>
      <trkpt lat="-33.862892" lon="151.216034"/>
      <trkpt lat="-33.863672" lon="151.216700"/>
      <trkpt lat="-33.863578" lon="151.217097"/>
      <trkpt lat="-33.863030" lon="151.217424"/>
      <trkpt lat="-33.863449" lon="151.217654"/>
      <trkpt lat="-33.864108" lon="151.217472"/>
      <trkpt lat="-33.864099" lon="151.217842"/>
      <trkpt lat="-33.864153" lon="151.218475"/>
      <trkpt lat="-33.864425" lon="151.219044"/>
      <trkpt lat="-33.863618" lon="151.218717"/>
      <trkpt lat="-33.863663" lon="151.219462"/>
      <trkpt lat="-33.863779" lon="151.219677"/>
      <trkpt lat="-33.863587" lon="151.219843"/>
      <trkpt lat="-33.863298" lon="151.220675"/>
      <trkpt lat="-33.863039" lon="151.220331"/>
      <trkpt lat="-33.862514" lon="151.220192"/>
      <trkpt lat="-33.862099" lon="151.220600"/>
      <trkpt lat="-33.861899" lon="151.220653"/>
      <trkpt lat="-33.861494" lon="151.221318"/>
      <trkpt lat="-33.859404" lon="151.221866"/>
      <trkpt lat="-33.859743" lon="151.222531"/>
      <trkpt lat="-33.860331" lon="151.222257"/>
      <trkpt lat="-33.861053" lon="151.222203"/>
      <trkpt lat="-33.862286" lon="151.222150"/>
      <trkpt lat="-33.863146" lon="151.221249"/>
      <trkpt lat="-33.864055" lon="151.221313"/>
      <trkpt lat="-33.863890" lon="151.220734"/>
      <trkpt lat="-33.864411" lon="151.220331"/>
      <trkpt lat="-33.864527" lon="151.219806"/>
      <trkpt lat="-33.865115" lon="151.219972"/>
      <trkpt lat="-33.865070" lon="151.219210"/>
      <trkpt lat="-33.865066" lon="151.218781"/>
      <trkpt lat="-33.864910" lon="151.217976"/>
      <trkpt lat="-33.865387" lon="151.217955"/>
      <trkpt lat="-33.865823" lon="151.218336"/>
      <trkpt lat="-33.865939" lon="151.219055"/>
      <trkpt lat="-33.866336" lon="151.218416"/>
      <trkpt lat="-33.867026" lon="151.217569"/>
      <trkpt lat="-33.866514" lon="151.217161"/>
      <trkpt lat="-33.865868" lon="151.217612"/>
      <trkpt lat="-33.865970" lon="151.217209"/>
      <trkpt lat="-33.865846" lon="151.216603"/>
      <trkpt lat="-33.866162" lon="151.216512"/>
      <trkpt lat="-33.866148" lon="151.215401"/>
      <trkpt lat="-33.865819" lon="151.215133"/>
      <trkpt lat="-33.865712" lon="151.214715"/>
      <trkpt lat="-33.865712" lon="151.214173"/>
      <trkpt lat="-33.865378" lon="151.214742"/>
      <trkpt lat="-33.865360" lon="151.215573"/>
      <trkpt lat="-33.865119" lon="151.215836"/>
      <trkpt lat="-33.865191" lon="151.216362"/>
      <trkpt lat="-33.864870" lon="151.216614"/>
      <trkpt lat="-33.864959" lon="151.216968"/>
      <trkpt lat="-33.864656" lon="151.216882"/>
      <trkpt lat="-33.864514" lon="151.215283"/>
      <trkpt lat="-33.864790" lon="151.214843"/>
      <trkpt lat="-33.865543" lon="151.213384"/>
      <trkpt lat="-33.865427" lon="151.212928"/>
      <trkpt lat="-33.865035" lon="151.212944"/>
      <trkpt lat="-33.864830" lon="151.213256"/>
      <trkpt lat="-33.864625" lon="151.213170"/>
      <trkpt lat="-33.864425" lon="151.213985"/>
      <trkpt lat="-33.864046" lon="151.215444"/>
      <trkpt lat="-33.863017" lon="151.215326"/>
      <trkpt lat="-33.863182" lon="151.215085"/>
      <trkpt lat="-33.863788" lon="151.214940"/>
      <trkpt lat="-33.863650" lon="151.214184"/>
      <trkpt lat="-33.863609" lon="151.213787"/>
      <trkpt lat="-33.863075" lon="151.213073"/>
      <trkpt lat="-33.862923" lon="151.214066"/>
      <trkpt lat="-33.861930" lon="151.214189"/>
      <trkpt lat="-33.861752" lon="151.214538"/>
      <trkpt lat="-33.861200" lon="151.213663"/>
      <trkpt lat="-33.860732" lon="151.214033"/>
      <trkpt lat="-33.860514" lon="151.213443"/>
      <trkpt lat="-33.858905" lon="151.214264"/>
      <trkpt lat="-33.858375" lon="151.214833"/>
    </trkseg>
  </trk>
</gpx>
