<?xml version="1.0" encoding="UTF-8"?>
<gpx xmlns="http://www.topografix.com/GPX/1/1"
     xmlns:pgr="https://joshuaspence.github.io/pokemon-go-gpx-routes/gpx/1"
     version="1.1"
     creator="https://github.com/joshuaspence/pokemon-go-gpx-routes">
  <trk>
    <name>Town Hall</name>
    <extensions>
      <pgr:city>Sydney, New South Wales</pgr:city>
      <pgr:country>Australia</pgr:country>
    </extensions>
    <trkseg>
      <trkpt lat="-33.868881" lon="151.208312"/>
      <trkpt lat="-33.870745" lon="151.208207"/>
      <trkpt lat="-33.870782" lon="151.206921"/>
      <trkpt lat="-33.869950" lon="151.206921"/>
      <trkpt lat="-33.869962" lon="151.204646"/>
      <trkpt lat="-33.868757" lon="151.204556"/>
      <trkpt lat="-33.868720" lon="151.205260"/>
      <trkpt lat="-33.867701" lon="151.205140"/>
      <trkpt lat="-33.867639" lon="151.207055"/>
      <trkpt lat="-33.868732" lon="151.206891"/>
    </trkseg>
  </trk>
</gpx>
