<?xml version="1.0" encoding="UTF-8"?>
<gpx xmlns="http://www.topografix.com/GPX/1/1"
     xmlns:pgr="https://joshuaspence.github.io/pokemon-go-gpx-routes/gpx/1"
     version="1.1"
     creator="https://github.com/joshuaspence/pokemon-go-gpx-routes">
  <trk>
    <name>Wynyard</name>
    <extensions>
      <pgr:city>Sydney, New South Wales</pgr:city>
      <pgr:country>Australia</pgr:country>
    </extensions>
    <trkseg>
      <trkpt lat="-33.867671" lon="151.205910"/>
      <trkpt lat="-33.867649" lon="151.206451"/>
      <trkpt lat="-33.867627" lon="151.206992"/>
      <trkpt lat="-33.867625" lon="151.207046"/>
      <trkpt lat="-33.867625" lon="151.207046"/>
      <trkpt lat="-33.867625" lon="151.207046"/>
      <trkpt lat="-33.868072" lon="151.206984"/>
      <trkpt lat="-33.868519" lon="151.206923"/>
      <trkpt lat="-33.868711" lon="151.206897"/>
      <trkpt lat="-33.868711" lon="151.206897"/>
      <trkpt lat="-33.868779" lon="151.207432"/>
      <trkpt lat="-33.868848" lon="151.207967"/>
      <trkpt lat="-33.868916" lon="151.208503"/>
      <trkpt lat="-33.868984" lon="151.209038"/>
      <trkpt lat="-33.869052" lon="151.209573"/>
      <trkpt lat="-33.869069" lon="151.209700"/>
      <trkpt lat="-33.869069" lon="151.209700"/>
      <trkpt lat="-33.869517" lon="151.209655"/>
      <trkpt lat="-33.869965" lon="151.209609"/>
      <trkpt lat="-33.870413" lon="151.209564"/>
      <trkpt lat="-33.870765" lon="151.209528"/>
      <trkpt lat="-33.870779" lon="151.208986"/>
      <trkpt lat="-33.870792" lon="151.208445"/>
      <trkpt lat="-33.870798" lon="151.208220"/>
      <trkpt lat="-33.870798" lon="151.208220"/>
      <trkpt lat="-33.871247" lon="151.208209"/>
      <trkpt lat="-33.871697" lon="151.208197"/>
      <trkpt lat="-33.872147" lon="151.208186"/>
      <trkpt lat="-33.872596" lon="151.208174"/>
      <trkpt lat="-33.873046" lon="151.208163"/>
      <trkpt lat="-33.873107" lon="151.208161"/>
      <trkpt lat="-33.873107" lon="151.208161"/>
      <trkpt lat="-33.873107" lon="151.208161"/>
      <trkpt lat="-33.873037" lon="151.207626"/>
      <trkpt lat="-33.872967" lon="151.207091"/>
      <trkpt lat="-33.872952" lon="151.206977"/>
      <trkpt lat="-33.872952" lon="151.206977"/>
      <trkpt lat="-33.872503" lon="151.206965"/>
      <trkpt lat="-33.872053" lon="151.206954"/>
      <trkpt lat="-33.871604" lon="151.206942"/>
      <trkpt lat="-33.871154" lon="151.206930"/>
      <trkpt lat="-33.870805" lon="151.206920"/>
      <trkpt lat="-33.870822" lon="151.206379"/>
      <trkpt lat="-33.870824" lon="151.206294"/>
      <trkpt lat="-33.870824" lon="151.206294"/>
      <trkpt lat="-33.870824" lon="151.206294"/>
      <trkpt lat="-33.870875" lon="151.205756"/>
      <trkpt lat="-33.870902" lon="151.205472"/>
      <trkpt lat="-33.870902" lon="151.205472"/>
      <trkpt lat="-33.870454" lon="151.205426"/>
      <trkpt lat="-33.870006" lon="151.205379"/>
      <trkpt lat="-33.869558" lon="151.205333"/>
      <trkpt lat="-33.869110" lon="151.205287"/>
      <trkpt lat="-33.868698" lon="151.205245"/>
      <trkpt lat="-33.868684" lon="151.205786"/>
      <trkpt lat="-33.868679" lon="151.206006"/>
    </trkseg>
  </trk>
</gpx>
