<?xml version="1.0" encoding="UTF-8"?>
<gpx xmlns="http://www.topografix.com/GPX/1/1" version="1.1" creator="GPS Visualizer http://www.gpsvisualizer.com/">
  <trk>
    <name>0</name>
    <trkseg>
      <wpt lat="55.661740" lon="12.560550"/>
      <wpt lat="55.661829" lon="12.560814"/>
      <wpt lat="55.661694" lon="12.561056"/>
      <wpt lat="55.661660" lon="12.560982"/>
      <wpt lat="55.661737" lon="12.561149"/>
      <wpt lat="55.661591" lon="12.561373"/>
      <wpt lat="55.661550" lon="12.561581"/>
      <wpt lat="55.661530" lon="12.561665"/>
      <wpt lat="55.661378" lon="12.562164"/>
      <wpt lat="55.661099" lon="12.562190"/>
      <wpt lat="55.661638" lon="12.562373"/>
      <wpt lat="55.661818" lon="12.562043"/>
      <wpt lat="55.661922" lon="12.562008"/>
      <wpt lat="55.661910" lon="12.561937"/>
      <wpt lat="55.661972" lon="12.562206"/>
      <wpt lat="55.662160" lon="12.562544"/>
      <wpt lat="55.662246" lon="12.562881"/>
      <wpt lat="55.662025" lon="12.563247"/>
      <wpt lat="55.661856" lon="12.562866"/>
      <wpt lat="55.662300" lon="12.563413"/>
      <wpt lat="55.662332" lon="12.563544"/>
      <wpt lat="55.662207" lon="12.563612"/>
      <wpt lat="55.662372" lon="12.563877"/>
      <wpt lat="55.662502" lon="12.563475"/>
      <wpt lat="55.662674" lon="12.563223"/>
      <wpt lat="55.662841" lon="12.562974"/>
      <wpt lat="55.662963" lon="12.563068"/>
      <wpt lat="55.662995" lon="12.562791"/>
      <wpt lat="55.662775" lon="12.562224"/>
      <wpt lat="55.662684" lon="12.562023"/>
      <wpt lat="55.662568" lon="12.562027"/>
      <wpt lat="55.662587" lon="12.562306"/>
      <wpt lat="55.662295" lon="12.562227"/>
      <wpt lat="55.662159" lon="12.561565"/>
      <wpt lat="55.662663" lon="12.561669"/>
      <wpt lat="55.662755" lon="12.561506"/>
      <wpt lat="55.662670" lon="12.561283"/>
      <wpt lat="55.662845" lon="12.561983"/>
    </trkseg>
  </trk>
</gpx>
