<?xml version="1.0" encoding="UTF-8"?>
<gpx xmlns="http://www.topografix.com/GPX/1/1" version="1.1">
  <trk>
    <name>Fisketorvet, Copenhagen (2)</name>
    <desc>Denmark</desc>
    <trkseg>
      <trkpt lat="55.662650" lon="12.561300"/>
      <trkpt lat="55.662750" lon="12.561510"/>
      <trkpt lat="55.662660" lon="12.561690"/>
      <trkpt lat="55.662370" lon="12.562100"/>
      <trkpt lat="55.662280" lon="12.562240"/>
      <trkpt lat="55.662590" lon="12.562310"/>
      <trkpt lat="55.662570" lon="12.562020"/>
      <trkpt lat="55.662690" lon="12.562020"/>
      <trkpt lat="55.662770" lon="12.562230"/>
      <trkpt lat="55.662990" lon="12.562790"/>
      <trkpt lat="55.662970" lon="12.563060"/>
      <trkpt lat="55.662840" lon="12.562950"/>
      <trkpt lat="55.662680" lon="12.563230"/>
      <trkpt lat="55.662500" lon="12.563470"/>
      <trkpt lat="55.662330" lon="12.563540"/>
      <trkpt lat="55.662210" lon="12.563610"/>
      <trkpt lat="55.662030" lon="12.563250"/>
      <trkpt lat="55.661860" lon="12.562870"/>
      <trkpt lat="55.661640" lon="12.562370"/>
      <trkpt lat="55.661370" lon="12.562160"/>
      <trkpt lat="55.661530" lon="12.561670"/>
      <trkpt lat="55.661550" lon="12.561570"/>
      <trkpt lat="55.661590" lon="12.561380"/>
      <trkpt lat="55.661430" lon="12.560940"/>
      <trkpt lat="55.661740" lon="12.560550"/>
      <trkpt lat="55.661830" lon="12.560810"/>
      <trkpt lat="55.661680" lon="12.560860"/>
      <trkpt lat="55.661740" lon="12.561150"/>
      <trkpt lat="55.661820" lon="12.562040"/>
      <trkpt lat="55.661910" lon="12.561940"/>
      <trkpt lat="55.662160" lon="12.561570"/>
      <trkpt lat="55.661970" lon="12.562210"/>
      <trkpt lat="55.662160" lon="12.562550"/>
      <trkpt lat="55.662650" lon="12.561300"/>
    </trkseg>
  </trk>
</gpx>
