<?xml version="1.0" encoding="UTF-8"?>
<gpx xmlns="http://www.topografix.com/GPX/1/1" version="1.1">
  <trk>
    <name>Passeig de Gràcia, Barcelona, Catalonia</name>
    <desc>Spain</desc>
    <trkseg>
      <trkpt lat="41.384210" lon="2.179990"/>
      <trkpt lat="41.384270" lon="2.179950"/>
      <trkpt lat="41.384710" lon="2.179730"/>
      <trkpt lat="41.385120" lon="2.179410"/>
      <trkpt lat="41.385180" lon="2.179630"/>
      <trkpt lat="41.385210" lon="2.180080"/>
      <trkpt lat="41.385220" lon="2.180710"/>
      <trkpt lat="41.384570" lon="2.180580"/>
      <trkpt lat="41.384110" lon="2.180640"/>
      <trkpt lat="41.383500" lon="2.180740"/>
      <trkpt lat="41.383040" lon="2.180970"/>
      <trkpt lat="41.382720" lon="2.180510"/>
      <trkpt lat="41.383190" lon="2.180210"/>
      <trkpt lat="41.383260" lon="2.179550"/>
      <trkpt lat="41.382970" lon="2.179350"/>
      <trkpt lat="41.382710" lon="2.179720"/>
      <trkpt lat="41.382200" lon="2.179720"/>
      <trkpt lat="41.382080" lon="2.179280"/>
      <trkpt lat="41.381490" lon="2.179030"/>
      <trkpt lat="41.381160" lon="2.178870"/>
      <trkpt lat="41.381390" lon="2.178390"/>
      <trkpt lat="41.381070" lon="2.178240"/>
      <trkpt lat="41.380640" lon="2.177800"/>
      <trkpt lat="41.380510" lon="2.177420"/>
      <trkpt lat="41.380910" lon="2.177300"/>
      <trkpt lat="41.381080" lon="2.176840"/>
      <trkpt lat="41.381040" lon="2.176330"/>
      <trkpt lat="41.381510" lon="2.176750"/>
      <trkpt lat="41.382020" lon="2.176830"/>
      <trkpt lat="41.382400" lon="2.177180"/>
      <trkpt lat="41.382460" lon="2.177460"/>
      <trkpt lat="41.382740" lon="2.177330"/>
      <trkpt lat="41.382700" lon="2.176890"/>
      <trkpt lat="41.382340" lon="2.176260"/>
      <trkpt lat="41.381880" lon="2.176240"/>
      <trkpt lat="41.381360" lon="2.175650"/>
      <trkpt lat="41.381300" lon="2.175350"/>
      <trkpt lat="41.381140" lon="2.174970"/>
      <trkpt lat="41.381250" lon="2.174460"/>
      <trkpt lat="41.381560" lon="2.174470"/>
      <trkpt lat="41.381970" lon="2.174550"/>
      <trkpt lat="41.382220" lon="2.174340"/>
      <trkpt lat="41.382370" lon="2.174020"/>
      <trkpt lat="41.382560" lon="2.174610"/>
      <trkpt lat="41.382910" lon="2.175140"/>
      <trkpt lat="41.383220" lon="2.175430"/>
      <trkpt lat="41.383450" lon="2.174820"/>
      <trkpt lat="41.383560" lon="2.174460"/>
      <trkpt lat="41.383920" lon="2.174040"/>
      <trkpt lat="41.383890" lon="2.173610"/>
      <trkpt lat="41.383630" lon="2.173130"/>
      <trkpt lat="41.382990" lon="2.172700"/>
      <trkpt lat="41.383240" lon="2.172260"/>
      <trkpt lat="41.383400" lon="2.171610"/>
      <trkpt lat="41.383510" lon="2.171160"/>
      <trkpt lat="41.383570" lon="2.170680"/>
      <trkpt lat="41.383290" lon="2.170450"/>
      <trkpt lat="41.382860" lon="2.169870"/>
      <trkpt lat="41.383220" lon="2.169450"/>
      <trkpt lat="41.383590" lon="2.169720"/>
      <trkpt lat="41.383950" lon="2.169670"/>
      <trkpt lat="41.384110" lon="2.169320"/>
      <trkpt lat="41.384110" lon="2.168780"/>
      <trkpt lat="41.384420" lon="2.168440"/>
      <trkpt lat="41.384810" lon="2.168880"/>
      <trkpt lat="41.384740" lon="2.169210"/>
      <trkpt lat="41.384980" lon="2.170000"/>
      <trkpt lat="41.385090" lon="2.170230"/>
      <trkpt lat="41.385280" lon="2.170100"/>
      <trkpt lat="41.385640" lon="2.170790"/>
      <trkpt lat="41.386060" lon="2.170790"/>
      <trkpt lat="41.385800" lon="2.171370"/>
      <trkpt lat="41.385450" lon="2.171390"/>
      <trkpt lat="41.385590" lon="2.171940"/>
      <trkpt lat="41.385740" lon="2.172710"/>
      <trkpt lat="41.386370" lon="2.172870"/>
      <trkpt lat="41.386380" lon="2.172180"/>
      <trkpt lat="41.386690" lon="2.171890"/>
      <trkpt lat="41.386850" lon="2.171390"/>
      <trkpt lat="41.386850" lon="2.170930"/>
      <trkpt lat="41.386820" lon="2.170660"/>
      <trkpt lat="41.387180" lon="2.170770"/>
      <trkpt lat="41.387450" lon="2.170190"/>
      <trkpt lat="41.387650" lon="2.169550"/>
      <trkpt lat="41.387730" lon="2.169180"/>
      <trkpt lat="41.387010" lon="2.169180"/>
      <trkpt lat="41.386580" lon="2.169430"/>
      <trkpt lat="41.386540" lon="2.169880"/>
      <trkpt lat="41.386360" lon="2.170060"/>
      <trkpt lat="41.386370" lon="2.169050"/>
      <trkpt lat="41.386640" lon="2.168770"/>
      <trkpt lat="41.385460" lon="2.168960"/>
      <trkpt lat="41.384890" lon="2.168160"/>
      <trkpt lat="41.383630" lon="2.168970"/>
      <trkpt lat="41.383210" lon="2.168310"/>
      <trkpt lat="41.381590" lon="2.168730"/>
      <trkpt lat="41.381290" lon="2.168690"/>
      <trkpt lat="41.381390" lon="2.169140"/>
      <trkpt lat="41.381680" lon="2.169260"/>
      <trkpt lat="41.381250" lon="2.169610"/>
      <trkpt lat="41.381730" lon="2.169960"/>
      <trkpt lat="41.382260" lon="2.170190"/>
      <trkpt lat="41.382410" lon="2.170470"/>
      <trkpt lat="41.382230" lon="2.171350"/>
      <trkpt lat="41.382380" lon="2.171870"/>
      <trkpt lat="41.382550" lon="2.172230"/>
      <trkpt lat="41.382740" lon="2.172040"/>
      <trkpt lat="41.382840" lon="2.171220"/>
      <trkpt lat="41.381970" lon="2.172050"/>
      <trkpt lat="41.381580" lon="2.172680"/>
      <trkpt lat="41.381390" lon="2.173230"/>
      <trkpt lat="41.381370" lon="2.173260"/>
      <trkpt lat="41.381280" lon="2.173380"/>
      <trkpt lat="41.381320" lon="2.173790"/>
      <trkpt lat="41.381700" lon="2.173380"/>
      <trkpt lat="41.382150" lon="2.173090"/>
      <trkpt lat="41.382590" lon="2.173300"/>
      <trkpt lat="41.382890" lon="2.173280"/>
      <trkpt lat="41.382860" lon="2.174020"/>
      <trkpt lat="41.382550" lon="2.175680"/>
      <trkpt lat="41.382800" lon="2.176090"/>
      <trkpt lat="41.383310" lon="2.176110"/>
      <trkpt lat="41.383600" lon="2.176870"/>
      <trkpt lat="41.383370" lon="2.177180"/>
      <trkpt lat="41.383130" lon="2.177590"/>
      <trkpt lat="41.383440" lon="2.177710"/>
      <trkpt lat="41.383850" lon="2.177710"/>
      <trkpt lat="41.384110" lon="2.177510"/>
      <trkpt lat="41.384480" lon="2.177800"/>
      <trkpt lat="41.383990" lon="2.178320"/>
      <trkpt lat="41.383670" lon="2.178260"/>
      <trkpt lat="41.383680" lon="2.179230"/>
      <trkpt lat="41.384340" lon="2.179290"/>
      <trkpt lat="41.384560" lon="2.178860"/>
      <trkpt lat="41.385240" lon="2.177740"/>
      <trkpt lat="41.385570" lon="2.177410"/>
      <trkpt lat="41.385940" lon="2.177370"/>
      <trkpt lat="41.385850" lon="2.176950"/>
      <trkpt lat="41.385540" lon="2.176360"/>
      <trkpt lat="41.385350" lon="2.175460"/>
      <trkpt lat="41.385770" lon="2.175450"/>
      <trkpt lat="41.385860" lon="2.174690"/>
      <trkpt lat="41.385910" lon="2.174380"/>
      <trkpt lat="41.385870" lon="2.173610"/>
      <trkpt lat="41.385320" lon="2.173370"/>
      <trkpt lat="41.385050" lon="2.173660"/>
      <trkpt lat="41.384930" lon="2.173020"/>
      <trkpt lat="41.384350" lon="2.172800"/>
      <trkpt lat="41.384160" lon="2.172260"/>
      <trkpt lat="41.384090" lon="2.171990"/>
      <trkpt lat="41.384580" lon="2.171910"/>
      <trkpt lat="41.384740" lon="2.172120"/>
      <trkpt lat="41.384630" lon="2.170870"/>
      <trkpt lat="41.384660" lon="2.170360"/>
      <trkpt lat="41.384170" lon="2.170750"/>
      <trkpt lat="41.384500" lon="2.174180"/>
      <trkpt lat="41.384170" lon="2.175000"/>
      <trkpt lat="41.384220" lon="2.175370"/>
      <trkpt lat="41.384640" lon="2.175170"/>
      <trkpt lat="41.385020" lon="2.174950"/>
      <trkpt lat="41.385190" lon="2.174740"/>
      <trkpt lat="41.385260" lon="2.174450"/>
      <trkpt lat="41.384670" lon="2.176090"/>
      <trkpt lat="41.384290" lon="2.176020"/>
      <trkpt lat="41.384600" lon="2.176630"/>
      <trkpt lat="41.384350" lon="2.176840"/>
      <trkpt lat="41.384000" lon="2.176710"/>
      <trkpt lat="41.384960" lon="2.177260"/>
      <trkpt lat="41.385900" lon="2.178060"/>
      <trkpt lat="41.385970" lon="2.178540"/>
      <trkpt lat="41.386170" lon="2.179130"/>
      <trkpt lat="41.386220" lon="2.180020"/>
      <trkpt lat="41.386610" lon="2.180310"/>
      <trkpt lat="41.387120" lon="2.180370"/>
      <trkpt lat="41.387390" lon="2.180800"/>
      <trkpt lat="41.387660" lon="2.181030"/>
      <trkpt lat="41.387560" lon="2.181280"/>
      <trkpt lat="41.387880" lon="2.180590"/>
      <trkpt lat="41.388180" lon="2.180670"/>
      <trkpt lat="41.388420" lon="2.180220"/>
      <trkpt lat="41.388700" lon="2.179750"/>
      <trkpt lat="41.389080" lon="2.179360"/>
      <trkpt lat="41.389550" lon="2.179000"/>
      <trkpt lat="41.389430" lon="2.178750"/>
      <trkpt lat="41.388940" lon="2.178630"/>
      <trkpt lat="41.388700" lon="2.178500"/>
      <trkpt lat="41.387950" lon="2.178280"/>
      <trkpt lat="41.387700" lon="2.177890"/>
      <trkpt lat="41.387490" lon="2.178600"/>
      <trkpt lat="41.387660" lon="2.178970"/>
      <trkpt lat="41.387420" lon="2.179520"/>
      <trkpt lat="41.387510" lon="2.179960"/>
      <trkpt lat="41.386870" lon="2.179580"/>
      <trkpt lat="41.386500" lon="2.178210"/>
      <trkpt lat="41.386330" lon="2.178040"/>
      <trkpt lat="41.387080" lon="2.177640"/>
      <trkpt lat="41.387010" lon="2.176870"/>
      <trkpt lat="41.386500" lon="2.176620"/>
      <trkpt lat="41.386370" lon="2.176160"/>
      <trkpt lat="41.387090" lon="2.176090"/>
      <trkpt lat="41.387280" lon="2.175280"/>
      <trkpt lat="41.387370" lon="2.175010"/>
      <trkpt lat="41.387010" lon="2.174410"/>
      <trkpt lat="41.386900" lon="2.174180"/>
      <trkpt lat="41.386730" lon="2.173860"/>
      <trkpt lat="41.386930" lon="2.173230"/>
      <trkpt lat="41.387340" lon="2.172800"/>
      <trkpt lat="41.387350" lon="2.172050"/>
      <trkpt lat="41.387410" lon="2.171710"/>
      <trkpt lat="41.387750" lon="2.171240"/>
      <trkpt lat="41.387930" lon="2.170550"/>
      <trkpt lat="41.388320" lon="2.170660"/>
      <trkpt lat="41.388490" lon="2.169760"/>
      <trkpt lat="41.389060" lon="2.170410"/>
      <trkpt lat="41.389310" lon="2.171050"/>
      <trkpt lat="41.389670" lon="2.170520"/>
      <trkpt lat="41.390240" lon="2.171620"/>
      <trkpt lat="41.390220" lon="2.172510"/>
      <trkpt lat="41.389720" lon="2.173030"/>
      <trkpt lat="41.389550" lon="2.173760"/>
      <trkpt lat="41.389040" lon="2.173300"/>
      <trkpt lat="41.389130" lon="2.172850"/>
      <trkpt lat="41.388750" lon="2.172650"/>
      <trkpt lat="41.388450" lon="2.172930"/>
      <trkpt lat="41.388020" lon="2.173210"/>
      <trkpt lat="41.388480" lon="2.173860"/>
      <trkpt lat="41.387880" lon="2.174280"/>
      <trkpt lat="41.387960" lon="2.175180"/>
      <trkpt lat="41.388550" lon="2.175430"/>
      <trkpt lat="41.388870" lon="2.175700"/>
      <trkpt lat="41.389120" lon="2.175970"/>
      <trkpt lat="41.389830" lon="2.175700"/>
      <trkpt lat="41.390760" lon="2.176360"/>
      <trkpt lat="41.391040" lon="2.175980"/>
      <trkpt lat="41.391100" lon="2.175410"/>
      <trkpt lat="41.390790" lon="2.175010"/>
      <trkpt lat="41.390190" lon="2.174230"/>
      <trkpt lat="41.390950" lon="2.172960"/>
      <trkpt lat="41.391710" lon="2.173610"/>
      <trkpt lat="41.391580" lon="2.175580"/>
      <trkpt lat="41.391830" lon="2.176100"/>
      <trkpt lat="41.391970" lon="2.176550"/>
      <trkpt lat="41.392490" lon="2.177020"/>
      <trkpt lat="41.392100" lon="2.177580"/>
      <trkpt lat="41.391830" lon="2.177460"/>
      <trkpt lat="41.391660" lon="2.178160"/>
      <trkpt lat="41.391400" lon="2.178690"/>
      <trkpt lat="41.391800" lon="2.179320"/>
      <trkpt lat="41.391990" lon="2.179140"/>
      <trkpt lat="41.392360" lon="2.178700"/>
      <trkpt lat="41.392590" lon="2.178880"/>
      <trkpt lat="41.392840" lon="2.178560"/>
      <trkpt lat="41.392810" lon="2.178040"/>
      <trkpt lat="41.392500" lon="2.179510"/>
      <trkpt lat="41.391480" lon="2.179730"/>
      <trkpt lat="41.391340" lon="2.180520"/>
      <trkpt lat="41.391330" lon="2.180770"/>
      <trkpt lat="41.391040" lon="2.180660"/>
      <trkpt lat="41.390820" lon="2.180280"/>
      <trkpt lat="41.390870" lon="2.179960"/>
      <trkpt lat="41.390490" lon="2.179280"/>
      <trkpt lat="41.390270" lon="2.178620"/>
      <trkpt lat="41.390300" lon="2.177620"/>
      <trkpt lat="41.389900" lon="2.177320"/>
      <trkpt lat="41.389730" lon="2.177740"/>
      <trkpt lat="41.388820" lon="2.177330"/>
      <trkpt lat="41.388720" lon="2.177120"/>
      <trkpt lat="41.388250" lon="2.176460"/>
      <trkpt lat="41.390880" lon="2.177130"/>
      <trkpt lat="41.390900" lon="2.177470"/>
      <trkpt lat="41.390110" lon="2.180090"/>
      <trkpt lat="41.390030" lon="2.181020"/>
      <trkpt lat="41.389820" lon="2.181270"/>
      <trkpt lat="41.389270" lon="2.181270"/>
      <trkpt lat="41.388960" lon="2.180700"/>
      <trkpt lat="41.388710" lon="2.181310"/>
      <trkpt lat="41.389430" lon="2.181950"/>
      <trkpt lat="41.390160" lon="2.182700"/>
      <trkpt lat="41.389890" lon="2.183070"/>
      <trkpt lat="41.389330" lon="2.183220"/>
      <trkpt lat="41.388890" lon="2.183420"/>
      <trkpt lat="41.388700" lon="2.183620"/>
      <trkpt lat="41.388940" lon="2.183890"/>
      <trkpt lat="41.389090" lon="2.184510"/>
      <trkpt lat="41.388790" lon="2.185240"/>
      <trkpt lat="41.388350" lon="2.185510"/>
      <trkpt lat="41.388130" lon="2.186040"/>
      <trkpt lat="41.388260" lon="2.186460"/>
      <trkpt lat="41.387750" lon="2.186370"/>
      <trkpt lat="41.387760" lon="2.186880"/>
      <trkpt lat="41.387320" lon="2.187280"/>
      <trkpt lat="41.387210" lon="2.187690"/>
      <trkpt lat="41.387600" lon="2.187930"/>
      <trkpt lat="41.387760" lon="2.188280"/>
      <trkpt lat="41.387920" lon="2.188620"/>
      <trkpt lat="41.388060" lon="2.188170"/>
      <trkpt lat="41.388330" lon="2.187460"/>
      <trkpt lat="41.388910" lon="2.187770"/>
      <trkpt lat="41.389060" lon="2.187100"/>
      <trkpt lat="41.389130" lon="2.186580"/>
      <trkpt lat="41.389340" lon="2.186560"/>
      <trkpt lat="41.388760" lon="2.186090"/>
      <trkpt lat="41.389620" lon="2.185620"/>
      <trkpt lat="41.389730" lon="2.185340"/>
      <trkpt lat="41.389990" lon="2.186210"/>
      <trkpt lat="41.390120" lon="2.186750"/>
      <trkpt lat="41.390030" lon="2.187110"/>
      <trkpt lat="41.390640" lon="2.186620"/>
      <trkpt lat="41.391220" lon="2.186950"/>
      <trkpt lat="41.390890" lon="2.187860"/>
      <trkpt lat="41.390150" lon="2.188090"/>
      <trkpt lat="41.389410" lon="2.188460"/>
      <trkpt lat="41.389500" lon="2.189590"/>
      <trkpt lat="41.389030" lon="2.190060"/>
      <trkpt lat="41.388820" lon="2.189650"/>
      <trkpt lat="41.388680" lon="2.189110"/>
      <trkpt lat="41.388020" lon="2.190250"/>
      <trkpt lat="41.387820" lon="2.190330"/>
      <trkpt lat="41.387490" lon="2.190880"/>
      <trkpt lat="41.386670" lon="2.191390"/>
      <trkpt lat="41.386450" lon="2.190420"/>
      <trkpt lat="41.386640" lon="2.189710"/>
      <trkpt lat="41.386790" lon="2.188880"/>
      <trkpt lat="41.386360" lon="2.188780"/>
      <trkpt lat="41.385980" lon="2.188880"/>
      <trkpt lat="41.385860" lon="2.189290"/>
      <trkpt lat="41.385080" lon="2.189810"/>
      <trkpt lat="41.384950" lon="2.188930"/>
      <trkpt lat="41.385610" lon="2.188080"/>
      <trkpt lat="41.385530" lon="2.187650"/>
      <trkpt lat="41.386110" lon="2.186940"/>
      <trkpt lat="41.385930" lon="2.186720"/>
      <trkpt lat="41.386180" lon="2.186310"/>
      <trkpt lat="41.386330" lon="2.186540"/>
      <trkpt lat="41.386390" lon="2.186800"/>
      <trkpt lat="41.385850" lon="2.185950"/>
      <trkpt lat="41.385470" lon="2.186380"/>
      <trkpt lat="41.384830" lon="2.186860"/>
      <trkpt lat="41.384280" lon="2.185720"/>
      <trkpt lat="41.384020" lon="2.185460"/>
      <trkpt lat="41.383890" lon="2.185760"/>
      <trkpt lat="41.383480" lon="2.185380"/>
      <trkpt lat="41.382880" lon="2.185410"/>
      <trkpt lat="41.382910" lon="2.184510"/>
      <trkpt lat="41.382480" lon="2.184060"/>
      <trkpt lat="41.382810" lon="2.183490"/>
      <trkpt lat="41.382510" lon="2.183010"/>
      <trkpt lat="41.382070" lon="2.182580"/>
      <trkpt lat="41.382010" lon="2.182310"/>
      <trkpt lat="41.381790" lon="2.182060"/>
      <trkpt lat="41.381850" lon="2.181720"/>
      <trkpt lat="41.381460" lon="2.181470"/>
      <trkpt lat="41.381650" lon="2.180990"/>
      <trkpt lat="41.381480" lon="2.180800"/>
      <trkpt lat="41.381640" lon="2.180310"/>
      <trkpt lat="41.381790" lon="2.180020"/>
      <trkpt lat="41.381130" lon="2.180410"/>
      <trkpt lat="41.380920" lon="2.180930"/>
      <trkpt lat="41.380610" lon="2.181330"/>
      <trkpt lat="41.380210" lon="2.181690"/>
      <trkpt lat="41.380300" lon="2.182420"/>
      <trkpt lat="41.380310" lon="2.183190"/>
      <trkpt lat="41.380910" lon="2.182470"/>
      <trkpt lat="41.381340" lon="2.182570"/>
      <trkpt lat="41.381540" lon="2.183200"/>
      <trkpt lat="41.381910" lon="2.183650"/>
      <trkpt lat="41.381870" lon="2.184290"/>
      <trkpt lat="41.382040" lon="2.184960"/>
      <trkpt lat="41.381970" lon="2.185820"/>
      <trkpt lat="41.382090" lon="2.186840"/>
      <trkpt lat="41.381900" lon="2.187400"/>
      <trkpt lat="41.381440" lon="2.188460"/>
      <trkpt lat="41.381840" lon="2.189240"/>
      <trkpt lat="41.382000" lon="2.189940"/>
      <trkpt lat="41.382920" lon="2.190230"/>
      <trkpt lat="41.383390" lon="2.190830"/>
      <trkpt lat="41.383580" lon="2.190190"/>
      <trkpt lat="41.383740" lon="2.191790"/>
      <trkpt lat="41.382310" lon="2.191490"/>
      <trkpt lat="41.381220" lon="2.190670"/>
      <trkpt lat="41.380440" lon="2.189610"/>
      <trkpt lat="41.380490" lon="2.188800"/>
      <trkpt lat="41.380650" lon="2.188490"/>
      <trkpt lat="41.380550" lon="2.187540"/>
      <trkpt lat="41.379750" lon="2.187920"/>
      <trkpt lat="41.379440" lon="2.188470"/>
      <trkpt lat="41.379550" lon="2.188810"/>
      <trkpt lat="41.379930" lon="2.188960"/>
      <trkpt lat="41.379080" lon="2.188920"/>
      <trkpt lat="41.378980" lon="2.188540"/>
      <trkpt lat="41.378360" lon="2.188280"/>
      <trkpt lat="41.377270" lon="2.187360"/>
      <trkpt lat="41.376670" lon="2.184270"/>
      <trkpt lat="41.377000" lon="2.184030"/>
      <trkpt lat="41.376880" lon="2.183350"/>
      <trkpt lat="41.376220" lon="2.182620"/>
      <trkpt lat="41.375610" lon="2.182830"/>
      <trkpt lat="41.375710" lon="2.183680"/>
      <trkpt lat="41.375390" lon="2.181830"/>
      <trkpt lat="41.375240" lon="2.180380"/>
      <trkpt lat="41.375610" lon="2.179830"/>
      <trkpt lat="41.376200" lon="2.179490"/>
      <trkpt lat="41.376190" lon="2.179170"/>
      <trkpt lat="41.376020" lon="2.178650"/>
      <trkpt lat="41.375800" lon="2.178830"/>
      <trkpt lat="41.375520" lon="2.178560"/>
      <trkpt lat="41.375550" lon="2.178290"/>
      <trkpt lat="41.375600" lon="2.177930"/>
      <trkpt lat="41.375810" lon="2.177740"/>
      <trkpt lat="41.375540" lon="2.177540"/>
      <trkpt lat="41.375520" lon="2.176930"/>
      <trkpt lat="41.376020" lon="2.177080"/>
      <trkpt lat="41.376370" lon="2.176530"/>
      <trkpt lat="41.376220" lon="2.176380"/>
      <trkpt lat="41.375910" lon="2.175820"/>
      <trkpt lat="41.376000" lon="2.175290"/>
      <trkpt lat="41.376650" lon="2.175490"/>
      <trkpt lat="41.377190" lon="2.176030"/>
      <trkpt lat="41.377240" lon="2.176350"/>
      <trkpt lat="41.377900" lon="2.176220"/>
      <trkpt lat="41.378120" lon="2.175610"/>
      <trkpt lat="41.378670" lon="2.175600"/>
      <trkpt lat="41.378450" lon="2.176300"/>
      <trkpt lat="41.378460" lon="2.176790"/>
      <trkpt lat="41.378900" lon="2.176950"/>
      <trkpt lat="41.378820" lon="2.177640"/>
      <trkpt lat="41.378010" lon="2.177660"/>
      <trkpt lat="41.377340" lon="2.177300"/>
      <trkpt lat="41.377250" lon="2.177840"/>
      <trkpt lat="41.376600" lon="2.177690"/>
      <trkpt lat="41.376780" lon="2.177220"/>
      <trkpt lat="41.376850" lon="2.178870"/>
      <trkpt lat="41.376680" lon="2.179720"/>
      <trkpt lat="41.377240" lon="2.179600"/>
      <trkpt lat="41.377550" lon="2.179630"/>
      <trkpt lat="41.377790" lon="2.179870"/>
      <trkpt lat="41.377580" lon="2.180340"/>
      <trkpt lat="41.378350" lon="2.181240"/>
      <trkpt lat="41.378840" lon="2.181640"/>
      <trkpt lat="41.379110" lon="2.180840"/>
      <trkpt lat="41.379380" lon="2.180260"/>
      <trkpt lat="41.379180" lon="2.180100"/>
      <trkpt lat="41.379370" lon="2.179550"/>
      <trkpt lat="41.379080" lon="2.179270"/>
      <trkpt lat="41.379690" lon="2.179790"/>
      <trkpt lat="41.380110" lon="2.179290"/>
      <trkpt lat="41.380360" lon="2.178870"/>
      <trkpt lat="41.380140" lon="2.178260"/>
      <trkpt lat="41.379710" lon="2.177700"/>
      <trkpt lat="41.379440" lon="2.176670"/>
      <trkpt lat="41.379270" lon="2.176050"/>
      <trkpt lat="41.379470" lon="2.175240"/>
      <trkpt lat="41.379020" lon="2.174920"/>
      <trkpt lat="41.378900" lon="2.174140"/>
      <trkpt lat="41.379290" lon="2.173510"/>
      <trkpt lat="41.379120" lon="2.172920"/>
      <trkpt lat="41.379560" lon="2.172890"/>
      <trkpt lat="41.380010" lon="2.172580"/>
      <trkpt lat="41.380260" lon="2.172480"/>
      <trkpt lat="41.380660" lon="2.173370"/>
      <trkpt lat="41.380310" lon="2.174470"/>
      <trkpt lat="41.380040" lon="2.174270"/>
      <trkpt lat="41.379800" lon="2.173750"/>
      <trkpt lat="41.380160" lon="2.175220"/>
      <trkpt lat="41.380640" lon="2.175010"/>
      <trkpt lat="41.381850" lon="2.177540"/>
      <trkpt lat="41.382220" lon="2.177720"/>
      <trkpt lat="41.382860" lon="2.178420"/>
      <trkpt lat="41.382160" lon="2.180900"/>
      <trkpt lat="41.382580" lon="2.181370"/>
      <trkpt lat="41.382980" lon="2.182100"/>
      <trkpt lat="41.383180" lon="2.181890"/>
      <trkpt lat="41.383500" lon="2.181760"/>
      <trkpt lat="41.383880" lon="2.181780"/>
      <trkpt lat="41.383740" lon="2.182340"/>
      <trkpt lat="41.383930" lon="2.182950"/>
      <trkpt lat="41.383610" lon="2.183160"/>
      <trkpt lat="41.383900" lon="2.183510"/>
      <trkpt lat="41.383910" lon="2.184230"/>
      <trkpt lat="41.384190" lon="2.184440"/>
      <trkpt lat="41.384750" lon="2.184280"/>
      <trkpt lat="41.385220" lon="2.183570"/>
      <trkpt lat="41.385310" lon="2.183080"/>
      <trkpt lat="41.385630" lon="2.183510"/>
      <trkpt lat="41.385830" lon="2.183610"/>
      <trkpt lat="41.386050" lon="2.184040"/>
      <trkpt lat="41.386590" lon="2.183360"/>
      <trkpt lat="41.386450" lon="2.182590"/>
      <trkpt lat="41.386800" lon="2.182410"/>
      <trkpt lat="41.387040" lon="2.182470"/>
      <trkpt lat="41.387010" lon="2.181830"/>
      <trkpt lat="41.386590" lon="2.181170"/>
      <trkpt lat="41.386220" lon="2.181150"/>
      <trkpt lat="41.386300" lon="2.181530"/>
      <trkpt lat="41.386210" lon="2.182150"/>
      <trkpt lat="41.385900" lon="2.182640"/>
      <trkpt lat="41.385730" lon="2.181400"/>
      <trkpt lat="41.386010" lon="2.180570"/>
      <trkpt lat="41.385080" lon="2.181790"/>
      <trkpt lat="41.384450" lon="2.181960"/>
      <trkpt lat="41.384570" lon="2.182710"/>
      <trkpt lat="41.384620" lon="2.183310"/>
      <trkpt lat="41.383450" lon="2.184280"/>
      <trkpt lat="41.384550" lon="2.185190"/>
      <trkpt lat="41.385770" lon="2.184980"/>
      <trkpt lat="41.386370" lon="2.185660"/>
      <trkpt lat="41.386660" lon="2.185300"/>
      <trkpt lat="41.386940" lon="2.185010"/>
      <trkpt lat="41.387130" lon="2.184580"/>
      <trkpt lat="41.387110" lon="2.184260"/>
      <trkpt lat="41.386580" lon="2.184820"/>
      <trkpt lat="41.387920" lon="2.184930"/>
      <trkpt lat="41.388230" lon="2.184570"/>
      <trkpt lat="41.388360" lon="2.184240"/>
      <trkpt lat="41.388230" lon="2.183570"/>
      <trkpt lat="41.388040" lon="2.183480"/>
      <trkpt lat="41.388060" lon="2.183050"/>
      <trkpt lat="41.387860" lon="2.182420"/>
      <trkpt lat="41.387320" lon="2.183070"/>
      <trkpt lat="41.387780" lon="2.183800"/>
      <trkpt lat="41.388620" lon="2.183030"/>
      <trkpt lat="41.390400" lon="2.183620"/>
      <trkpt lat="41.390920" lon="2.183170"/>
      <trkpt lat="41.390990" lon="2.182760"/>
      <trkpt lat="41.391210" lon="2.182400"/>
      <trkpt lat="41.390570" lon="2.182140"/>
      <trkpt lat="41.390710" lon="2.181700"/>
      <trkpt lat="41.390610" lon="2.181250"/>
      <trkpt lat="41.391410" lon="2.181370"/>
      <trkpt lat="41.391760" lon="2.181120"/>
      <trkpt lat="41.392190" lon="2.181590"/>
      <trkpt lat="41.392670" lon="2.182040"/>
      <trkpt lat="41.392860" lon="2.181380"/>
      <trkpt lat="41.392210" lon="2.183280"/>
      <trkpt lat="41.392270" lon="2.183830"/>
      <trkpt lat="41.391670" lon="2.184490"/>
      <trkpt lat="41.391680" lon="2.185060"/>
      <trkpt lat="41.392050" lon="2.185770"/>
      <trkpt lat="41.390890" lon="2.185690"/>
      <trkpt lat="41.391120" lon="2.184020"/>
      <trkpt lat="41.387380" lon="2.189090"/>
      <trkpt lat="41.385710" lon="2.190690"/>
      <trkpt lat="41.383560" lon="2.186740"/>
      <trkpt lat="41.381160" lon="2.185780"/>
      <trkpt lat="41.380600" lon="2.186050"/>
      <trkpt lat="41.380510" lon="2.186390"/>
      <trkpt lat="41.380560" lon="2.185370"/>
      <trkpt lat="41.379280" lon="2.182560"/>
      <trkpt lat="41.379570" lon="2.182160"/>
      <trkpt lat="41.379630" lon="2.181820"/>
      <trkpt lat="41.379640" lon="2.181540"/>
      <trkpt lat="41.379830" lon="2.180830"/>
      <trkpt lat="41.380500" lon="2.180260"/>
      <trkpt lat="41.380320" lon="2.179810"/>
      <trkpt lat="41.378290" lon="2.178970"/>
      <trkpt lat="41.378360" lon="2.178540"/>
      <trkpt lat="41.377850" lon="2.174830"/>
      <trkpt lat="41.377290" lon="2.174940"/>
      <trkpt lat="41.377120" lon="2.174040"/>
      <trkpt lat="41.377870" lon="2.173970"/>
      <trkpt lat="41.378150" lon="2.173390"/>
      <trkpt lat="41.377530" lon="2.172710"/>
      <trkpt lat="41.377620" lon="2.172170"/>
      <trkpt lat="41.377930" lon="2.171560"/>
      <trkpt lat="41.378150" lon="2.171230"/>
      <trkpt lat="41.378650" lon="2.171310"/>
      <trkpt lat="41.378310" lon="2.172190"/>
      <trkpt lat="41.379080" lon="2.172220"/>
      <trkpt lat="41.379580" lon="2.171570"/>
      <trkpt lat="41.380380" lon="2.170980"/>
      <trkpt lat="41.380570" lon="2.170650"/>
      <trkpt lat="41.380730" lon="2.170150"/>
      <trkpt lat="41.380360" lon="2.169440"/>
      <trkpt lat="41.380760" lon="2.171670"/>
      <trkpt lat="41.388530" lon="2.172160"/>
      <trkpt lat="41.383240" lon="2.182570"/>
      <trkpt lat="41.378160" lon="2.183580"/>
      <trkpt lat="41.377620" lon="2.184080"/>
    </trkseg>
  </trk>
</gpx>
