<?xml version="1.0" encoding="UTF-8"?>
<gpx xmlns="http://www.topografix.com/GPX/1/1" version="1.1">
  <trk>
    <name>Plaza Mayor, Madrid</name>
    <desc>Spain</desc>
    <trkseg>
      <trkpt lat="40.416280" lon="-3.706190"/>
      <trkpt lat="40.416320" lon="-3.706210"/>
      <trkpt lat="40.416640" lon="-3.705790"/>
      <trkpt lat="40.416930" lon="-3.705070"/>
      <trkpt lat="40.416850" lon="-3.704560"/>
      <trkpt lat="40.416440" lon="-3.705000"/>
      <trkpt lat="40.415760" lon="-3.705240"/>
      <trkpt lat="40.416000" lon="-3.705760"/>
      <trkpt lat="40.415650" lon="-3.706060"/>
      <trkpt lat="40.415750" lon="-3.706350"/>
      <trkpt lat="40.415330" lon="-3.706970"/>
      <trkpt lat="40.415430" lon="-3.707380"/>
      <trkpt lat="40.414880" lon="-3.706730"/>
      <trkpt lat="40.414380" lon="-3.706780"/>
      <trkpt lat="40.414230" lon="-3.707640"/>
      <trkpt lat="40.414180" lon="-3.708040"/>
      <trkpt lat="40.413650" lon="-3.708260"/>
      <trkpt lat="40.413390" lon="-3.707720"/>
      <trkpt lat="40.413710" lon="-3.707280"/>
      <trkpt lat="40.413330" lon="-3.707070"/>
      <trkpt lat="40.412900" lon="-3.707410"/>
      <trkpt lat="40.412400" lon="-3.707380"/>
      <trkpt lat="40.413100" lon="-3.708260"/>
      <trkpt lat="40.412920" lon="-3.708710"/>
      <trkpt lat="40.412790" lon="-3.709300"/>
      <trkpt lat="40.412520" lon="-3.709080"/>
      <trkpt lat="40.412280" lon="-3.709450"/>
      <trkpt lat="40.411320" lon="-3.709790"/>
      <trkpt lat="40.411390" lon="-3.710270"/>
      <trkpt lat="40.411660" lon="-3.710760"/>
      <trkpt lat="40.411620" lon="-3.711230"/>
      <trkpt lat="40.412200" lon="-3.711270"/>
      <trkpt lat="40.412730" lon="-3.711480"/>
      <trkpt lat="40.413390" lon="-3.711820"/>
      <trkpt lat="40.413510" lon="-3.711400"/>
      <trkpt lat="40.413920" lon="-3.711160"/>
      <trkpt lat="40.414150" lon="-3.711820"/>
      <trkpt lat="40.414630" lon="-3.711130"/>
      <trkpt lat="40.414490" lon="-3.710970"/>
      <trkpt lat="40.414370" lon="-3.710430"/>
      <trkpt lat="40.414220" lon="-3.709770"/>
      <trkpt lat="40.414760" lon="-3.709690"/>
      <trkpt lat="40.415120" lon="-3.710380"/>
      <trkpt lat="40.415110" lon="-3.710410"/>
      <trkpt lat="40.415340" lon="-3.710620"/>
      <trkpt lat="40.415610" lon="-3.710330"/>
      <trkpt lat="40.415930" lon="-3.710630"/>
      <trkpt lat="40.416290" lon="-3.710150"/>
      <trkpt lat="40.415880" lon="-3.709560"/>
      <trkpt lat="40.415550" lon="-3.709260"/>
      <trkpt lat="40.415760" lon="-3.708370"/>
      <trkpt lat="40.416130" lon="-3.708430"/>
      <trkpt lat="40.416520" lon="-3.708670"/>
      <trkpt lat="40.416970" lon="-3.708700"/>
      <trkpt lat="40.417000" lon="-3.708200"/>
      <trkpt lat="40.417490" lon="-3.707800"/>
      <trkpt lat="40.417830" lon="-3.707610"/>
      <trkpt lat="40.417720" lon="-3.707010"/>
      <trkpt lat="40.418190" lon="-3.706930"/>
      <trkpt lat="40.418230" lon="-3.706230"/>
      <trkpt lat="40.418040" lon="-3.705650"/>
      <trkpt lat="40.417990" lon="-3.705380"/>
      <trkpt lat="40.417350" lon="-3.705690"/>
      <trkpt lat="40.417240" lon="-3.706300"/>
      <trkpt lat="40.417190" lon="-3.706580"/>
      <trkpt lat="40.417190" lon="-3.706890"/>
      <trkpt lat="40.416990" lon="-3.707340"/>
      <trkpt lat="40.416500" lon="-3.707710"/>
      <trkpt lat="40.416220" lon="-3.706910"/>
      <trkpt lat="40.414890" lon="-3.706060"/>
      <trkpt lat="40.414750" lon="-3.705560"/>
      <trkpt lat="40.414630" lon="-3.705180"/>
      <trkpt lat="40.415000" lon="-3.704980"/>
      <trkpt lat="40.414840" lon="-3.704330"/>
      <trkpt lat="40.414530" lon="-3.704070"/>
      <trkpt lat="40.414560" lon="-3.703460"/>
      <trkpt lat="40.414110" lon="-3.703530"/>
      <trkpt lat="40.413840" lon="-3.703770"/>
      <trkpt lat="40.413130" lon="-3.703870"/>
      <trkpt lat="40.412430" lon="-3.703850"/>
      <trkpt lat="40.412340" lon="-3.704250"/>
      <trkpt lat="40.411790" lon="-3.704740"/>
      <trkpt lat="40.411720" lon="-3.705260"/>
      <trkpt lat="40.411930" lon="-3.705850"/>
      <trkpt lat="40.412680" lon="-3.705580"/>
      <trkpt lat="40.413270" lon="-3.706350"/>
      <trkpt lat="40.413950" lon="-3.705510"/>
      <trkpt lat="40.413600" lon="-3.704690"/>
      <trkpt lat="40.413750" lon="-3.702600"/>
      <trkpt lat="40.414270" lon="-3.702210"/>
      <trkpt lat="40.414350" lon="-3.702500"/>
      <trkpt lat="40.415070" lon="-3.702240"/>
      <trkpt lat="40.415690" lon="-3.701760"/>
      <trkpt lat="40.415830" lon="-3.701190"/>
      <trkpt lat="40.416150" lon="-3.701620"/>
      <trkpt lat="40.416610" lon="-3.701060"/>
      <trkpt lat="40.416760" lon="-3.700640"/>
      <trkpt lat="40.416540" lon="-3.700290"/>
      <trkpt lat="40.416510" lon="-3.699160"/>
      <trkpt lat="40.416500" lon="-3.698770"/>
      <trkpt lat="40.416380" lon="-3.698310"/>
      <trkpt lat="40.416100" lon="-3.697360"/>
      <trkpt lat="40.416100" lon="-3.696700"/>
      <trkpt lat="40.415760" lon="-3.696470"/>
      <trkpt lat="40.415610" lon="-3.696080"/>
      <trkpt lat="40.415590" lon="-3.695770"/>
      <trkpt lat="40.415350" lon="-3.694950"/>
      <trkpt lat="40.415830" lon="-3.694760"/>
      <trkpt lat="40.414810" lon="-3.694800"/>
      <trkpt lat="40.414320" lon="-3.695610"/>
      <trkpt lat="40.413600" lon="-3.695540"/>
      <trkpt lat="40.412790" lon="-3.695650"/>
      <trkpt lat="40.413140" lon="-3.696440"/>
      <trkpt lat="40.413300" lon="-3.696890"/>
      <trkpt lat="40.413340" lon="-3.697490"/>
      <trkpt lat="40.413050" lon="-3.697650"/>
      <trkpt lat="40.413040" lon="-3.697930"/>
      <trkpt lat="40.413540" lon="-3.698460"/>
      <trkpt lat="40.413940" lon="-3.698700"/>
      <trkpt lat="40.413780" lon="-3.699510"/>
      <trkpt lat="40.414100" lon="-3.700160"/>
      <trkpt lat="40.413940" lon="-3.700430"/>
      <trkpt lat="40.413850" lon="-3.701340"/>
      <trkpt lat="40.414370" lon="-3.701410"/>
      <trkpt lat="40.414790" lon="-3.700740"/>
      <trkpt lat="40.414810" lon="-3.700160"/>
      <trkpt lat="40.414750" lon="-3.698490"/>
      <trkpt lat="40.414890" lon="-3.698090"/>
      <trkpt lat="40.415240" lon="-3.697770"/>
      <trkpt lat="40.415450" lon="-3.698360"/>
      <trkpt lat="40.415330" lon="-3.696930"/>
      <trkpt lat="40.414290" lon="-3.696910"/>
      <trkpt lat="40.414360" lon="-3.697440"/>
      <trkpt lat="40.413770" lon="-3.697580"/>
      <trkpt lat="40.413290" lon="-3.699040"/>
      <trkpt lat="40.412420" lon="-3.699580"/>
      <trkpt lat="40.411950" lon="-3.700160"/>
      <trkpt lat="40.411430" lon="-3.700400"/>
      <trkpt lat="40.410840" lon="-3.700580"/>
      <trkpt lat="40.410500" lon="-3.699400"/>
      <trkpt lat="40.410420" lon="-3.698160"/>
      <trkpt lat="40.410120" lon="-3.697770"/>
      <trkpt lat="40.410840" lon="-3.697750"/>
      <trkpt lat="40.411640" lon="-3.697840"/>
      <trkpt lat="40.412250" lon="-3.697790"/>
      <trkpt lat="40.412400" lon="-3.698070"/>
      <trkpt lat="40.412080" lon="-3.698750"/>
      <trkpt lat="40.411340" lon="-3.698700"/>
      <trkpt lat="40.411330" lon="-3.696890"/>
      <trkpt lat="40.412210" lon="-3.696600"/>
      <trkpt lat="40.412500" lon="-3.697190"/>
      <trkpt lat="40.412540" lon="-3.700610"/>
      <trkpt lat="40.413070" lon="-3.701620"/>
      <trkpt lat="40.412380" lon="-3.702220"/>
      <trkpt lat="40.411590" lon="-3.703470"/>
      <trkpt lat="40.411410" lon="-3.703820"/>
      <trkpt lat="40.411680" lon="-3.704090"/>
      <trkpt lat="40.411020" lon="-3.704530"/>
      <trkpt lat="40.409680" lon="-3.704800"/>
      <trkpt lat="40.409410" lon="-3.703940"/>
      <trkpt lat="40.409870" lon="-3.703480"/>
      <trkpt lat="40.409150" lon="-3.702620"/>
      <trkpt lat="40.408950" lon="-3.702820"/>
      <trkpt lat="40.408180" lon="-3.703140"/>
      <trkpt lat="40.407920" lon="-3.704040"/>
      <trkpt lat="40.408390" lon="-3.704580"/>
      <trkpt lat="40.408760" lon="-3.705030"/>
      <trkpt lat="40.409390" lon="-3.705830"/>
      <trkpt lat="40.410040" lon="-3.706270"/>
      <trkpt lat="40.409590" lon="-3.706770"/>
      <trkpt lat="40.409510" lon="-3.707540"/>
      <trkpt lat="40.408800" lon="-3.707160"/>
      <trkpt lat="40.408320" lon="-3.707480"/>
      <trkpt lat="40.407710" lon="-3.707280"/>
      <trkpt lat="40.407760" lon="-3.706640"/>
      <trkpt lat="40.407380" lon="-3.705960"/>
      <trkpt lat="40.408830" lon="-3.708050"/>
      <trkpt lat="40.408210" lon="-3.708660"/>
      <trkpt lat="40.408010" lon="-3.709840"/>
      <trkpt lat="40.408310" lon="-3.709880"/>
      <trkpt lat="40.408810" lon="-3.710220"/>
      <trkpt lat="40.409380" lon="-3.709820"/>
      <trkpt lat="40.409720" lon="-3.709760"/>
      <trkpt lat="40.409640" lon="-3.710270"/>
      <trkpt lat="40.409510" lon="-3.711670"/>
      <trkpt lat="40.410550" lon="-3.711600"/>
      <trkpt lat="40.410840" lon="-3.712210"/>
      <trkpt lat="40.411140" lon="-3.712330"/>
      <trkpt lat="40.411540" lon="-3.712340"/>
      <trkpt lat="40.410980" lon="-3.712880"/>
      <trkpt lat="40.411060" lon="-3.714200"/>
      <trkpt lat="40.410960" lon="-3.714400"/>
      <trkpt lat="40.410530" lon="-3.714140"/>
      <trkpt lat="40.410430" lon="-3.714580"/>
      <trkpt lat="40.409650" lon="-3.713810"/>
      <trkpt lat="40.411550" lon="-3.714010"/>
      <trkpt lat="40.412050" lon="-3.713380"/>
      <trkpt lat="40.412720" lon="-3.714330"/>
      <trkpt lat="40.412620" lon="-3.714990"/>
      <trkpt lat="40.412400" lon="-3.715080"/>
      <trkpt lat="40.412080" lon="-3.714680"/>
      <trkpt lat="40.411710" lon="-3.715160"/>
      <trkpt lat="40.412440" lon="-3.715670"/>
      <trkpt lat="40.412670" lon="-3.715780"/>
      <trkpt lat="40.413370" lon="-3.716910"/>
      <trkpt lat="40.413770" lon="-3.715480"/>
      <trkpt lat="40.413600" lon="-3.714650"/>
      <trkpt lat="40.413160" lon="-3.713980"/>
      <trkpt lat="40.413460" lon="-3.713240"/>
      <trkpt lat="40.413840" lon="-3.713810"/>
      <trkpt lat="40.414360" lon="-3.713400"/>
      <trkpt lat="40.414410" lon="-3.713050"/>
      <trkpt lat="40.414930" lon="-3.713650"/>
      <trkpt lat="40.415350" lon="-3.713820"/>
      <trkpt lat="40.415520" lon="-3.714130"/>
      <trkpt lat="40.415460" lon="-3.714470"/>
      <trkpt lat="40.415960" lon="-3.714550"/>
      <trkpt lat="40.416450" lon="-3.714860"/>
      <trkpt lat="40.416550" lon="-3.714210"/>
      <trkpt lat="40.417030" lon="-3.714060"/>
      <trkpt lat="40.417150" lon="-3.714390"/>
      <trkpt lat="40.417840" lon="-3.714300"/>
      <trkpt lat="40.417880" lon="-3.714280"/>
      <trkpt lat="40.418400" lon="-3.713480"/>
      <trkpt lat="40.418340" lon="-3.713350"/>
      <trkpt lat="40.418560" lon="-3.713340"/>
      <trkpt lat="40.418940" lon="-3.713340"/>
      <trkpt lat="40.418880" lon="-3.712760"/>
      <trkpt lat="40.419110" lon="-3.712470"/>
      <trkpt lat="40.419350" lon="-3.712430"/>
      <trkpt lat="40.419100" lon="-3.712140"/>
      <trkpt lat="40.419480" lon="-3.711750"/>
      <trkpt lat="40.419230" lon="-3.711050"/>
      <trkpt lat="40.418930" lon="-3.710650"/>
      <trkpt lat="40.418570" lon="-3.711260"/>
      <trkpt lat="40.418330" lon="-3.712260"/>
      <trkpt lat="40.418100" lon="-3.712380"/>
      <trkpt lat="40.417820" lon="-3.712640"/>
      <trkpt lat="40.417620" lon="-3.712950"/>
      <trkpt lat="40.417450" lon="-3.713140"/>
      <trkpt lat="40.418080" lon="-3.713120"/>
      <trkpt lat="40.417790" lon="-3.711760"/>
      <trkpt lat="40.417220" lon="-3.711780"/>
      <trkpt lat="40.417070" lon="-3.711570"/>
      <trkpt lat="40.416960" lon="-3.711930"/>
      <trkpt lat="40.416770" lon="-3.711190"/>
      <trkpt lat="40.416740" lon="-3.710950"/>
      <trkpt lat="40.417120" lon="-3.711060"/>
      <trkpt lat="40.417810" lon="-3.710650"/>
      <trkpt lat="40.417420" lon="-3.709980"/>
      <trkpt lat="40.417750" lon="-3.709480"/>
      <trkpt lat="40.417940" lon="-3.709570"/>
      <trkpt lat="40.418150" lon="-3.709900"/>
      <trkpt lat="40.418590" lon="-3.709900"/>
      <trkpt lat="40.418320" lon="-3.708960"/>
      <trkpt lat="40.418800" lon="-3.708780"/>
      <trkpt lat="40.418990" lon="-3.708120"/>
      <trkpt lat="40.419430" lon="-3.708000"/>
      <trkpt lat="40.419840" lon="-3.708500"/>
      <trkpt lat="40.420000" lon="-3.707800"/>
      <trkpt lat="40.420250" lon="-3.707110"/>
      <trkpt lat="40.420460" lon="-3.706560"/>
      <trkpt lat="40.420260" lon="-3.706350"/>
      <trkpt lat="40.420070" lon="-3.706040"/>
      <trkpt lat="40.419530" lon="-3.705540"/>
      <trkpt lat="40.419150" lon="-3.706140"/>
      <trkpt lat="40.418810" lon="-3.706340"/>
      <trkpt lat="40.419120" lon="-3.707110"/>
      <trkpt lat="40.418630" lon="-3.707620"/>
      <trkpt lat="40.418100" lon="-3.708280"/>
      <trkpt lat="40.417500" lon="-3.708580"/>
      <trkpt lat="40.416810" lon="-3.709680"/>
      <trkpt lat="40.415930" lon="-3.711420"/>
      <trkpt lat="40.415810" lon="-3.711930"/>
      <trkpt lat="40.415470" lon="-3.712120"/>
      <trkpt lat="40.415080" lon="-3.712510"/>
      <trkpt lat="40.414880" lon="-3.712290"/>
      <trkpt lat="40.415200" lon="-3.713030"/>
      <trkpt lat="40.415750" lon="-3.713260"/>
      <trkpt lat="40.415710" lon="-3.713630"/>
      <trkpt lat="40.416120" lon="-3.713780"/>
      <trkpt lat="40.416490" lon="-3.713420"/>
      <trkpt lat="40.415210" lon="-3.715130"/>
      <trkpt lat="40.414980" lon="-3.714970"/>
      <trkpt lat="40.414860" lon="-3.714520"/>
      <trkpt lat="40.414800" lon="-3.715670"/>
      <trkpt lat="40.414840" lon="-3.716400"/>
      <trkpt lat="40.414940" lon="-3.716970"/>
      <trkpt lat="40.415110" lon="-3.717730"/>
      <trkpt lat="40.414470" lon="-3.717680"/>
      <trkpt lat="40.417600" lon="-3.717610"/>
      <trkpt lat="40.418640" lon="-3.717460"/>
      <trkpt lat="40.418580" lon="-3.716340"/>
      <trkpt lat="40.419180" lon="-3.714280"/>
      <trkpt lat="40.419770" lon="-3.713990"/>
      <trkpt lat="40.419820" lon="-3.713680"/>
      <trkpt lat="40.419930" lon="-3.713380"/>
      <trkpt lat="40.420280" lon="-3.714040"/>
      <trkpt lat="40.420070" lon="-3.714260"/>
      <trkpt lat="40.420160" lon="-3.714580"/>
      <trkpt lat="40.419860" lon="-3.714670"/>
      <trkpt lat="40.420610" lon="-3.715630"/>
      <trkpt lat="40.420460" lon="-3.716390"/>
      <trkpt lat="40.420880" lon="-3.713980"/>
      <trkpt lat="40.421310" lon="-3.713550"/>
      <trkpt lat="40.421490" lon="-3.713180"/>
      <trkpt lat="40.421740" lon="-3.713700"/>
      <trkpt lat="40.422120" lon="-3.713640"/>
      <trkpt lat="40.422410" lon="-3.713900"/>
      <trkpt lat="40.422760" lon="-3.713440"/>
      <trkpt lat="40.423300" lon="-3.712780"/>
      <trkpt lat="40.423540" lon="-3.712100"/>
      <trkpt lat="40.423580" lon="-3.711640"/>
      <trkpt lat="40.424230" lon="-3.711100"/>
      <trkpt lat="40.424060" lon="-3.710550"/>
      <trkpt lat="40.423930" lon="-3.710180"/>
      <trkpt lat="40.423350" lon="-3.710540"/>
      <trkpt lat="40.423050" lon="-3.709050"/>
      <trkpt lat="40.422500" lon="-3.709130"/>
      <trkpt lat="40.422290" lon="-3.709430"/>
      <trkpt lat="40.422120" lon="-3.709600"/>
      <trkpt lat="40.421790" lon="-3.708580"/>
      <trkpt lat="40.421780" lon="-3.707770"/>
      <trkpt lat="40.421360" lon="-3.707300"/>
      <trkpt lat="40.420990" lon="-3.706790"/>
      <trkpt lat="40.421610" lon="-3.706020"/>
      <trkpt lat="40.422210" lon="-3.705770"/>
      <trkpt lat="40.421220" lon="-3.705350"/>
      <trkpt lat="40.421070" lon="-3.705570"/>
      <trkpt lat="40.420800" lon="-3.704300"/>
      <trkpt lat="40.421200" lon="-3.703560"/>
      <trkpt lat="40.421330" lon="-3.702790"/>
      <trkpt lat="40.420790" lon="-3.702830"/>
      <trkpt lat="40.421030" lon="-3.702010"/>
      <trkpt lat="40.421750" lon="-3.701900"/>
      <trkpt lat="40.422000" lon="-3.701700"/>
      <trkpt lat="40.422280" lon="-3.700920"/>
      <trkpt lat="40.421500" lon="-3.701140"/>
      <trkpt lat="40.420780" lon="-3.699970"/>
      <trkpt lat="40.420410" lon="-3.699250"/>
      <trkpt lat="40.420300" lon="-3.698420"/>
      <trkpt lat="40.420100" lon="-3.697710"/>
      <trkpt lat="40.419520" lon="-3.698580"/>
      <trkpt lat="40.419200" lon="-3.698040"/>
      <trkpt lat="40.418690" lon="-3.697420"/>
      <trkpt lat="40.418810" lon="-3.697230"/>
      <trkpt lat="40.418540" lon="-3.697670"/>
      <trkpt lat="40.418080" lon="-3.698050"/>
      <trkpt lat="40.418370" lon="-3.698360"/>
      <trkpt lat="40.418180" lon="-3.698990"/>
      <trkpt lat="40.418250" lon="-3.699380"/>
      <trkpt lat="40.418030" lon="-3.699490"/>
      <trkpt lat="40.417560" lon="-3.699660"/>
      <trkpt lat="40.417550" lon="-3.700010"/>
      <trkpt lat="40.417440" lon="-3.700230"/>
      <trkpt lat="40.417660" lon="-3.700640"/>
      <trkpt lat="40.417450" lon="-3.701170"/>
      <trkpt lat="40.417380" lon="-3.702110"/>
      <trkpt lat="40.417020" lon="-3.702650"/>
      <trkpt lat="40.417410" lon="-3.702880"/>
      <trkpt lat="40.417800" lon="-3.703450"/>
      <trkpt lat="40.417510" lon="-3.703690"/>
      <trkpt lat="40.417270" lon="-3.703830"/>
      <trkpt lat="40.417010" lon="-3.703520"/>
      <trkpt lat="40.416600" lon="-3.703720"/>
      <trkpt lat="40.415890" lon="-3.704380"/>
      <trkpt lat="40.415440" lon="-3.704080"/>
      <trkpt lat="40.415240" lon="-3.703290"/>
      <trkpt lat="40.418240" lon="-3.703250"/>
      <trkpt lat="40.418210" lon="-3.704110"/>
      <trkpt lat="40.419040" lon="-3.703350"/>
      <trkpt lat="40.419290" lon="-3.703190"/>
      <trkpt lat="40.419270" lon="-3.702890"/>
      <trkpt lat="40.418720" lon="-3.702320"/>
      <trkpt lat="40.418300" lon="-3.702320"/>
      <trkpt lat="40.418360" lon="-3.701650"/>
      <trkpt lat="40.418920" lon="-3.701760"/>
      <trkpt lat="40.419550" lon="-3.700760"/>
      <trkpt lat="40.419770" lon="-3.700330"/>
      <trkpt lat="40.420070" lon="-3.700760"/>
      <trkpt lat="40.420080" lon="-3.701040"/>
      <trkpt lat="40.420180" lon="-3.701900"/>
      <trkpt lat="40.420300" lon="-3.703460"/>
      <trkpt lat="40.420060" lon="-3.704590"/>
      <trkpt lat="40.422130" lon="-3.704380"/>
      <trkpt lat="40.422390" lon="-3.703830"/>
      <trkpt lat="40.422950" lon="-3.703250"/>
      <trkpt lat="40.422600" lon="-3.702520"/>
      <trkpt lat="40.421870" lon="-3.702720"/>
      <trkpt lat="40.423440" lon="-3.702600"/>
      <trkpt lat="40.424040" lon="-3.702120"/>
      <trkpt lat="40.424510" lon="-3.702030"/>
      <trkpt lat="40.424530" lon="-3.701540"/>
      <trkpt lat="40.424260" lon="-3.701470"/>
      <trkpt lat="40.424080" lon="-3.700680"/>
      <trkpt lat="40.423270" lon="-3.700760"/>
      <trkpt lat="40.423040" lon="-3.700400"/>
      <trkpt lat="40.422820" lon="-3.699770"/>
      <trkpt lat="40.423260" lon="-3.698930"/>
      <trkpt lat="40.422250" lon="-3.697620"/>
      <trkpt lat="40.421940" lon="-3.697930"/>
      <trkpt lat="40.421500" lon="-3.697380"/>
      <trkpt lat="40.421260" lon="-3.698770"/>
      <trkpt lat="40.421080" lon="-3.699190"/>
      <trkpt lat="40.421700" lon="-3.699490"/>
      <trkpt lat="40.419720" lon="-3.699300"/>
      <trkpt lat="40.419010" lon="-3.699720"/>
      <trkpt lat="40.417290" lon="-3.698380"/>
      <trkpt lat="40.417190" lon="-3.696820"/>
      <trkpt lat="40.416680" lon="-3.696080"/>
      <trkpt lat="40.416920" lon="-3.695650"/>
      <trkpt lat="40.417340" lon="-3.695500"/>
      <trkpt lat="40.418210" lon="-3.696320"/>
      <trkpt lat="40.418170" lon="-3.696560"/>
      <trkpt lat="40.418470" lon="-3.696610"/>
      <trkpt lat="40.418920" lon="-3.696300"/>
      <trkpt lat="40.418990" lon="-3.696650"/>
      <trkpt lat="40.419740" lon="-3.696540"/>
      <trkpt lat="40.420330" lon="-3.696350"/>
      <trkpt lat="40.420280" lon="-3.695900"/>
      <trkpt lat="40.419190" lon="-3.695460"/>
      <trkpt lat="40.418660" lon="-3.695690"/>
      <trkpt lat="40.423510" lon="-3.701480"/>
      <trkpt lat="40.424660" lon="-3.703210"/>
      <trkpt lat="40.424150" lon="-3.703710"/>
      <trkpt lat="40.424830" lon="-3.704320"/>
      <trkpt lat="40.423970" lon="-3.706070"/>
      <trkpt lat="40.423220" lon="-3.706660"/>
      <trkpt lat="40.423020" lon="-3.707170"/>
      <trkpt lat="40.422540" lon="-3.707320"/>
      <trkpt lat="40.422780" lon="-3.707990"/>
      <trkpt lat="40.423420" lon="-3.707710"/>
      <trkpt lat="40.423520" lon="-3.708320"/>
      <trkpt lat="40.423810" lon="-3.708110"/>
      <trkpt lat="40.424330" lon="-3.707150"/>
      <trkpt lat="40.424910" lon="-3.707500"/>
      <trkpt lat="40.425070" lon="-3.707250"/>
      <trkpt lat="40.425150" lon="-3.706570"/>
      <trkpt lat="40.424150" lon="-3.709320"/>
      <trkpt lat="40.421260" lon="-3.708160"/>
      <trkpt lat="40.420400" lon="-3.708420"/>
      <trkpt lat="40.420640" lon="-3.709240"/>
      <trkpt lat="40.420810" lon="-3.709860"/>
      <trkpt lat="40.421270" lon="-3.710610"/>
      <trkpt lat="40.420880" lon="-3.710870"/>
      <trkpt lat="40.420730" lon="-3.711650"/>
      <trkpt lat="40.420550" lon="-3.712710"/>
      <trkpt lat="40.421230" lon="-3.712540"/>
      <trkpt lat="40.422090" lon="-3.712760"/>
      <trkpt lat="40.420000" lon="-3.710450"/>
      <trkpt lat="40.419640" lon="-3.709510"/>
      <trkpt lat="40.415390" lon="-3.711430"/>
      <trkpt lat="40.414850" lon="-3.711370"/>
      <trkpt lat="40.413130" lon="-3.710280"/>
      <trkpt lat="40.413830" lon="-3.709030"/>
      <trkpt lat="40.414840" lon="-3.708160"/>
      <trkpt lat="40.411610" lon="-3.708310"/>
      <trkpt lat="40.411390" lon="-3.708610"/>
      <trkpt lat="40.411160" lon="-3.708200"/>
      <trkpt lat="40.410620" lon="-3.709120"/>
      <trkpt lat="40.410760" lon="-3.709440"/>
      <trkpt lat="40.410350" lon="-3.707640"/>
      <trkpt lat="40.410510" lon="-3.706820"/>
      <trkpt lat="40.410860" lon="-3.707050"/>
      <trkpt lat="40.411080" lon="-3.702750"/>
      <trkpt lat="40.410820" lon="-3.702570"/>
      <trkpt lat="40.408930" lon="-3.701300"/>
      <trkpt lat="40.409000" lon="-3.700500"/>
      <trkpt lat="40.408920" lon="-3.699960"/>
      <trkpt lat="40.409260" lon="-3.699590"/>
      <trkpt lat="40.408450" lon="-3.700730"/>
      <trkpt lat="40.422950" lon="-3.704420"/>
      <trkpt lat="40.423140" lon="-3.704520"/>
    </trkseg>
  </trk>
</gpx>
