<?xml version="1.0" encoding="UTF-8"?>
<gpx xmlns="http://www.topografix.com/GPX/1/1" version="1.1" creator="GPS Visualizer http://www.gpsvisualizer.com/">
  <trk>
    <name>0</name>
    <trkseg>
      <wpt lat="41.664944" lon="-0.899612"/>
      <wpt lat="41.664612" lon="-0.897363"/>
      <wpt lat="41.664677" lon="-0.896756"/>
      <wpt lat="41.664425" lon="-0.896240"/>
      <wpt lat="41.663979" lon="-0.895961"/>
      <wpt lat="41.664188" lon="-0.895488"/>
      <wpt lat="41.664791" lon="-0.894911"/>
      <wpt lat="41.664642" lon="-0.893064"/>
      <wpt lat="41.663048" lon="-0.894940"/>
      <wpt lat="41.662933" lon="-0.894930"/>
      <wpt lat="41.662609" lon="-0.894111"/>
      <wpt lat="41.662319" lon="-0.894207"/>
      <wpt lat="41.662331" lon="-0.894038"/>
      <wpt lat="41.662086" lon="-0.894069"/>
      <wpt lat="41.662262" lon="-0.893770"/>
      <wpt lat="41.662037" lon="-0.893973"/>
      <wpt lat="41.662197" lon="-0.893698"/>
      <wpt lat="41.662136" lon="-0.893602"/>
      <wpt lat="41.661949" lon="-0.893824"/>
      <wpt lat="41.662045" lon="-0.893581"/>
      <wpt lat="41.662151" lon="-0.893427"/>
      <wpt lat="41.661804" lon="-0.893621"/>
      <wpt lat="41.661766" lon="-0.893570"/>
      <wpt lat="41.661903" lon="-0.893164"/>
      <wpt lat="41.661713" lon="-0.893494"/>
      <wpt lat="41.661671" lon="-0.893427"/>
      <wpt lat="41.661777" lon="-0.893261"/>
      <wpt lat="41.661797" lon="-0.892965"/>
      <wpt lat="41.661613" lon="-0.893334"/>
      <wpt lat="41.661606" lon="-0.893077"/>
      <wpt lat="41.661625" lon="-0.892768"/>
      <wpt lat="41.661480" lon="-0.893143"/>
      <wpt lat="41.661400" lon="-0.893018"/>
      <wpt lat="41.661331" lon="-0.893019"/>
      <wpt lat="41.661343" lon="-0.892832"/>
      <wpt lat="41.661350" lon="-0.892658"/>
      <wpt lat="41.661331" lon="-0.892027"/>
      <wpt lat="41.660919" lon="-0.892451"/>
      <wpt lat="41.660980" lon="-0.892134"/>
      <wpt lat="41.660526" lon="-0.891365"/>
      <wpt lat="41.660358" lon="-0.891424"/>
      <wpt lat="41.660519" lon="-0.891135"/>
      <wpt lat="41.660408" lon="-0.891199"/>
      <wpt lat="41.660240" lon="-0.891276"/>
      <wpt lat="41.660358" lon="-0.890992"/>
      <wpt lat="41.660206" lon="-0.891127"/>
      <wpt lat="41.660175" lon="-0.891007"/>
      <wpt lat="41.659962" lon="-0.891196"/>
      <wpt lat="41.659729" lon="-0.891238"/>
      <wpt lat="41.659840" lon="-0.890459"/>
      <wpt lat="41.659698" lon="-0.890373"/>
      <wpt lat="41.659698" lon="-0.889755"/>
      <wpt lat="41.659531" lon="-0.889207"/>
      <wpt lat="41.658840" lon="-0.888430"/>
      <wpt lat="41.658501" lon="-0.888315"/>
      <wpt lat="41.658508" lon="-0.888578"/>
      <wpt lat="41.658855" lon="-0.888888"/>
      <wpt lat="41.659058" lon="-0.889578"/>
      <wpt lat="41.659145" lon="-0.889950"/>
      <wpt lat="41.659283" lon="-0.890058"/>
      <wpt lat="41.659378" lon="-0.890343"/>
      <wpt lat="41.658741" lon="-0.890698"/>
      <wpt lat="41.658470" lon="-0.891280"/>
      <wpt lat="41.658012" lon="-0.890648"/>
      <wpt lat="41.657871" lon="-0.891172"/>
      <wpt lat="41.656998" lon="-0.890766"/>
      <wpt lat="41.656811" lon="-0.890382"/>
      <wpt lat="41.656517" lon="-0.890839"/>
      <wpt lat="41.656532" lon="-0.891933"/>
      <wpt lat="41.657185" lon="-0.891890"/>
      <wpt lat="41.657692" lon="-0.891455"/>
      <wpt lat="41.658245" lon="-0.891533"/>
      <wpt lat="41.658218" lon="-0.891757"/>
      <wpt lat="41.658192" lon="-0.892007"/>
      <wpt lat="41.658436" lon="-0.891967"/>
      <wpt lat="41.659004" lon="-0.891594"/>
      <wpt lat="41.659237" lon="-0.891361"/>
      <wpt lat="41.659870" lon="-0.891758"/>
      <wpt lat="41.659657" lon="-0.892027"/>
      <wpt lat="41.659195" lon="-0.892336"/>
      <wpt lat="41.658699" lon="-0.892647"/>
      <wpt lat="41.658531" lon="-0.892281"/>
      <wpt lat="41.658173" lon="-0.892638"/>
      <wpt lat="41.657310" lon="-0.892701"/>
      <wpt lat="41.657310" lon="-0.892290"/>
      <wpt lat="41.656635" lon="-0.892463"/>
      <wpt lat="41.655804" lon="-0.892007"/>
      <wpt lat="41.655754" lon="-0.892237"/>
      <wpt lat="41.655788" lon="-0.892351"/>
      <wpt lat="41.655621" lon="-0.892475"/>
      <wpt lat="41.655609" lon="-0.892963"/>
      <wpt lat="41.655445" lon="-0.893547"/>
      <wpt lat="41.655807" lon="-0.893444"/>
      <wpt lat="41.655861" lon="-0.892738"/>
      <wpt lat="41.656193" lon="-0.893108"/>
      <wpt lat="41.656235" lon="-0.894016"/>
      <wpt lat="41.656708" lon="-0.894196"/>
      <wpt lat="41.657051" lon="-0.894249"/>
      <wpt lat="41.658001" lon="-0.894661"/>
      <wpt lat="41.658150" lon="-0.894596"/>
      <wpt lat="41.658054" lon="-0.894464"/>
      <wpt lat="41.658142" lon="-0.894231"/>
      <wpt lat="41.658413" lon="-0.893975"/>
      <wpt lat="41.658665" lon="-0.893319"/>
      <wpt lat="41.658943" lon="-0.893689"/>
      <wpt lat="41.659405" lon="-0.894027"/>
      <wpt lat="41.659393" lon="-0.893012"/>
      <wpt lat="41.659702" lon="-0.892559"/>
      <wpt lat="41.660469" lon="-0.892498"/>
      <wpt lat="41.660652" lon="-0.892751"/>
      <wpt lat="41.661167" lon="-0.893214"/>
      <wpt lat="41.661045" lon="-0.893190"/>
      <wpt lat="41.661091" lon="-0.893304"/>
      <wpt lat="41.661011" lon="-0.893378"/>
      <wpt lat="41.660969" lon="-0.893300"/>
      <wpt lat="41.660923" lon="-0.893349"/>
      <wpt lat="41.660954" lon="-0.893462"/>
      <wpt lat="41.660946" lon="-0.893633"/>
      <wpt lat="41.661034" lon="-0.893670"/>
      <wpt lat="41.661026" lon="-0.893807"/>
      <wpt lat="41.661133" lon="-0.893753"/>
      <wpt lat="41.661098" lon="-0.893922"/>
      <wpt lat="41.661152" lon="-0.893996"/>
      <wpt lat="41.661282" lon="-0.894019"/>
      <wpt lat="41.661213" lon="-0.894143"/>
      <wpt lat="41.661270" lon="-0.894277"/>
      <wpt lat="41.661427" lon="-0.894420"/>
      <wpt lat="41.661530" lon="-0.894415"/>
      <wpt lat="41.661533" lon="-0.894570"/>
      <wpt lat="41.661610" lon="-0.894640"/>
      <wpt lat="41.661438" lon="-0.894736"/>
      <wpt lat="41.661484" lon="-0.894910"/>
      <wpt lat="41.661285" lon="-0.895218"/>
      <wpt lat="41.660866" lon="-0.895057"/>
      <wpt lat="41.660088" lon="-0.895143"/>
      <wpt lat="41.659794" lon="-0.894659"/>
      <wpt lat="41.659752" lon="-0.894342"/>
      <wpt lat="41.659863" lon="-0.894049"/>
      <wpt lat="41.659809" lon="-0.893712"/>
      <wpt lat="41.659405" lon="-0.894027"/>
      <wpt lat="41.658752" lon="-0.894142"/>
      <wpt lat="41.658768" lon="-0.894309"/>
      <wpt lat="41.658657" lon="-0.894455"/>
      <wpt lat="41.658268" lon="-0.895394"/>
      <wpt lat="41.657703" lon="-0.896019"/>
      <wpt lat="41.657795" lon="-0.896270"/>
      <wpt lat="41.657864" lon="-0.897030"/>
      <wpt lat="41.657768" lon="-0.897732"/>
      <wpt lat="41.657719" lon="-0.898183"/>
      <wpt lat="41.657677" lon="-0.898384"/>
      <wpt lat="41.657818" lon="-0.898727"/>
      <wpt lat="41.657997" lon="-0.898475"/>
      <wpt lat="41.657902" lon="-0.898357"/>
      <wpt lat="41.657990" lon="-0.898210"/>
      <wpt lat="41.658371" lon="-0.898141"/>
      <wpt lat="41.658272" lon="-0.897678"/>
      <wpt lat="41.658325" lon="-0.897100"/>
      <wpt lat="41.658085" lon="-0.897062"/>
      <wpt lat="41.658039" lon="-0.896305"/>
      <wpt lat="41.658447" lon="-0.896584"/>
      <wpt lat="41.658661" lon="-0.895978"/>
      <wpt lat="41.659336" lon="-0.895812"/>
      <wpt lat="41.659245" lon="-0.896408"/>
      <wpt lat="41.659519" lon="-0.896335"/>
      <wpt lat="41.659500" lon="-0.896922"/>
      <wpt lat="41.659847" lon="-0.896827"/>
      <wpt lat="41.659893" lon="-0.896816"/>
      <wpt lat="41.660820" lon="-0.896071"/>
      <wpt lat="41.660828" lon="-0.896058"/>
      <wpt lat="41.660912" lon="-0.896511"/>
      <wpt lat="41.660789" lon="-0.896672"/>
      <wpt lat="41.660858" lon="-0.897246"/>
      <wpt lat="41.660084" lon="-0.897640"/>
      <wpt lat="41.660175" lon="-0.898457"/>
      <wpt lat="41.661114" lon="-0.897898"/>
      <wpt lat="41.661259" lon="-0.897789"/>
      <wpt lat="41.661636" lon="-0.896295"/>
      <wpt lat="41.662277" lon="-0.895103"/>
      <wpt lat="41.662380" lon="-0.894845"/>
      <wpt lat="41.662537" lon="-0.895218"/>
      <wpt lat="41.662407" lon="-0.897070"/>
      <wpt lat="41.662560" lon="-0.897255"/>
      <wpt lat="41.661461" lon="-0.898188"/>
      <wpt lat="41.661396" lon="-0.898435"/>
      <wpt lat="41.661236" lon="-0.898551"/>
      <wpt lat="41.660263" lon="-0.899520"/>
      <wpt lat="41.658997" lon="-0.898861"/>
      <wpt lat="41.659081" lon="-0.899613"/>
      <wpt lat="41.659016" lon="-0.900326"/>
      <wpt lat="41.658939" lon="-0.901137"/>
      <wpt lat="41.658772" lon="-0.901261"/>
      <wpt lat="41.657536" lon="-0.901986"/>
      <wpt lat="41.657562" lon="-0.902528"/>
      <wpt lat="41.657848" lon="-0.902970"/>
      <wpt lat="41.657578" lon="-0.903384"/>
      <wpt lat="41.657547" lon="-0.904083"/>
      <wpt lat="41.658276" lon="-0.905478"/>
      <wpt lat="41.659649" lon="-0.904834"/>
      <wpt lat="41.659046" lon="-0.902740"/>
      <wpt lat="41.659397" lon="-0.901460"/>
      <wpt lat="41.659321" lon="-0.902586"/>
      <wpt lat="41.659393" lon="-0.902856"/>
      <wpt lat="41.659779" lon="-0.902994"/>
      <wpt lat="41.660358" lon="-0.902659"/>
      <wpt lat="41.660789" lon="-0.901754"/>
      <wpt lat="41.660999" lon="-0.901628"/>
      <wpt lat="41.660919" lon="-0.900856"/>
      <wpt lat="41.660763" lon="-0.899980"/>
      <wpt lat="41.660625" lon="-0.900095"/>
      <wpt lat="41.660484" lon="-0.900176"/>
      <wpt lat="41.660336" lon="-0.899820"/>
      <wpt lat="41.660713" lon="-0.899551"/>
      <wpt lat="41.660751" lon="-0.899830"/>
      <wpt lat="41.661354" lon="-0.898929"/>
      <wpt lat="41.661919" lon="-0.898412"/>
      <wpt lat="41.662888" lon="-0.898325"/>
      <wpt lat="41.663246" lon="-0.898317"/>
      <wpt lat="41.663773" lon="-0.898192"/>
      <wpt lat="41.663074" lon="-0.898759"/>
      <wpt lat="41.662971" lon="-0.898875"/>
      <wpt lat="41.662945" lon="-0.898948"/>
      <wpt lat="41.662933" lon="-0.898969"/>
      <wpt lat="41.662884" lon="-0.898985"/>
      <wpt lat="41.662868" lon="-0.898995"/>
      <wpt lat="41.662811" lon="-0.899049"/>
      <wpt lat="41.662769" lon="-0.899054"/>
      <wpt lat="41.662758" lon="-0.899063"/>
      <wpt lat="41.662659" lon="-0.898913"/>
      <wpt lat="41.662682" lon="-0.899111"/>
      <wpt lat="41.662762" lon="-0.899337"/>
      <wpt lat="41.662815" lon="-0.899292"/>
      <wpt lat="41.662857" lon="-0.899230"/>
      <wpt lat="41.662914" lon="-0.899256"/>
      <wpt lat="41.662979" lon="-0.899123"/>
      <wpt lat="41.663071" lon="-0.899033"/>
      <wpt lat="41.663113" lon="-0.899027"/>
      <wpt lat="41.663109" lon="-0.899101"/>
      <wpt lat="41.663074" lon="-0.899131"/>
      <wpt lat="41.663120" lon="-0.899147"/>
      <wpt lat="41.663464" lon="-0.899346"/>
      <wpt lat="41.663483" lon="-0.899716"/>
      <wpt lat="41.663609" lon="-0.900099"/>
      <wpt lat="41.662159" lon="-0.900199"/>
      <wpt lat="41.662163" lon="-0.900703"/>
      <wpt lat="41.661980" lon="-0.901151"/>
      <wpt lat="41.661850" lon="-0.901255"/>
      <wpt lat="41.661854" lon="-0.901028"/>
      <wpt lat="41.661743" lon="-0.901050"/>
      <wpt lat="41.661526" lon="-0.901366"/>
      <wpt lat="41.661770" lon="-0.901682"/>
      <wpt lat="41.661770" lon="-0.901699"/>
      <wpt lat="41.661930" lon="-0.901681"/>
      <wpt lat="41.662113" lon="-0.901607"/>
      <wpt lat="41.662537" lon="-0.901407"/>
      <wpt lat="41.663078" lon="-0.900827"/>
      <wpt lat="41.663258" lon="-0.900720"/>
      <wpt lat="41.663342" lon="-0.900727"/>
      <wpt lat="41.663578" lon="-0.900532"/>
      <wpt lat="41.663696" lon="-0.900423"/>
      <wpt lat="41.663784" lon="-0.901292"/>
      <wpt lat="41.663399" lon="-0.901983"/>
      <wpt lat="41.663136" lon="-0.902102"/>
      <wpt lat="41.661880" lon="-0.902102"/>
      <wpt lat="41.661659" lon="-0.902106"/>
      <wpt lat="41.660728" lon="-0.902844"/>
      <wpt lat="41.661160" lon="-0.903419"/>
      <wpt lat="41.661438" lon="-0.903270"/>
      <wpt lat="41.661606" lon="-0.903591"/>
      <wpt lat="41.661507" lon="-0.904381"/>
      <wpt lat="41.661362" lon="-0.904630"/>
      <wpt lat="41.661106" lon="-0.904694"/>
      <wpt lat="41.660900" lon="-0.905119"/>
      <wpt lat="41.661282" lon="-0.904964"/>
      <wpt lat="41.661465" lon="-0.904932"/>
      <wpt lat="41.661499" lon="-0.905200"/>
      <wpt lat="41.660446" lon="-0.907254"/>
      <wpt lat="41.662262" lon="-0.907176"/>
      <wpt lat="41.662491" lon="-0.907072"/>
      <wpt lat="41.662151" lon="-0.905721"/>
      <wpt lat="41.662373" lon="-0.903861"/>
      <wpt lat="41.662415" lon="-0.903458"/>
      <wpt lat="41.662571" lon="-0.903793"/>
      <wpt lat="41.662815" lon="-0.904157"/>
      <wpt lat="41.662975" lon="-0.905934"/>
      <wpt lat="41.663425" lon="-0.906481"/>
      <wpt lat="41.663746" lon="-0.903304"/>
      <wpt lat="41.663544" lon="-0.903289"/>
      <wpt lat="41.663486" lon="-0.902895"/>
      <wpt lat="41.663742" lon="-0.902969"/>
      <wpt lat="41.664146" lon="-0.902535"/>
      <wpt lat="41.664612" lon="-0.906508"/>
      <wpt lat="41.663998" lon="-0.906810"/>
      <wpt lat="41.664238" lon="-0.906995"/>
      <wpt lat="41.665390" lon="-0.906124"/>
      <wpt lat="41.668251" lon="-0.907989"/>
      <wpt lat="41.668682" lon="-0.907524"/>
      <wpt lat="41.669277" lon="-0.907100"/>
      <wpt lat="41.668999" lon="-0.905898"/>
      <wpt lat="41.668530" lon="-0.905161"/>
      <wpt lat="41.669327" lon="-0.905053"/>
      <wpt lat="41.668526" lon="-0.902990"/>
      <wpt lat="41.669739" lon="-0.901909"/>
      <wpt lat="41.668030" lon="-0.902336"/>
      <wpt lat="41.668144" lon="-0.901659"/>
      <wpt lat="41.668018" lon="-0.901195"/>
      <wpt lat="41.668125" lon="-0.900331"/>
      <wpt lat="41.667850" lon="-0.900411"/>
      <wpt lat="41.667984" lon="-0.899806"/>
      <wpt lat="41.669109" lon="-0.898389"/>
      <wpt lat="41.669876" lon="-0.897950"/>
      <wpt lat="41.670357" lon="-0.897678"/>
      <wpt lat="41.668022" lon="-0.897397"/>
      <wpt lat="41.667656" lon="-0.898868"/>
      <wpt lat="41.667316" lon="-0.897758"/>
      <wpt lat="41.667526" lon="-0.896652"/>
      <wpt lat="41.667004" lon="-0.896304"/>
      <wpt lat="41.666893" lon="-0.895568"/>
      <wpt lat="41.666622" lon="-0.895104"/>
      <wpt lat="41.666473" lon="-0.894840"/>
      <wpt lat="41.666027" lon="-0.894230"/>
      <wpt lat="41.666111" lon="-0.894497"/>
      <wpt lat="41.666237" lon="-0.895006"/>
      <wpt lat="41.665035" lon="-0.897227"/>
      <wpt lat="41.665066" lon="-0.897867"/>
      <wpt lat="41.665440" lon="-0.898082"/>
      <wpt lat="41.665619" lon="-0.899088"/>
      <wpt lat="41.665810" lon="-0.898988"/>
      <wpt lat="41.666161" lon="-0.899600"/>
      <wpt lat="41.666283" lon="-0.900550"/>
    </trkseg>
  </trk>
</gpx>
