<?xml version="1.0" encoding="UTF-8"?>
<gpx xmlns="http://www.topografix.com/GPX/1/1" version="1.1" creator="GPS Visualizer http://www.gpsvisualizer.com/">
  <trk>
    <name>0</name>
    <trkseg>
      <wpt lat="41.662319" lon="-0.894207"/>
      <wpt lat="41.662058" lon="-0.893725"/>
      <wpt lat="41.661948" lon="-0.893584"/>
      <wpt lat="41.661658" lon="-0.893115"/>
      <wpt lat="41.661471" lon="-0.892848"/>
      <wpt lat="41.661310" lon="-0.893136"/>
      <wpt lat="41.661108" lon="-0.893195"/>
      <wpt lat="41.660992" lon="-0.893318"/>
      <wpt lat="41.660923" lon="-0.893419"/>
      <wpt lat="41.660963" lon="-0.893553"/>
      <wpt lat="41.660995" lon="-0.893690"/>
      <wpt lat="41.661071" lon="-0.893763"/>
      <wpt lat="41.661207" lon="-0.894047"/>
      <wpt lat="41.661271" lon="-0.894277"/>
      <wpt lat="41.661425" lon="-0.894420"/>
      <wpt lat="41.661492" lon="-0.894443"/>
      <wpt lat="41.661590" lon="-0.894588"/>
      <wpt lat="41.661609" lon="-0.894640"/>
      <wpt lat="41.661485" lon="-0.894910"/>
      <wpt lat="41.661287" lon="-0.895218"/>
      <wpt lat="41.660866" lon="-0.895057"/>
      <wpt lat="41.660087" lon="-0.895143"/>
      <wpt lat="41.659794" lon="-0.894659"/>
      <wpt lat="41.659863" lon="-0.894049"/>
      <wpt lat="41.659811" lon="-0.893712"/>
      <wpt lat="41.659395" lon="-0.893012"/>
      <wpt lat="41.659701" lon="-0.892559"/>
      <wpt lat="41.659656" lon="-0.892027"/>
      <wpt lat="41.659869" lon="-0.891758"/>
      <wpt lat="41.660359" lon="-0.891424"/>
      <wpt lat="41.660484" lon="-0.891250"/>
      <wpt lat="41.660302" lon="-0.891239"/>
      <wpt lat="41.660375" lon="-0.891047"/>
      <wpt lat="41.660176" lon="-0.891007"/>
      <wpt lat="41.659786" lon="-0.891183"/>
      <wpt lat="41.659236" lon="-0.891361"/>
      <wpt lat="41.659006" lon="-0.891594"/>
      <wpt lat="41.658472" lon="-0.891280"/>
      <wpt lat="41.658246" lon="-0.891533"/>
      <wpt lat="41.658218" lon="-0.891757"/>
      <wpt lat="41.658192" lon="-0.892007"/>
      <wpt lat="41.658533" lon="-0.892281"/>
      <wpt lat="41.658699" lon="-0.892647"/>
      <wpt lat="41.658663" lon="-0.893319"/>
      <wpt lat="41.658942" lon="-0.893689"/>
      <wpt lat="41.658752" lon="-0.894142"/>
      <wpt lat="41.658767" lon="-0.894309"/>
      <wpt lat="41.658657" lon="-0.894455"/>
      <wpt lat="41.658269" lon="-0.895394"/>
      <wpt lat="41.658660" lon="-0.895978"/>
      <wpt lat="41.658448" lon="-0.896584"/>
      <wpt lat="41.658324" lon="-0.897100"/>
      <wpt lat="41.658271" lon="-0.897678"/>
      <wpt lat="41.658370" lon="-0.898141"/>
      <wpt lat="41.657990" lon="-0.898210"/>
      <wpt lat="41.657996" lon="-0.898475"/>
      <wpt lat="41.657817" lon="-0.898727"/>
      <wpt lat="41.657678" lon="-0.898384"/>
      <wpt lat="41.657720" lon="-0.898183"/>
      <wpt lat="41.657769" lon="-0.897732"/>
      <wpt lat="41.658083" lon="-0.897062"/>
      <wpt lat="41.657864" lon="-0.897030"/>
      <wpt lat="41.658038" lon="-0.896305"/>
      <wpt lat="41.657795" lon="-0.896270"/>
      <wpt lat="41.657702" lon="-0.896019"/>
      <wpt lat="41.657315" lon="-0.895892"/>
      <wpt lat="41.656701" lon="-0.896138"/>
      <wpt lat="41.656372" lon="-0.895746"/>
      <wpt lat="41.656524" lon="-0.895467"/>
      <wpt lat="41.656303" lon="-0.895457"/>
      <wpt lat="41.656177" lon="-0.895661"/>
      <wpt lat="41.656087" lon="-0.896462"/>
      <wpt lat="41.656536" lon="-0.896999"/>
      <wpt lat="41.656863" lon="-0.896745"/>
      <wpt lat="41.656970" lon="-0.896997"/>
      <wpt lat="41.656427" lon="-0.897714"/>
      <wpt lat="41.655991" lon="-0.897615"/>
      <wpt lat="41.655859" lon="-0.896959"/>
      <wpt lat="41.655310" lon="-0.897702"/>
      <wpt lat="41.655156" lon="-0.898015"/>
      <wpt lat="41.656155" lon="-0.898514"/>
      <wpt lat="41.656309" lon="-0.898780"/>
      <wpt lat="41.656333" lon="-0.899125"/>
      <wpt lat="41.656794" lon="-0.898813"/>
      <wpt lat="41.656721" lon="-0.899138"/>
      <wpt lat="41.657170" lon="-0.900776"/>
      <wpt lat="41.657536" lon="-0.901986"/>
      <wpt lat="41.657561" lon="-0.902528"/>
      <wpt lat="41.657848" lon="-0.902970"/>
      <wpt lat="41.659048" lon="-0.902740"/>
      <wpt lat="41.659350" lon="-0.902677"/>
      <wpt lat="41.659442" lon="-0.902815"/>
      <wpt lat="41.659779" lon="-0.902994"/>
      <wpt lat="41.660357" lon="-0.902659"/>
      <wpt lat="41.660788" lon="-0.901754"/>
      <wpt lat="41.660999" lon="-0.901628"/>
      <wpt lat="41.661525" lon="-0.901366"/>
      <wpt lat="41.661708" lon="-0.901281"/>
      <wpt lat="41.661851" lon="-0.901255"/>
      <wpt lat="41.661981" lon="-0.901151"/>
      <wpt lat="41.661806" lon="-0.901069"/>
      <wpt lat="41.661770" lon="-0.901699"/>
      <wpt lat="41.661658" lon="-0.902106"/>
      <wpt lat="41.661881" lon="-0.902102"/>
      <wpt lat="41.662113" lon="-0.901607"/>
      <wpt lat="41.662535" lon="-0.901407"/>
      <wpt lat="41.663077" lon="-0.900827"/>
      <wpt lat="41.663259" lon="-0.900720"/>
      <wpt lat="41.663697" lon="-0.900423"/>
      <wpt lat="41.663483" lon="-0.899716"/>
      <wpt lat="41.663072" lon="-0.899080"/>
      <wpt lat="41.662971" lon="-0.898976"/>
      <wpt lat="41.663022" lon="-0.899151"/>
      <wpt lat="41.662888" lon="-0.899030"/>
      <wpt lat="41.662938" lon="-0.899219"/>
      <wpt lat="41.662817" lon="-0.899103"/>
      <wpt lat="41.662866" lon="-0.899302"/>
      <wpt lat="41.662714" lon="-0.899145"/>
      <wpt lat="41.663065" lon="-0.898949"/>
      <wpt lat="41.663248" lon="-0.898317"/>
      <wpt lat="41.663519" lon="-0.898727"/>
      <wpt lat="41.663774" lon="-0.898192"/>
      <wpt lat="41.664612" lon="-0.897363"/>
      <wpt lat="41.664854" lon="-0.897364"/>
      <wpt lat="41.665844" lon="-0.899300"/>
      <wpt lat="41.666284" lon="-0.900550"/>
      <wpt lat="41.664759" lon="-0.897045"/>
      <wpt lat="41.664423" lon="-0.896240"/>
      <wpt lat="41.664072" lon="-0.895708"/>
      <wpt lat="41.663169" lon="-0.896952"/>
      <wpt lat="41.662558" lon="-0.897255"/>
      <wpt lat="41.662406" lon="-0.897070"/>
      <wpt lat="41.661638" lon="-0.896295"/>
      <wpt lat="41.661287" lon="-0.895283"/>
      <wpt lat="41.661625" lon="-0.894538"/>
      <wpt lat="41.661280" lon="-0.894019"/>
      <wpt lat="41.661071" lon="-0.893824"/>
      <wpt lat="41.660942" lon="-0.893510"/>
      <wpt lat="41.660959" lon="-0.893352"/>
      <wpt lat="41.661117" lon="-0.893170"/>
      <wpt lat="41.661385" lon="-0.893123"/>
      <wpt lat="41.661496" lon="-0.892892"/>
      <wpt lat="41.661900" lon="-0.893517"/>
      <wpt lat="41.662033" lon="-0.893682"/>
      <wpt lat="41.662269" lon="-0.894121"/>
    </trkseg>
  </trk>
</gpx>
