<?xml version="1.0" encoding="UTF-8"?>
<gpx xmlns="http://www.topografix.com/GPX/1/1"
     xmlns:pgr="https://joshuaspence.github.io/pokemon-go-gpx-routes/gpx/1"
     version="1.1"
     creator="https://github.com/joshuaspence/pokemon-go-gpx-routes">
  <wpt lat="52.516991" lon="13.407505">
    <name>Berlin</name>
    <extensions>
      <pgr:country>Germany</pgr:country>
    </extensions>
  </wpt>
  <wpt lat="48.136378" lon="11.578512">
    <name>Munich</name>
    <extensions>
      <pgr:country>Germany</pgr:country>
    </extensions>
  </wpt>
</gpx>
