<?xml version="1.0" encoding="UTF-8"?>
<gpx xmlns="http://www.topografix.com/GPX/1/1"
     xmlns:pgr="https://joshuaspence.github.io/pokemon-go-gpx-routes/gpx/1"
     version="1.1">
  <trk>
    <name>Ibirapuera Park</name>
    <extensions>
      <pgr:city>São Paulo</pgr:city>
      <pgr:country>Brazil</pgr:country>
      <pgr:variant>long</pgr:variant>
    </extensions>
    <trkseg>
      <trkpt lat="-23.585856" lon="-46.655580"/>
      <trkpt lat="-23.585843" lon="-46.655591"/>
      <trkpt lat="-23.585879" lon="-46.655589"/>
      <trkpt lat="-23.585970" lon="-46.655495"/>
      <trkpt lat="-23.585998" lon="-46.655491"/>
      <trkpt lat="-23.586258" lon="-46.655855"/>
      <trkpt lat="-23.586338" lon="-46.655799"/>
      <trkpt lat="-23.586381" lon="-46.655750"/>
      <trkpt lat="-23.586411" lon="-46.655700"/>
      <trkpt lat="-23.586423" lon="-46.655640"/>
      <trkpt lat="-23.586380" lon="-46.655479"/>
      <trkpt lat="-23.586376" lon="-46.655373"/>
      <trkpt lat="-23.586389" lon="-46.655300"/>
      <trkpt lat="-23.586410" lon="-46.655239"/>
      <trkpt lat="-23.586457" lon="-46.655142"/>
      <trkpt lat="-23.587133" lon="-46.654078"/>
      <trkpt lat="-23.587270" lon="-46.653878"/>
      <trkpt lat="-23.587270" lon="-46.653878"/>
      <trkpt lat="-23.587270" lon="-46.653878"/>
      <trkpt lat="-23.587274" lon="-46.653872"/>
      <trkpt lat="-23.587285" lon="-46.654049"/>
      <trkpt lat="-23.587331" lon="-46.654190"/>
      <trkpt lat="-23.587462" lon="-46.654447"/>
      <trkpt lat="-23.587549" lon="-46.654569"/>
      <trkpt lat="-23.587645" lon="-46.654675"/>
      <trkpt lat="-23.587769" lon="-46.654787"/>
      <trkpt lat="-23.587873" lon="-46.654846"/>
      <trkpt lat="-23.588009" lon="-46.654896"/>
      <trkpt lat="-23.588144" lon="-46.654917"/>
      <trkpt lat="-23.588288" lon="-46.654913"/>
      <trkpt lat="-23.588392" lon="-46.654928"/>
      <trkpt lat="-23.588425" lon="-46.654938"/>
      <trkpt lat="-23.588510" lon="-46.654996"/>
      <trkpt lat="-23.588563" lon="-46.655081"/>
      <trkpt lat="-23.588587" lon="-46.655206"/>
      <trkpt lat="-23.588585" lon="-46.655378"/>
      <trkpt lat="-23.588574" lon="-46.655504"/>
      <trkpt lat="-23.588568" lon="-46.655577"/>
      <trkpt lat="-23.588329" lon="-46.655584"/>
      <trkpt lat="-23.588285" lon="-46.655589"/>
      <trkpt lat="-23.588235" lon="-46.655614"/>
      <trkpt lat="-23.588186" lon="-46.655667"/>
      <trkpt lat="-23.588050" lon="-46.655925"/>
      <trkpt lat="-23.587732" lon="-46.656551"/>
      <trkpt lat="-23.587730" lon="-46.656569"/>
      <trkpt lat="-23.587911" lon="-46.656885"/>
      <trkpt lat="-23.587918" lon="-46.656894"/>
      <trkpt lat="-23.587631" lon="-46.657157"/>
      <trkpt lat="-23.587669" lon="-46.657197"/>
      <trkpt lat="-23.587611" lon="-46.657250"/>
      <trkpt lat="-23.587350" lon="-46.657582"/>
      <trkpt lat="-23.586921" lon="-46.658281"/>
      <trkpt lat="-23.586804" lon="-46.658521"/>
      <trkpt lat="-23.586754" lon="-46.658670"/>
      <trkpt lat="-23.586714" lon="-46.658860"/>
      <trkpt lat="-23.586674" lon="-46.659155"/>
      <trkpt lat="-23.586648" lon="-46.659409"/>
      <trkpt lat="-23.586540" lon="-46.660020"/>
      <trkpt lat="-23.586508" lon="-46.660124"/>
      <trkpt lat="-23.586444" lon="-46.660281"/>
      <trkpt lat="-23.586333" lon="-46.660425"/>
      <trkpt lat="-23.586158" lon="-46.660561"/>
      <trkpt lat="-23.586033" lon="-46.660638"/>
      <trkpt lat="-23.585903" lon="-46.660696"/>
      <trkpt lat="-23.585766" lon="-46.660713"/>
      <trkpt lat="-23.585636" lon="-46.660694"/>
      <trkpt lat="-23.585474" lon="-46.660655"/>
      <trkpt lat="-23.585165" lon="-46.660556"/>
      <trkpt lat="-23.584990" lon="-46.660471"/>
      <trkpt lat="-23.584645" lon="-46.660212"/>
      <trkpt lat="-23.584497" lon="-46.660131"/>
      <trkpt lat="-23.584379" lon="-46.660116"/>
      <trkpt lat="-23.584308" lon="-46.660119"/>
      <trkpt lat="-23.584044" lon="-46.660160"/>
      <trkpt lat="-23.583887" lon="-46.660200"/>
      <trkpt lat="-23.583794" lon="-46.660244"/>
      <trkpt lat="-23.583738" lon="-46.660236"/>
      <trkpt lat="-23.583724" lon="-46.660247"/>
      <trkpt lat="-23.583738" lon="-46.660236"/>
      <trkpt lat="-23.583557" lon="-46.660211"/>
      <trkpt lat="-23.583365" lon="-46.660156"/>
      <trkpt lat="-23.583208" lon="-46.660079"/>
      <trkpt lat="-23.583056" lon="-46.659956"/>
      <trkpt lat="-23.582932" lon="-46.659808"/>
      <trkpt lat="-23.582863" lon="-46.659659"/>
      <trkpt lat="-23.582841" lon="-46.659574"/>
      <trkpt lat="-23.582849" lon="-46.659476"/>
      <trkpt lat="-23.582893" lon="-46.659318"/>
      <trkpt lat="-23.582944" lon="-46.659201"/>
      <trkpt lat="-23.583001" lon="-46.659101"/>
      <trkpt lat="-23.583148" lon="-46.658877"/>
      <trkpt lat="-23.583276" lon="-46.658716"/>
      <trkpt lat="-23.583369" lon="-46.658567"/>
      <trkpt lat="-23.583434" lon="-46.658420"/>
      <trkpt lat="-23.583468" lon="-46.658300"/>
      <trkpt lat="-23.583485" lon="-46.658170"/>
      <trkpt lat="-23.583483" lon="-46.657981"/>
      <trkpt lat="-23.583471" lon="-46.657883"/>
      <trkpt lat="-23.583384" lon="-46.657784"/>
      <trkpt lat="-23.583288" lon="-46.657697"/>
      <trkpt lat="-23.583294" lon="-46.657686"/>
      <trkpt lat="-23.583294" lon="-46.657686"/>
      <trkpt lat="-23.583318" lon="-46.657642"/>
      <trkpt lat="-23.583426" lon="-46.657469"/>
      <trkpt lat="-23.583481" lon="-46.657254"/>
      <trkpt lat="-23.583589" lon="-46.657029"/>
      <trkpt lat="-23.583699" lon="-46.656886"/>
      <trkpt lat="-23.583813" lon="-46.656785"/>
      <trkpt lat="-23.584079" lon="-46.656573"/>
      <trkpt lat="-23.584957" lon="-46.656077"/>
      <trkpt lat="-23.585398" lon="-46.655885"/>
      <trkpt lat="-23.585587" lon="-46.655739"/>
      <trkpt lat="-23.585737" lon="-46.655695"/>
      <trkpt lat="-23.585787" lon="-46.655649"/>
      <trkpt lat="-23.585843" lon="-46.655591"/>
      <trkpt lat="-23.585853" lon="-46.655580"/>
    </trkseg>
  </trk>
</gpx>
