<?xml version="1.0" encoding="UTF-8"?>
<gpx xmlns="http://www.topografix.com/GPX/1/1" version="1.1">
  <trk>
    <name>Ibirapuera Park, São Paulo</name>
    <desc>Brazil</desc>
    <trkseg>
      <trkpt lat="-23.585856" lon="-46.65558"/>
      <trkpt lat="-23.585843" lon="-46.655591"/>
      <trkpt lat="-23.585879" lon="-46.655589"/>
      <trkpt lat="-23.58597" lon="-46.655495"/>
      <trkpt lat="-23.585998" lon="-46.655491"/>
      <trkpt lat="-23.586258" lon="-46.655855"/>
      <trkpt lat="-23.586338" lon="-46.655799"/>
      <trkpt lat="-23.586381" lon="-46.65575"/>
      <trkpt lat="-23.586411" lon="-46.6557"/>
      <trkpt lat="-23.586423" lon="-46.65564"/>
      <trkpt lat="-23.58638" lon="-46.655479"/>
      <trkpt lat="-23.586376" lon="-46.655373"/>
      <trkpt lat="-23.586389" lon="-46.6553"/>
      <trkpt lat="-23.58641" lon="-46.655239"/>
      <trkpt lat="-23.586457" lon="-46.655142"/>
      <trkpt lat="-23.587133" lon="-46.654078"/>
      <trkpt lat="-23.58727" lon="-46.653878"/>
      <trkpt lat="-23.58727" lon="-46.653878"/>
      <trkpt lat="-23.58727" lon="-46.653878"/>
      <trkpt lat="-23.587274" lon="-46.653872"/>
      <trkpt lat="-23.587285" lon="-46.654049"/>
      <trkpt lat="-23.587331" lon="-46.65419"/>
      <trkpt lat="-23.587462" lon="-46.654447"/>
      <trkpt lat="-23.587549" lon="-46.654569"/>
      <trkpt lat="-23.587645" lon="-46.654675"/>
      <trkpt lat="-23.587769" lon="-46.654787"/>
      <trkpt lat="-23.587873" lon="-46.654846"/>
      <trkpt lat="-23.588009" lon="-46.654896"/>
      <trkpt lat="-23.588144" lon="-46.654917"/>
      <trkpt lat="-23.588288" lon="-46.654913"/>
      <trkpt lat="-23.588392" lon="-46.654928"/>
      <trkpt lat="-23.588425" lon="-46.654938"/>
      <trkpt lat="-23.58851" lon="-46.654996"/>
      <trkpt lat="-23.588563" lon="-46.655081"/>
      <trkpt lat="-23.588587" lon="-46.655206"/>
      <trkpt lat="-23.588585" lon="-46.655378"/>
      <trkpt lat="-23.588574" lon="-46.655504"/>
      <trkpt lat="-23.588568" lon="-46.655577"/>
      <trkpt lat="-23.588329" lon="-46.655584"/>
      <trkpt lat="-23.588285" lon="-46.655589"/>
      <trkpt lat="-23.588235" lon="-46.655614"/>
      <trkpt lat="-23.588186" lon="-46.655667"/>
      <trkpt lat="-23.58805" lon="-46.655925"/>
      <trkpt lat="-23.587732" lon="-46.656551"/>
      <trkpt lat="-23.587732" lon="-46.656551"/>
      <trkpt lat="-23.587508479391957" lon="-46.65697673992876"/>
      <trkpt lat="-23.58728495878392" lon="-46.657402479857524"/>
      <trkpt lat="-23.587061438175876" lon="-46.65782821978628"/>
      <trkpt lat="-23.586837917567838" lon="-46.65825395971505"/>
      <trkpt lat="-23.586688297019506" lon="-46.65853894212515"/>
      <trkpt lat="-23.58639078010817" lon="-46.65817104744887"/>
      <trkpt lat="-23.58609326319684" lon="-46.65780315277259"/>
      <trkpt lat="-23.585795746285505" lon="-46.65743525809631"/>
      <trkpt lat="-23.58578026488219" lon="-46.65741611455977"/>
      <trkpt lat="-23.58549822937417" lon="-46.657067363420026"/>
      <trkpt lat="-23.58520071246284" lon="-46.65669946874375"/>
      <trkpt lat="-23.584903195551504" lon="-46.65633157406747"/>
      <trkpt lat="-23.584779" lon="-46.656178"/>
      <trkpt lat="-23.584779" lon="-46.656178"/>
      <trkpt lat="-23.584957" lon="-46.656077"/>
      <trkpt lat="-23.585398" lon="-46.655885"/>
      <trkpt lat="-23.585587" lon="-46.655739"/>
      <trkpt lat="-23.585737" lon="-46.655695"/>
      <trkpt lat="-23.585787" lon="-46.655649"/>
      <trkpt lat="-23.585843" lon="-46.655591"/>
      <trkpt lat="-23.585853" lon="-46.65558"/>
    </trkseg>
  </trk>
</gpx>
