<?xml version="1.0" encoding="UTF-8"?>
<gpx xmlns="http://www.topografix.com/GPX/1/1" version="1.1">
  <trk>
    <name>Boston Common, Boston, Massachusetts</name>
    <desc>United States</desc>
    <trkseg>
      <trkpt lat="42.355700" lon="-71.064960"/>
      <trkpt lat="42.355800" lon="-71.065050"/>
      <trkpt lat="42.356050" lon="-71.064870"/>
      <trkpt lat="42.356190" lon="-71.064550"/>
      <trkpt lat="42.356740" lon="-71.064370"/>
      <trkpt lat="42.357280" lon="-71.064850"/>
      <trkpt lat="42.357420" lon="-71.064390"/>
      <trkpt lat="42.357400" lon="-71.063760"/>
      <trkpt lat="42.357790" lon="-71.063580"/>
      <trkpt lat="42.358040" lon="-71.063230"/>
      <trkpt lat="42.358090" lon="-71.062870"/>
      <trkpt lat="42.358580" lon="-71.062750"/>
      <trkpt lat="42.358760" lon="-71.063170"/>
      <trkpt lat="42.359350" lon="-71.063520"/>
      <trkpt lat="42.358990" lon="-71.064220"/>
      <trkpt lat="42.358550" lon="-71.064320"/>
      <trkpt lat="42.357960" lon="-71.064560"/>
      <trkpt lat="42.357980" lon="-71.065170"/>
      <trkpt lat="42.358440" lon="-71.065950"/>
      <trkpt lat="42.358230" lon="-71.066470"/>
      <trkpt lat="42.358300" lon="-71.067080"/>
      <trkpt lat="42.357710" lon="-71.066960"/>
      <trkpt lat="42.357680" lon="-71.066520"/>
      <trkpt lat="42.356860" lon="-71.066780"/>
      <trkpt lat="42.356800" lon="-71.067050"/>
      <trkpt lat="42.356510" lon="-71.067590"/>
      <trkpt lat="42.356670" lon="-71.067710"/>
      <trkpt lat="42.356180" lon="-71.067150"/>
      <trkpt lat="42.355940" lon="-71.066760"/>
      <trkpt lat="42.355560" lon="-71.066920"/>
      <trkpt lat="42.355470" lon="-71.066420"/>
      <trkpt lat="42.355290" lon="-71.065820"/>
      <trkpt lat="42.355940" lon="-71.065670"/>
      <trkpt lat="42.356170" lon="-71.065640"/>
      <trkpt lat="42.356540" lon="-71.066200"/>
      <trkpt lat="42.356790" lon="-71.065600"/>
      <trkpt lat="42.357570" lon="-71.067660"/>
      <trkpt lat="42.357470" lon="-71.068050"/>
      <trkpt lat="42.357670" lon="-71.068430"/>
      <trkpt lat="42.357240" lon="-71.068550"/>
      <trkpt lat="42.357290" lon="-71.069240"/>
      <trkpt lat="42.356350" lon="-71.069310"/>
      <trkpt lat="42.356130" lon="-71.069190"/>
      <trkpt lat="42.356070" lon="-71.068470"/>
      <trkpt lat="42.355490" lon="-71.069770"/>
      <trkpt lat="42.355280" lon="-71.070240"/>
      <trkpt lat="42.355790" lon="-71.070320"/>
      <trkpt lat="42.355890" lon="-71.071160"/>
      <trkpt lat="42.356290" lon="-71.071000"/>
      <trkpt lat="42.356860" lon="-71.070820"/>
      <trkpt lat="42.357640" lon="-71.070760"/>
      <trkpt lat="42.358300" lon="-71.070470"/>
      <trkpt lat="42.358530" lon="-71.070810"/>
      <trkpt lat="42.358880" lon="-71.070560"/>
      <trkpt lat="42.359030" lon="-71.070840"/>
      <trkpt lat="42.359650" lon="-71.070900"/>
      <trkpt lat="42.360120" lon="-71.070930"/>
      <trkpt lat="42.360680" lon="-71.070960"/>
      <trkpt lat="42.360760" lon="-71.071520"/>
      <trkpt lat="42.361410" lon="-71.072080"/>
      <trkpt lat="42.362190" lon="-71.072720"/>
      <trkpt lat="42.362170" lon="-71.073000"/>
      <trkpt lat="42.360710" lon="-71.073000"/>
      <trkpt lat="42.360040" lon="-71.072750"/>
      <trkpt lat="42.359770" lon="-71.072990"/>
      <trkpt lat="42.359240" lon="-71.073120"/>
      <trkpt lat="42.358520" lon="-71.073090"/>
      <trkpt lat="42.357920" lon="-71.072910"/>
      <trkpt lat="42.357450" lon="-71.073460"/>
      <trkpt lat="42.357220" lon="-71.073750"/>
      <trkpt lat="42.357400" lon="-71.073920"/>
      <trkpt lat="42.357160" lon="-71.074450"/>
      <trkpt lat="42.357040" lon="-71.073510"/>
      <trkpt lat="42.356560" lon="-71.073420"/>
      <trkpt lat="42.356090" lon="-71.073360"/>
      <trkpt lat="42.356200" lon="-71.074090"/>
      <trkpt lat="42.356350" lon="-71.074430"/>
      <trkpt lat="42.356130" lon="-71.074890"/>
      <trkpt lat="42.356410" lon="-71.075240"/>
      <trkpt lat="42.356410" lon="-71.075990"/>
      <trkpt lat="42.355830" lon="-71.075470"/>
      <trkpt lat="42.355430" lon="-71.076070"/>
      <trkpt lat="42.354650" lon="-71.075830"/>
      <trkpt lat="42.354060" lon="-71.074730"/>
      <trkpt lat="42.353770" lon="-71.074390"/>
      <trkpt lat="42.353740" lon="-71.074140"/>
      <trkpt lat="42.353130" lon="-71.073790"/>
      <trkpt lat="42.353050" lon="-71.073340"/>
      <trkpt lat="42.353300" lon="-71.072890"/>
      <trkpt lat="42.353450" lon="-71.072450"/>
      <trkpt lat="42.352730" lon="-71.072430"/>
      <trkpt lat="42.352360" lon="-71.072830"/>
      <trkpt lat="42.352160" lon="-71.072520"/>
      <trkpt lat="42.351430" lon="-71.072980"/>
      <trkpt lat="42.351260" lon="-71.072700"/>
      <trkpt lat="42.351200" lon="-71.072750"/>
      <trkpt lat="42.350990" lon="-71.073600"/>
      <trkpt lat="42.350560" lon="-71.073710"/>
      <trkpt lat="42.350630" lon="-71.074470"/>
      <trkpt lat="42.351260" lon="-71.074870"/>
      <trkpt lat="42.351900" lon="-71.074560"/>
      <trkpt lat="42.352400" lon="-71.075100"/>
      <trkpt lat="42.352820" lon="-71.074730"/>
      <trkpt lat="42.352090" lon="-71.073720"/>
      <trkpt lat="42.351590" lon="-71.073520"/>
      <trkpt lat="42.350290" lon="-71.072880"/>
      <trkpt lat="42.349840" lon="-71.073130"/>
      <trkpt lat="42.349690" lon="-71.073560"/>
      <trkpt lat="42.349390" lon="-71.073120"/>
      <trkpt lat="42.349840" lon="-71.072540"/>
      <trkpt lat="42.350010" lon="-71.072320"/>
      <trkpt lat="42.350410" lon="-71.071760"/>
      <trkpt lat="42.350660" lon="-71.071420"/>
      <trkpt lat="42.350810" lon="-71.070810"/>
      <trkpt lat="42.350620" lon="-71.070240"/>
      <trkpt lat="42.350080" lon="-71.069600"/>
      <trkpt lat="42.349750" lon="-71.069880"/>
      <trkpt lat="42.349180" lon="-71.069450"/>
      <trkpt lat="42.349570" lon="-71.068890"/>
      <trkpt lat="42.349980" lon="-71.068090"/>
      <trkpt lat="42.350610" lon="-71.067880"/>
      <trkpt lat="42.350800" lon="-71.067020"/>
      <trkpt lat="42.350900" lon="-71.066580"/>
      <trkpt lat="42.351440" lon="-71.066390"/>
      <trkpt lat="42.351630" lon="-71.067000"/>
      <trkpt lat="42.351770" lon="-71.067140"/>
      <trkpt lat="42.352220" lon="-71.067280"/>
      <trkpt lat="42.352070" lon="-71.067670"/>
      <trkpt lat="42.351600" lon="-71.068190"/>
      <trkpt lat="42.352580" lon="-71.068650"/>
      <trkpt lat="42.352510" lon="-71.069120"/>
      <trkpt lat="42.352610" lon="-71.069940"/>
      <trkpt lat="42.352300" lon="-71.069990"/>
      <trkpt lat="42.352170" lon="-71.070680"/>
      <trkpt lat="42.352090" lon="-71.070970"/>
      <trkpt lat="42.352700" lon="-71.071570"/>
      <trkpt lat="42.353110" lon="-71.071000"/>
      <trkpt lat="42.353810" lon="-71.071090"/>
      <trkpt lat="42.353870" lon="-71.071400"/>
      <trkpt lat="42.354230" lon="-71.071070"/>
      <trkpt lat="42.354530" lon="-71.071000"/>
      <trkpt lat="42.354720" lon="-71.071540"/>
      <trkpt lat="42.354370" lon="-71.071570"/>
      <trkpt lat="42.355110" lon="-71.072530"/>
      <trkpt lat="42.355390" lon="-71.072140"/>
      <trkpt lat="42.355380" lon="-71.071950"/>
      <trkpt lat="42.354260" lon="-71.073120"/>
      <trkpt lat="42.354880" lon="-71.074140"/>
      <trkpt lat="42.355130" lon="-71.074110"/>
      <trkpt lat="42.353630" lon="-71.076570"/>
      <trkpt lat="42.352430" lon="-71.076170"/>
      <trkpt lat="42.351670" lon="-71.075620"/>
      <trkpt lat="42.349190" lon="-71.072310"/>
      <trkpt lat="42.348910" lon="-71.071740"/>
      <trkpt lat="42.348870" lon="-71.071280"/>
      <trkpt lat="42.348790" lon="-71.070310"/>
      <trkpt lat="42.348500" lon="-71.069260"/>
      <trkpt lat="42.347290" lon="-71.068960"/>
      <trkpt lat="42.348870" lon="-71.067440"/>
      <trkpt lat="42.349210" lon="-71.067040"/>
      <trkpt lat="42.349360" lon="-71.066230"/>
      <trkpt lat="42.349260" lon="-71.065720"/>
      <trkpt lat="42.348730" lon="-71.065360"/>
      <trkpt lat="42.348240" lon="-71.065540"/>
      <trkpt lat="42.347850" lon="-71.065880"/>
      <trkpt lat="42.348820" lon="-71.066320"/>
      <trkpt lat="42.350020" lon="-71.066040"/>
      <trkpt lat="42.350270" lon="-71.066570"/>
      <trkpt lat="42.350540" lon="-71.065800"/>
      <trkpt lat="42.350030" lon="-71.065340"/>
      <trkpt lat="42.350730" lon="-71.064900"/>
      <trkpt lat="42.351200" lon="-71.065020"/>
      <trkpt lat="42.351650" lon="-71.064620"/>
      <trkpt lat="42.352250" lon="-71.064440"/>
      <trkpt lat="42.352480" lon="-71.064380"/>
      <trkpt lat="42.352840" lon="-71.064770"/>
      <trkpt lat="42.353380" lon="-71.064490"/>
      <trkpt lat="42.353330" lon="-71.065310"/>
      <trkpt lat="42.353260" lon="-71.065750"/>
      <trkpt lat="42.352790" lon="-71.066500"/>
      <trkpt lat="42.352430" lon="-71.066820"/>
      <trkpt lat="42.352910" lon="-71.067080"/>
      <trkpt lat="42.352740" lon="-71.067840"/>
      <trkpt lat="42.353050" lon="-71.068490"/>
      <trkpt lat="42.353600" lon="-71.068580"/>
      <trkpt lat="42.354530" lon="-71.068750"/>
      <trkpt lat="42.354670" lon="-71.068080"/>
      <trkpt lat="42.354500" lon="-71.067600"/>
      <trkpt lat="42.354270" lon="-71.066520"/>
      <trkpt lat="42.354770" lon="-71.066460"/>
      <trkpt lat="42.354340" lon="-71.065500"/>
      <trkpt lat="42.354200" lon="-71.064210"/>
      <trkpt lat="42.354640" lon="-71.063860"/>
      <trkpt lat="42.355370" lon="-71.063510"/>
      <trkpt lat="42.355980" lon="-71.063520"/>
      <trkpt lat="42.355870" lon="-71.062470"/>
      <trkpt lat="42.356120" lon="-71.062040"/>
      <trkpt lat="42.356050" lon="-71.061450"/>
      <trkpt lat="42.356050" lon="-71.061450"/>
      <trkpt lat="42.356270" lon="-71.061030"/>
      <trkpt lat="42.356470" lon="-71.061540"/>
      <trkpt lat="42.356630" lon="-71.061980"/>
      <trkpt lat="42.356460" lon="-71.062470"/>
      <trkpt lat="42.356970" lon="-71.063140"/>
      <trkpt lat="42.357340" lon="-71.062740"/>
      <trkpt lat="42.357180" lon="-71.062050"/>
      <trkpt lat="42.357230" lon="-71.061360"/>
      <trkpt lat="42.357620" lon="-71.060750"/>
      <trkpt lat="42.357850" lon="-71.060140"/>
      <trkpt lat="42.358050" lon="-71.060200"/>
      <trkpt lat="42.357960" lon="-71.059610"/>
      <trkpt lat="42.357730" lon="-71.059220"/>
      <trkpt lat="42.357660" lon="-71.059100"/>
      <trkpt lat="42.358000" lon="-71.059100"/>
      <trkpt lat="42.358170" lon="-71.058680"/>
      <trkpt lat="42.358150" lon="-71.058170"/>
      <trkpt lat="42.358410" lon="-71.058160"/>
      <trkpt lat="42.358330" lon="-71.057680"/>
      <trkpt lat="42.358280" lon="-71.057690"/>
      <trkpt lat="42.358630" lon="-71.057090"/>
      <trkpt lat="42.358780" lon="-71.057300"/>
      <trkpt lat="42.358810" lon="-71.056500"/>
      <trkpt lat="42.358900" lon="-71.056060"/>
      <trkpt lat="42.359120" lon="-71.055600"/>
      <trkpt lat="42.359100" lon="-71.055560"/>
      <trkpt lat="42.358720" lon="-71.055370"/>
      <trkpt lat="42.358350" lon="-71.054810"/>
      <trkpt lat="42.358180" lon="-71.054260"/>
      <trkpt lat="42.357820" lon="-71.054340"/>
      <trkpt lat="42.357520" lon="-71.054690"/>
      <trkpt lat="42.357900" lon="-71.055300"/>
      <trkpt lat="42.357630" lon="-71.056320"/>
      <trkpt lat="42.357510" lon="-71.056900"/>
      <trkpt lat="42.357670" lon="-71.057250"/>
      <trkpt lat="42.357540" lon="-71.057640"/>
      <trkpt lat="42.357240" lon="-71.057190"/>
      <trkpt lat="42.356860" lon="-71.057180"/>
      <trkpt lat="42.356650" lon="-71.057550"/>
      <trkpt lat="42.356250" lon="-71.057710"/>
      <trkpt lat="42.356300" lon="-71.058410"/>
      <trkpt lat="42.356910" lon="-71.058940"/>
      <trkpt lat="42.357050" lon="-71.058540"/>
      <trkpt lat="42.357270" lon="-71.058340"/>
      <trkpt lat="42.356630" lon="-71.059850"/>
      <trkpt lat="42.356910" lon="-71.060170"/>
      <trkpt lat="42.356120" lon="-71.059860"/>
      <trkpt lat="42.356130" lon="-71.059380"/>
      <trkpt lat="42.355650" lon="-71.058910"/>
      <trkpt lat="42.355410" lon="-71.057950"/>
      <trkpt lat="42.355490" lon="-71.057490"/>
      <trkpt lat="42.355520" lon="-71.057110"/>
      <trkpt lat="42.355940" lon="-71.056720"/>
      <trkpt lat="42.355910" lon="-71.056490"/>
      <trkpt lat="42.355930" lon="-71.055820"/>
      <trkpt lat="42.356090" lon="-71.055330"/>
      <trkpt lat="42.355750" lon="-71.055170"/>
      <trkpt lat="42.355520" lon="-71.055740"/>
      <trkpt lat="42.355400" lon="-71.055980"/>
      <trkpt lat="42.355100" lon="-71.055460"/>
      <trkpt lat="42.354670" lon="-71.054840"/>
      <trkpt lat="42.354460" lon="-71.054700"/>
      <trkpt lat="42.354340" lon="-71.055010"/>
      <trkpt lat="42.353940" lon="-71.055630"/>
      <trkpt lat="42.354230" lon="-71.056190"/>
      <trkpt lat="42.354060" lon="-71.056620"/>
      <trkpt lat="42.354350" lon="-71.057250"/>
      <trkpt lat="42.354750" lon="-71.057680"/>
      <trkpt lat="42.354590" lon="-71.058180"/>
      <trkpt lat="42.354750" lon="-71.058520"/>
      <trkpt lat="42.354470" lon="-71.058910"/>
      <trkpt lat="42.354210" lon="-71.058880"/>
      <trkpt lat="42.353910" lon="-71.058470"/>
      <trkpt lat="42.353470" lon="-71.059150"/>
      <trkpt lat="42.353110" lon="-71.059580"/>
      <trkpt lat="42.352580" lon="-71.059330"/>
      <trkpt lat="42.352110" lon="-71.058940"/>
      <trkpt lat="42.352240" lon="-71.058700"/>
      <trkpt lat="42.351890" lon="-71.059230"/>
      <trkpt lat="42.351490" lon="-71.059600"/>
      <trkpt lat="42.351230" lon="-71.059670"/>
      <trkpt lat="42.351110" lon="-71.060550"/>
      <trkpt lat="42.350930" lon="-71.060610"/>
      <trkpt lat="42.351010" lon="-71.061020"/>
      <trkpt lat="42.351340" lon="-71.061360"/>
      <trkpt lat="42.351420" lon="-71.062250"/>
      <trkpt lat="42.351290" lon="-71.062800"/>
      <trkpt lat="42.351780" lon="-71.062880"/>
      <trkpt lat="42.351520" lon="-71.063440"/>
      <trkpt lat="42.351100" lon="-71.063850"/>
      <trkpt lat="42.350870" lon="-71.064270"/>
      <trkpt lat="42.350780" lon="-71.063370"/>
      <trkpt lat="42.349950" lon="-71.063740"/>
      <trkpt lat="42.350000" lon="-71.064230"/>
      <trkpt lat="42.349530" lon="-71.063390"/>
      <trkpt lat="42.349370" lon="-71.062920"/>
      <trkpt lat="42.349280" lon="-71.062230"/>
      <trkpt lat="42.349470" lon="-71.061900"/>
      <trkpt lat="42.349430" lon="-71.061190"/>
      <trkpt lat="42.349110" lon="-71.061310"/>
      <trkpt lat="42.349240" lon="-71.060740"/>
      <trkpt lat="42.350060" lon="-71.061510"/>
      <trkpt lat="42.350230" lon="-71.061810"/>
      <trkpt lat="42.350260" lon="-71.060620"/>
      <trkpt lat="42.350420" lon="-71.060120"/>
      <trkpt lat="42.350390" lon="-71.058860"/>
      <trkpt lat="42.350880" lon="-71.058710"/>
      <trkpt lat="42.350750" lon="-71.058230"/>
      <trkpt lat="42.350640" lon="-71.057580"/>
      <trkpt lat="42.350370" lon="-71.056820"/>
      <trkpt lat="42.350620" lon="-71.056200"/>
      <trkpt lat="42.350350" lon="-71.055490"/>
      <trkpt lat="42.351680" lon="-71.055060"/>
      <trkpt lat="42.351730" lon="-71.054800"/>
      <trkpt lat="42.351930" lon="-71.055070"/>
      <trkpt lat="42.352050" lon="-71.055110"/>
      <trkpt lat="42.352100" lon="-71.054730"/>
      <trkpt lat="42.352560" lon="-71.054590"/>
      <trkpt lat="42.352870" lon="-71.054230"/>
      <trkpt lat="42.353090" lon="-71.055000"/>
      <trkpt lat="42.353380" lon="-71.054860"/>
      <trkpt lat="42.353560" lon="-71.054500"/>
      <trkpt lat="42.353960" lon="-71.054140"/>
      <trkpt lat="42.354350" lon="-71.053900"/>
      <trkpt lat="42.354130" lon="-71.053480"/>
      <trkpt lat="42.354870" lon="-71.053030"/>
      <trkpt lat="42.355110" lon="-71.054060"/>
      <trkpt lat="42.355740" lon="-71.053610"/>
      <trkpt lat="42.355970" lon="-71.052870"/>
      <trkpt lat="42.356610" lon="-71.052870"/>
      <trkpt lat="42.356870" lon="-71.053250"/>
      <trkpt lat="42.357200" lon="-71.053550"/>
      <trkpt lat="42.357520" lon="-71.053060"/>
      <trkpt lat="42.357940" lon="-71.053700"/>
      <trkpt lat="42.359020" lon="-71.053690"/>
      <trkpt lat="42.359350" lon="-71.054100"/>
      <trkpt lat="42.359310" lon="-71.054540"/>
      <trkpt lat="42.359580" lon="-71.055020"/>
      <trkpt lat="42.359870" lon="-71.054750"/>
      <trkpt lat="42.359890" lon="-71.054730"/>
      <trkpt lat="42.359970" lon="-71.054320"/>
      <trkpt lat="42.360390" lon="-71.055340"/>
      <trkpt lat="42.360900" lon="-71.055440"/>
      <trkpt lat="42.360910" lon="-71.055930"/>
      <trkpt lat="42.360680" lon="-71.056160"/>
      <trkpt lat="42.360560" lon="-71.056730"/>
      <trkpt lat="42.359980" lon="-71.056790"/>
      <trkpt lat="42.359930" lon="-71.056440"/>
      <trkpt lat="42.359660" lon="-71.056060"/>
      <trkpt lat="42.359540" lon="-71.055810"/>
      <trkpt lat="42.359600" lon="-71.056860"/>
      <trkpt lat="42.359410" lon="-71.057580"/>
      <trkpt lat="42.359430" lon="-71.058450"/>
      <trkpt lat="42.359030" lon="-71.058850"/>
      <trkpt lat="42.358810" lon="-71.059170"/>
      <trkpt lat="42.358920" lon="-71.059640"/>
      <trkpt lat="42.359380" lon="-71.059300"/>
      <trkpt lat="42.359890" lon="-71.059220"/>
      <trkpt lat="42.360280" lon="-71.058660"/>
      <trkpt lat="42.359980" lon="-71.058430"/>
      <trkpt lat="42.360050" lon="-71.057410"/>
      <trkpt lat="42.361290" lon="-71.056940"/>
      <trkpt lat="42.361730" lon="-71.056540"/>
      <trkpt lat="42.362040" lon="-71.056460"/>
      <trkpt lat="42.362190" lon="-71.056730"/>
      <trkpt lat="42.362460" lon="-71.057250"/>
      <trkpt lat="42.362090" lon="-71.057920"/>
      <trkpt lat="42.361570" lon="-71.058040"/>
      <trkpt lat="42.360920" lon="-71.059770"/>
      <trkpt lat="42.360610" lon="-71.060270"/>
      <trkpt lat="42.360400" lon="-71.060110"/>
      <trkpt lat="42.360360" lon="-71.060580"/>
      <trkpt lat="42.359820" lon="-71.060550"/>
      <trkpt lat="42.359770" lon="-71.060020"/>
      <trkpt lat="42.359210" lon="-71.060810"/>
      <trkpt lat="42.359740" lon="-71.061440"/>
      <trkpt lat="42.360050" lon="-71.061830"/>
      <trkpt lat="42.360260" lon="-71.062090"/>
      <trkpt lat="42.360200" lon="-71.062480"/>
      <trkpt lat="42.359910" lon="-71.062510"/>
      <trkpt lat="42.359470" lon="-71.062580"/>
      <trkpt lat="42.359210" lon="-71.062310"/>
      <trkpt lat="42.358700" lon="-71.061580"/>
      <trkpt lat="42.358090" lon="-71.061200"/>
      <trkpt lat="42.358010" lon="-71.062110"/>
      <trkpt lat="42.359420" lon="-71.064440"/>
      <trkpt lat="42.359420" lon="-71.065000"/>
      <trkpt lat="42.359990" lon="-71.065380"/>
      <trkpt lat="42.360310" lon="-71.065930"/>
      <trkpt lat="42.360290" lon="-71.066440"/>
      <trkpt lat="42.360250" lon="-71.067230"/>
      <trkpt lat="42.360570" lon="-71.067320"/>
      <trkpt lat="42.361020" lon="-71.067980"/>
      <trkpt lat="42.361010" lon="-71.068950"/>
      <trkpt lat="42.361440" lon="-71.068780"/>
      <trkpt lat="42.361640" lon="-71.069370"/>
      <trkpt lat="42.361480" lon="-71.070280"/>
      <trkpt lat="42.361700" lon="-71.070640"/>
      <trkpt lat="42.361860" lon="-71.070470"/>
      <trkpt lat="42.362400" lon="-71.070150"/>
      <trkpt lat="42.362790" lon="-71.070440"/>
      <trkpt lat="42.363500" lon="-71.069810"/>
      <trkpt lat="42.363170" lon="-71.068800"/>
      <trkpt lat="42.362940" lon="-71.068880"/>
      <trkpt lat="42.362990" lon="-71.068030"/>
      <trkpt lat="42.363250" lon="-71.067200"/>
      <trkpt lat="42.362930" lon="-71.066790"/>
      <trkpt lat="42.363360" lon="-71.066540"/>
      <trkpt lat="42.363230" lon="-71.065920"/>
      <trkpt lat="42.362790" lon="-71.065510"/>
      <trkpt lat="42.363060" lon="-71.065180"/>
      <trkpt lat="42.362380" lon="-71.064660"/>
      <trkpt lat="42.362160" lon="-71.063700"/>
      <trkpt lat="42.362100" lon="-71.062880"/>
      <trkpt lat="42.362150" lon="-71.062120"/>
      <trkpt lat="42.362420" lon="-71.061520"/>
      <trkpt lat="42.363030" lon="-71.060900"/>
      <trkpt lat="42.363590" lon="-71.061450"/>
      <trkpt lat="42.363720" lon="-71.061950"/>
      <trkpt lat="42.364150" lon="-71.060870"/>
      <trkpt lat="42.362820" lon="-71.059840"/>
      <trkpt lat="42.363060" lon="-71.059080"/>
      <trkpt lat="42.361740" lon="-71.060160"/>
      <trkpt lat="42.361430" lon="-71.060940"/>
      <trkpt lat="42.360770" lon="-71.061470"/>
      <trkpt lat="42.360350" lon="-71.061620"/>
      <trkpt lat="42.361010" lon="-71.062230"/>
      <trkpt lat="42.361610" lon="-71.062050"/>
      <trkpt lat="42.361500" lon="-71.063020"/>
      <trkpt lat="42.360980" lon="-71.063750"/>
      <trkpt lat="42.361520" lon="-71.064230"/>
      <trkpt lat="42.361330" lon="-71.064840"/>
      <trkpt lat="42.360760" lon="-71.065080"/>
      <trkpt lat="42.360480" lon="-71.065070"/>
      <trkpt lat="42.361050" lon="-71.066240"/>
      <trkpt lat="42.361030" lon="-71.066480"/>
      <trkpt lat="42.359690" lon="-71.067280"/>
      <trkpt lat="42.359200" lon="-71.066170"/>
      <trkpt lat="42.359390" lon="-71.066010"/>
      <trkpt lat="42.358890" lon="-71.068020"/>
      <trkpt lat="42.358770" lon="-71.068850"/>
      <trkpt lat="42.358660" lon="-71.069920"/>
      <trkpt lat="42.358240" lon="-71.071370"/>
      <trkpt lat="42.357800" lon="-71.071810"/>
      <trkpt lat="42.360180" lon="-71.069990"/>
      <trkpt lat="42.360170" lon="-71.069330"/>
      <trkpt lat="42.360200" lon="-71.068620"/>
      <trkpt lat="42.360950" lon="-71.069690"/>
      <trkpt lat="42.360940" lon="-71.070440"/>
      <trkpt lat="42.362320" lon="-71.067730"/>
      <trkpt lat="42.363870" lon="-71.063690"/>
      <trkpt lat="42.364100" lon="-71.063680"/>
      <trkpt lat="42.364630" lon="-71.063980"/>
      <trkpt lat="42.360060" lon="-71.063530"/>
      <trkpt lat="42.355720" lon="-71.061170"/>
      <trkpt lat="42.355710" lon="-71.060920"/>
      <trkpt lat="42.355790" lon="-71.060810"/>
      <trkpt lat="42.355240" lon="-71.060850"/>
      <trkpt lat="42.355270" lon="-71.060100"/>
      <trkpt lat="42.354780" lon="-71.059640"/>
      <trkpt lat="42.354330" lon="-71.059620"/>
      <trkpt lat="42.354590" lon="-71.061600"/>
      <trkpt lat="42.354260" lon="-71.061730"/>
      <trkpt lat="42.353960" lon="-71.062190"/>
      <trkpt lat="42.354670" lon="-71.062770"/>
      <trkpt lat="42.355200" lon="-71.061910"/>
      <trkpt lat="42.353360" lon="-71.061270"/>
      <trkpt lat="42.352990" lon="-71.060510"/>
      <trkpt lat="42.352470" lon="-71.060140"/>
      <trkpt lat="42.352330" lon="-71.061130"/>
      <trkpt lat="42.352360" lon="-71.062110"/>
      <trkpt lat="42.352290" lon="-71.062540"/>
      <trkpt lat="42.352500" lon="-71.062710"/>
      <trkpt lat="42.352370" lon="-71.063580"/>
      <trkpt lat="42.352270" lon="-71.064980"/>
      <trkpt lat="42.352530" lon="-71.065600"/>
      <trkpt lat="42.352390" lon="-71.065930"/>
      <trkpt lat="42.350630" lon="-71.068940"/>
      <trkpt lat="42.350430" lon="-71.069220"/>
      <trkpt lat="42.351360" lon="-71.070230"/>
      <trkpt lat="42.353400" lon="-71.069990"/>
      <trkpt lat="42.354080" lon="-71.070150"/>
      <trkpt lat="42.354170" lon="-71.069710"/>
      <trkpt lat="42.354530" lon="-71.069690"/>
      <trkpt lat="42.354830" lon="-71.069860"/>
      <trkpt lat="42.354990" lon="-71.069160"/>
      <trkpt lat="42.349570" lon="-71.071710"/>
      <trkpt lat="42.349160" lon="-71.064720"/>
      <trkpt lat="42.349200" lon="-71.064420"/>
      <trkpt lat="42.348960" lon="-71.064150"/>
      <trkpt lat="42.348420" lon="-71.064600"/>
      <trkpt lat="42.348570" lon="-71.063440"/>
      <trkpt lat="42.348210" lon="-71.062380"/>
      <trkpt lat="42.347880" lon="-71.062470"/>
      <trkpt lat="42.347400" lon="-71.062940"/>
      <trkpt lat="42.347190" lon="-71.063000"/>
      <trkpt lat="42.347230" lon="-71.063370"/>
      <trkpt lat="42.348540" lon="-71.062270"/>
      <trkpt lat="42.348300" lon="-71.061660"/>
      <trkpt lat="42.349800" lon="-71.058770"/>
      <trkpt lat="42.349920" lon="-71.057890"/>
      <trkpt lat="42.349790" lon="-71.057690"/>
      <trkpt lat="42.351450" lon="-71.057470"/>
      <trkpt lat="42.351840" lon="-71.057320"/>
      <trkpt lat="42.351440" lon="-71.056900"/>
      <trkpt lat="42.351820" lon="-71.056230"/>
      <trkpt lat="42.352260" lon="-71.056020"/>
      <trkpt lat="42.352860" lon="-71.055480"/>
      <trkpt lat="42.353480" lon="-71.056160"/>
      <trkpt lat="42.353400" lon="-71.056970"/>
      <trkpt lat="42.353230" lon="-71.057430"/>
      <trkpt lat="42.353210" lon="-71.057650"/>
      <trkpt lat="42.353240" lon="-71.057950"/>
      <trkpt lat="42.352840" lon="-71.056950"/>
      <trkpt lat="42.352360" lon="-71.057430"/>
      <trkpt lat="42.351960" lon="-71.058020"/>
      <trkpt lat="42.351690" lon="-71.060570"/>
      <trkpt lat="42.353240" lon="-71.053430"/>
      <trkpt lat="42.356170" lon="-71.054400"/>
      <trkpt lat="42.356760" lon="-71.054490"/>
      <trkpt lat="42.356910" lon="-71.055210"/>
      <trkpt lat="42.356790" lon="-71.055950"/>
      <trkpt lat="42.356540" lon="-71.055810"/>
      <trkpt lat="42.358180" lon="-71.056420"/>
    </trkseg>
  </trk>
</gpx>
