<?xml version="1.0" encoding="utf-8" standalone="yes"?>
<gpx xmlns="http://www.topografix.com/GPX/1/1" xmlns:xsi="http://www.w3.org/2001/XMLSchema-instance" version="1.1" creator="GPS Visualizer http://www.gpsvisualizer.com/" xsi:schemaLocation="http://www.topografix.com/GPX/1/1 http://www.topografix.com/GPX/1/1/gpx.xsd">
  <trk>
    <name>0</name>
    <trkseg>
      <wpt lat="40.768128" lon="-73.982149"/>
      <wpt lat="40.768082" lon="-73.981893"/>
      <wpt lat="40.76784" lon="-73.980967"/>
      <wpt lat="40.768212" lon="-73.980909"/>
      <wpt lat="40.76883" lon="-73.979398"/>
      <wpt lat="40.769133" lon="-73.979077"/>
      <wpt lat="40.769233" lon="-73.978672"/>
      <wpt lat="40.769458" lon="-73.978332"/>
      <wpt lat="40.769881" lon="-73.978781"/>
      <wpt lat="40.770044" lon="-73.978313"/>
      <wpt lat="40.770573" lon="-73.978448"/>
      <wpt lat="40.770609" lon="-73.977969"/>
      <wpt lat="40.77081" lon="-73.977693"/>
      <wpt lat="40.770502" lon="-73.976537"/>
      <wpt lat="40.770179" lon="-73.97677"/>
      <wpt lat="40.770089" lon="-73.975602"/>
      <wpt lat="40.769826" lon="-73.975244"/>
      <wpt lat="40.769619" lon="-73.97496"/>
      <wpt lat="40.769321" lon="-73.974903"/>
      <wpt lat="40.769072" lon="-73.974593"/>
      <wpt lat="40.769119" lon="-73.973843"/>
      <wpt lat="40.769651" lon="-73.973135"/>
      <wpt lat="40.770012" lon="-73.973265"/>
      <wpt lat="40.769875" lon="-73.972728"/>
      <wpt lat="40.769851" lon="-73.972398"/>
      <wpt lat="40.770081" lon="-73.972458"/>
      <wpt lat="40.770113" lon="-73.97255"/>
      <wpt lat="40.770185" lon="-73.972291"/>
      <wpt lat="40.770404" lon="-73.972586"/>
      <wpt lat="40.770633" lon="-73.972119"/>
      <wpt lat="40.770841" lon="-73.972323"/>
      <wpt lat="40.77164" lon="-73.971728"/>
      <wpt lat="40.772258" lon="-73.971691"/>
      <wpt lat="40.772426" lon="-73.971837"/>
      <wpt lat="40.772863" lon="-73.971843"/>
      <wpt lat="40.773178" lon="-73.971732"/>
      <wpt lat="40.773332" lon="-73.972007"/>
      <wpt lat="40.772813" lon="-73.972326"/>
      <wpt lat="40.772433" lon="-73.9726"/>
      <wpt lat="40.772113" lon="-73.973361"/>
      <wpt lat="40.772224" lon="-73.973807"/>
      <wpt lat="40.773025" lon="-73.974223"/>
      <wpt lat="40.772909" lon="-73.974634"/>
      <wpt lat="40.772878" lon="-73.975149"/>
      <wpt lat="40.772756" lon="-73.976297"/>
      <wpt lat="40.773026" lon="-73.976687"/>
      <wpt lat="40.773438" lon="-73.977297"/>
      <wpt lat="40.773143" lon="-73.977798"/>
      <wpt lat="40.773587" lon="-73.978056"/>
      <wpt lat="40.773697" lon="-73.977857"/>
      <wpt lat="40.772762" lon="-73.978706"/>
      <wpt lat="40.77223" lon="-73.979065"/>
      <wpt lat="40.771997" lon="-73.97926"/>
      <wpt lat="40.771632" lon="-73.979476"/>
      <wpt lat="40.770205" lon="-73.979384"/>
      <wpt lat="40.768795" lon="-73.977854"/>
      <wpt lat="40.768442" lon="-73.977179"/>
      <wpt lat="40.76871" lon="-73.97598"/>
      <wpt lat="40.769169" lon="-73.975915"/>
      <wpt lat="40.77041" lon="-73.974395"/>
      <wpt lat="40.771032" lon="-73.97352"/>
      <wpt lat="40.769856" lon="-73.971986"/>
      <wpt lat="40.770109" lon="-73.971144"/>
      <wpt lat="40.769874" lon="-73.97101"/>
      <wpt lat="40.769462" lon="-73.970497"/>
      <wpt lat="40.769442" lon="-73.970176"/>
      <wpt lat="40.769947" lon="-73.969998"/>
      <wpt lat="40.769297" lon="-73.969488"/>
      <wpt lat="40.768474" lon="-73.9701"/>
      <wpt lat="40.768377" lon="-73.970494"/>
      <wpt lat="40.768598" lon="-73.970887"/>
      <wpt lat="40.768129" lon="-73.971169"/>
      <wpt lat="40.768239" lon="-73.971504"/>
      <wpt lat="40.767895" lon="-73.971379"/>
      <wpt lat="40.767809" lon="-73.971758"/>
      <wpt lat="40.76752" lon="-73.971671"/>
      <wpt lat="40.767286" lon="-73.971443"/>
      <wpt lat="40.767067" lon="-73.971628"/>
      <wpt lat="40.766958" lon="-73.971923"/>
      <wpt lat="40.767263" lon="-73.971923"/>
      <wpt lat="40.767696" lon="-73.972134"/>
      <wpt lat="40.767939" lon="-73.97229"/>
      <wpt lat="40.768187" lon="-73.972459"/>
      <wpt lat="40.767458" lon="-73.972535"/>
      <wpt lat="40.76674" lon="-73.973212"/>
      <wpt lat="40.766646" lon="-73.972993"/>
      <wpt lat="40.766467" lon="-73.973357"/>
      <wpt lat="40.766033" lon="-73.973272"/>
      <wpt lat="40.765733" lon="-73.973636"/>
      <wpt lat="40.765238" lon="-73.973866"/>
      <wpt lat="40.765173" lon="-73.974201"/>
      <wpt lat="40.764976" lon="-73.974305"/>
      <wpt lat="40.765153" lon="-73.974612"/>
      <wpt lat="40.765439" lon="-73.974522"/>
      <wpt lat="40.765398" lon="-73.975006"/>
      <wpt lat="40.765682" lon="-73.97582"/>
      <wpt lat="40.765713" lon="-73.976129"/>
      <wpt lat="40.766063" lon="-73.97611"/>
      <wpt lat="40.766147" lon="-73.975779"/>
      <wpt lat="40.766669" lon="-73.975741"/>
      <wpt lat="40.766796" lon="-73.975984"/>
      <wpt lat="40.766881" lon="-73.975614"/>
      <wpt lat="40.76726" lon="-73.975403"/>
      <wpt lat="40.766926" lon="-73.976503"/>
      <wpt lat="40.766438" lon="-73.97664"/>
      <wpt lat="40.766035" lon="-73.976631"/>
      <wpt lat="40.767609" lon="-73.97806"/>
      <wpt lat="40.766961" lon="-73.978862"/>
      <wpt lat="40.767325" lon="-73.979301"/>
      <wpt lat="40.767849" lon="-73.974241"/>
      <wpt lat="40.766954" lon="-73.973782"/>
      <wpt lat="40.765325" lon="-73.972894"/>
      <wpt lat="40.765169" lon="-73.972766"/>
      <wpt lat="40.764974" lon="-73.972932"/>
      <wpt lat="40.764799" lon="-73.973064"/>
      <wpt lat="40.764457" lon="-73.973064"/>
      <wpt lat="40.765014" lon="-73.973479"/>
      <wpt lat="40.765224" lon="-73.973298"/>
      <wpt lat="40.764977" lon="-73.973919"/>
      <wpt lat="40.765325" lon="-73.972448"/>
      <wpt lat="40.767575" lon="-73.971166"/>
      <wpt lat="40.767973" lon="-73.970568"/>
      <wpt lat="40.769285" lon="-73.970871"/>
      <wpt lat="40.770735" lon="-73.969027"/>
      <wpt lat="40.77223" lon="-73.968931"/>
      <wpt lat="40.77241" lon="-73.969608"/>
      <wpt lat="40.772518" lon="-73.969957"/>
      <wpt lat="40.773006" lon="-73.969859"/>
      <wpt lat="40.772894" lon="-73.970479"/>
      <wpt lat="40.772677" lon="-73.970674"/>
      <wpt lat="40.772951" lon="-73.970879"/>
      <wpt lat="40.772705" lon="-73.971098"/>
      <wpt lat="40.772458" lon="-73.971141"/>
      <wpt lat="40.772329" lon="-73.970891"/>
      <wpt lat="40.772186" lon="-73.971116"/>
      <wpt lat="40.772079" lon="-73.970788"/>
      <wpt lat="40.771756" lon="-73.970771"/>
      <wpt lat="40.772949" lon="-73.971376"/>
      <wpt lat="40.773091" lon="-73.971229"/>
      <wpt lat="40.773397" lon="-73.971117"/>
      <wpt lat="40.773657" lon="-73.971117"/>
      <wpt lat="40.773843" lon="-73.970984"/>
      <wpt lat="40.773939" lon="-73.970765"/>
      <wpt lat="40.774128" lon="-73.970894"/>
      <wpt lat="40.774324" lon="-73.970831"/>
      <wpt lat="40.774606" lon="-73.971084"/>
      <wpt lat="40.77482" lon="-73.971159"/>
      <wpt lat="40.775377" lon="-73.971347"/>
      <wpt lat="40.775807" lon="-73.971829"/>
      <wpt lat="40.776061" lon="-73.971655"/>
      <wpt lat="40.776205" lon="-73.971914"/>
      <wpt lat="40.776917" lon="-73.971584"/>
      <wpt lat="40.777074" lon="-73.971415"/>
      <wpt lat="40.777395" lon="-73.97106"/>
      <wpt lat="40.777612" lon="-73.970996"/>
      <wpt lat="40.777347" lon="-73.970666"/>
      <wpt lat="40.776732" lon="-73.970868"/>
      <wpt lat="40.776989" lon="-73.969749"/>
      <wpt lat="40.776991" lon="-73.969179"/>
      <wpt lat="40.777114" lon="-73.96897"/>
      <wpt lat="40.77679" lon="-73.968756"/>
      <wpt lat="40.777581" lon="-73.968826"/>
      <wpt lat="40.777463" lon="-73.969353"/>
      <wpt lat="40.777712" lon="-73.968268"/>
      <wpt lat="40.778695" lon="-73.967674"/>
      <wpt lat="40.778982" lon="-73.966653"/>
      <wpt lat="40.779126" lon="-73.966397"/>
      <wpt lat="40.779194" lon="-73.965755"/>
      <wpt lat="40.779011" lon="-73.965301"/>
      <wpt lat="40.778709" lon="-73.96533"/>
      <wpt lat="40.77867" lon="-73.965031"/>
      <wpt lat="40.778799" lon="-73.964615"/>
      <wpt lat="40.779057" lon="-73.96462"/>
      <wpt lat="40.779163" lon="-73.964401"/>
      <wpt lat="40.778895" lon="-73.964129"/>
      <wpt lat="40.779173" lon="-73.963858"/>
      <wpt lat="40.779187" lon="-73.963535"/>
      <wpt lat="40.779258" lon="-73.963233"/>
      <wpt lat="40.779447" lon="-73.96311"/>
      <wpt lat="40.779661" lon="-73.962916"/>
      <wpt lat="40.779905" lon="-73.962999"/>
      <wpt lat="40.779979" lon="-73.963284"/>
      <wpt lat="40.779713" lon="-73.963366"/>
      <wpt lat="40.779804" lon="-73.963571"/>
      <wpt lat="40.779824" lon="-73.963827"/>
      <wpt lat="40.779715" lon="-73.964059"/>
      <wpt lat="40.779534" lon="-73.963925"/>
      <wpt lat="40.779423" lon="-73.963728"/>
      <wpt lat="40.779551" lon="-73.964257"/>
      <wpt lat="40.779727" lon="-73.964447"/>
      <wpt lat="40.779774" lon="-73.964792"/>
      <wpt lat="40.779402" lon="-73.964957"/>
      <wpt lat="40.779615" lon="-73.965373"/>
      <wpt lat="40.780198" lon="-73.963707"/>
      <wpt lat="40.780231" lon="-73.963455"/>
      <wpt lat="40.780449" lon="-73.96336"/>
      <wpt lat="40.780516" lon="-73.963113"/>
      <wpt lat="40.780371" lon="-73.962945"/>
      <wpt lat="40.780193" lon="-73.963051"/>
      <wpt lat="40.780282" lon="-73.9627"/>
      <wpt lat="40.78053" lon="-73.962702"/>
      <wpt lat="40.780656" lon="-73.962882"/>
      <wpt lat="40.780708" lon="-73.963194"/>
      <wpt lat="40.780657" lon="-73.963433"/>
      <wpt lat="40.780415" lon="-73.963691"/>
      <wpt lat="40.781068" lon="-73.964418"/>
      <wpt lat="40.781687" lon="-73.962819"/>
      <wpt lat="40.781819" lon="-73.962297"/>
      <wpt lat="40.782053" lon="-73.962091"/>
      <wpt lat="40.782206" lon="-73.962502"/>
      <wpt lat="40.782354" lon="-73.96284"/>
      <wpt lat="40.78161" lon="-73.961784"/>
      <wpt lat="40.781039" lon="-73.961956"/>
      <wpt lat="40.780902" lon="-73.961606"/>
      <wpt lat="40.780785" lon="-73.961149"/>
      <wpt lat="40.781301" lon="-73.96085"/>
      <wpt lat="40.780272" lon="-73.961803"/>
      <wpt lat="40.780078" lon="-73.96177"/>
      <wpt lat="40.779759" lon="-73.961946"/>
      <wpt lat="40.7798" lon="-73.962209"/>
      <wpt lat="40.779632" lon="-73.962511"/>
      <wpt lat="40.779827" lon="-73.96264"/>
      <wpt lat="40.780225" lon="-73.962206"/>
      <wpt lat="40.780423" lon="-73.962144"/>
      <wpt lat="40.780462" lon="-73.962396"/>
      <wpt lat="40.780668" lon="-73.962442"/>
      <wpt lat="40.779289" lon="-73.962419"/>
      <wpt lat="40.779079" lon="-73.962675"/>
      <wpt lat="40.77889" lon="-73.963033"/>
      <wpt lat="40.778957" lon="-73.963321"/>
      <wpt lat="40.77859" lon="-73.96379"/>
      <wpt lat="40.778429" lon="-73.964099"/>
      <wpt lat="40.778289" lon="-73.963836"/>
      <wpt lat="40.778172" lon="-73.964018"/>
      <wpt lat="40.778188" lon="-73.963597"/>
      <wpt lat="40.778006" lon="-73.963424"/>
      <wpt lat="40.777713" lon="-73.963622"/>
      <wpt lat="40.777592" lon="-73.963963"/>
      <wpt lat="40.777428" lon="-73.964064"/>
      <wpt lat="40.777408" lon="-73.963746"/>
      <wpt lat="40.777186" lon="-73.963769"/>
      <wpt lat="40.777052" lon="-73.96421"/>
      <wpt lat="40.777634" lon="-73.964235"/>
      <wpt lat="40.777466" lon="-73.964906"/>
      <wpt lat="40.778175" lon="-73.964637"/>
      <wpt lat="40.778245" lon="-73.963111"/>
      <wpt lat="40.778699" lon="-73.962714"/>
      <wpt lat="40.776558" lon="-73.964968"/>
      <wpt lat="40.776668" lon="-73.965599"/>
      <wpt lat="40.776453" lon="-73.965608"/>
      <wpt lat="40.775756" lon="-73.965499"/>
      <wpt lat="40.775773" lon="-73.965103"/>
      <wpt lat="40.775403" lon="-73.965434"/>
      <wpt lat="40.775197" lon="-73.965152"/>
      <wpt lat="40.775051" lon="-73.965668"/>
      <wpt lat="40.775043" lon="-73.966537"/>
      <wpt lat="40.774678" lon="-73.966555"/>
      <wpt lat="40.774474" lon="-73.966428"/>
      <wpt lat="40.774823" lon="-73.966976"/>
      <wpt lat="40.775395" lon="-73.967277"/>
      <wpt lat="40.775745" lon="-73.968471"/>
      <wpt lat="40.775272" lon="-73.968873"/>
      <wpt lat="40.774727" lon="-73.969296"/>
      <wpt lat="40.774598" lon="-73.968942"/>
      <wpt lat="40.774386" lon="-73.969552"/>
      <wpt lat="40.774629" lon="-73.969918"/>
      <wpt lat="40.774043" lon="-73.97115"/>
      <wpt lat="40.774241" lon="-73.97133"/>
      <wpt lat="40.774691" lon="-73.971947"/>
      <wpt lat="40.774702" lon="-73.972811"/>
      <wpt lat="40.774848" lon="-73.973227"/>
      <wpt lat="40.775045" lon="-73.973157"/>
      <wpt lat="40.775166" lon="-73.97264"/>
      <wpt lat="40.775448" lon="-73.972209"/>
      <wpt lat="40.775673" lon="-73.97384"/>
      <wpt lat="40.775178" lon="-73.973963"/>
      <wpt lat="40.774749" lon="-73.974123"/>
      <wpt lat="40.774089" lon="-73.973805"/>
      <wpt lat="40.774257" lon="-73.975332"/>
      <wpt lat="40.77373" lon="-73.976355"/>
      <wpt lat="40.774797" lon="-73.977149"/>
      <wpt lat="40.775768" lon="-73.975212"/>
      <wpt lat="40.775458" lon="-73.974869"/>
      <wpt lat="40.776226" lon="-73.974004"/>
      <wpt lat="40.777491" lon="-73.973598"/>
      <wpt lat="40.777595" lon="-73.973866"/>
      <wpt lat="40.777666" lon="-73.972901"/>
      <wpt lat="40.778155" lon="-73.973051"/>
      <wpt lat="40.778797" lon="-73.972031"/>
      <wpt lat="40.77898" lon="-73.971818"/>
      <wpt lat="40.77862" lon="-73.971604"/>
      <wpt lat="40.778414" lon="-73.971329"/>
      <wpt lat="40.779427" lon="-73.970939"/>
      <wpt lat="40.779626" lon="-73.970913"/>
      <wpt lat="40.779754" lon="-73.970565"/>
      <wpt lat="40.780035" lon="-73.970489"/>
      <wpt lat="40.779776" lon="-73.970106"/>
      <wpt lat="40.779761" lon="-73.96961"/>
      <wpt lat="40.780217" lon="-73.969432"/>
      <wpt lat="40.780437" lon="-73.969189"/>
      <wpt lat="40.780261" lon="-73.968786"/>
      <wpt lat="40.780443" lon="-73.968648"/>
      <wpt lat="40.77957" lon="-73.969022"/>
      <wpt lat="40.779359" lon="-73.96899"/>
      <wpt lat="40.779163" lon="-73.968766"/>
      <wpt lat="40.779033" lon="-73.969124"/>
      <wpt lat="40.779989" lon="-73.967223"/>
      <wpt lat="40.781709" lon="-73.969057"/>
      <wpt lat="40.781521" lon="-73.97027"/>
      <wpt lat="40.781209" lon="-73.970614"/>
      <wpt lat="40.781391" lon="-73.971679"/>
      <wpt lat="40.781514" lon="-73.972143"/>
      <wpt lat="40.781875" lon="-73.971642"/>
      <wpt lat="40.782044" lon="-73.971156"/>
      <wpt lat="40.782316" lon="-73.970434"/>
      <wpt lat="40.783713" lon="-73.969768"/>
      <wpt lat="40.78443" lon="-73.969756"/>
      <wpt lat="40.784275" lon="-73.968474"/>
      <wpt lat="40.784558" lon="-73.968359"/>
      <wpt lat="40.784552" lon="-73.966197"/>
      <wpt lat="40.78448" lon="-73.965873"/>
      <wpt lat="40.783294" lon="-73.964879"/>
      <wpt lat="40.782824" lon="-73.966503"/>
      <wpt lat="40.782388" lon="-73.967959"/>
      <wpt lat="40.780648" lon="-73.972196"/>
      <wpt lat="40.779734" lon="-73.971964"/>
      <wpt lat="40.779714" lon="-73.97137"/>
      <wpt lat="40.779555" lon="-73.973364"/>
      <wpt lat="40.777258" lon="-73.975341"/>
      <wpt lat="40.772486" lon="-73.977651"/>
      <wpt lat="40.771893" lon="-73.977229"/>
      <wpt lat="40.773087" lon="-73.968437"/>
      <wpt lat="40.773145" lon="-73.967804"/>
      <wpt lat="40.772927" lon="-73.967336"/>
      <wpt lat="40.772652" lon="-73.967025"/>
      <wpt lat="40.772442" lon="-73.967417"/>
      <wpt lat="40.772135" lon="-73.967793"/>
      <wpt lat="40.773691" lon="-73.966818"/>
      <wpt lat="40.773943" lon="-73.966708"/>
      <wpt lat="40.774468" lon="-73.967766"/>
      <wpt lat="40.776763" lon="-73.967021"/>
      <wpt lat="40.78326" lon="-73.959301"/>
      <wpt lat="40.784054" lon="-73.95915"/>
      <wpt lat="40.784244" lon="-73.959008"/>
      <wpt lat="40.784275" lon="-73.9587"/>
      <wpt lat="40.784021" lon="-73.958762"/>
      <wpt lat="40.784618" lon="-73.958913"/>
      <wpt lat="40.785012" lon="-73.958839"/>
      <wpt lat="40.785452" lon="-73.958483"/>
      <wpt lat="40.784711" lon="-73.958266"/>
      <wpt lat="40.787121" lon="-73.957803"/>
      <wpt lat="40.787657" lon="-73.956447"/>
      <wpt lat="40.787817" lon="-73.956024"/>
      <wpt lat="40.788315" lon="-73.956052"/>
      <wpt lat="40.788739" lon="-73.956158"/>
      <wpt lat="40.789173" lon="-73.956048"/>
      <wpt lat="40.789259" lon="-73.956307"/>
      <wpt lat="40.789435" lon="-73.956521"/>
      <wpt lat="40.789908" lon="-73.955981"/>
      <wpt lat="40.790416" lon="-73.95636"/>
      <wpt lat="40.790591" lon="-73.956127"/>
      <wpt lat="40.791024" lon="-73.955582"/>
      <wpt lat="40.790884" lon="-73.955205"/>
      <wpt lat="40.790766" lon="-73.954955"/>
      <wpt lat="40.790601" lon="-73.954386"/>
      <wpt lat="40.790048" lon="-73.954846"/>
      <wpt lat="40.789442" lon="-73.955077"/>
      <wpt lat="40.789051" lon="-73.95558"/>
      <wpt lat="40.791166" lon="-73.953612"/>
      <wpt lat="40.791876" lon="-73.953077"/>
      <wpt lat="40.792042" lon="-73.952663"/>
      <wpt lat="40.792438" lon="-73.952305"/>
      <wpt lat="40.792815" lon="-73.95205"/>
      <wpt lat="40.793321" lon="-73.952186"/>
      <wpt lat="40.793485" lon="-73.951839"/>
      <wpt lat="40.793137" lon="-73.95264"/>
      <wpt lat="40.793904" lon="-73.952803"/>
      <wpt lat="40.794149" lon="-73.952874"/>
      <wpt lat="40.794247" lon="-73.953218"/>
      <wpt lat="40.793974" lon="-73.953253"/>
      <wpt lat="40.794058" lon="-73.952417"/>
      <wpt lat="40.794263" lon="-73.951941"/>
      <wpt lat="40.794447" lon="-73.951816"/>
      <wpt lat="40.794832" lon="-73.952198"/>
      <wpt lat="40.795125" lon="-73.952465"/>
      <wpt lat="40.79526" lon="-73.952159"/>
      <wpt lat="40.794771" lon="-73.953178"/>
      <wpt lat="40.794385" lon="-73.953965"/>
      <wpt lat="40.793759" lon="-73.954136"/>
      <wpt lat="40.793327" lon="-73.954034"/>
      <wpt lat="40.795234" lon="-73.954152"/>
      <wpt lat="40.795738" lon="-73.955306"/>
      <wpt lat="40.796757" lon="-73.954116"/>
      <wpt lat="40.796501" lon="-73.952923"/>
      <wpt lat="40.797765" lon="-73.952569"/>
      <wpt lat="40.798066" lon="-73.952438"/>
      <wpt lat="40.797052" lon="-73.951249"/>
      <wpt lat="40.797205" lon="-73.950938"/>
      <wpt lat="40.796794" lon="-73.950499"/>
      <wpt lat="40.796303" lon="-73.950167"/>
      <wpt lat="40.795795" lon="-73.950469"/>
      <wpt lat="40.795628" lon="-73.949995"/>
      <wpt lat="40.794959" lon="-73.95096"/>
      <wpt lat="40.796817" lon="-73.949718"/>
      <wpt lat="40.798207" lon="-73.955685"/>
      <wpt lat="40.798551" lon="-73.956331"/>
      <wpt lat="40.798224" lon="-73.957405"/>
      <wpt lat="40.797984" lon="-73.959613"/>
      <wpt lat="40.796913" lon="-73.958912"/>
      <wpt lat="40.794982" lon="-73.959863"/>
      <wpt lat="40.794442" lon="-73.959944"/>
      <wpt lat="40.794578" lon="-73.960689"/>
      <wpt lat="40.794081" lon="-73.961364"/>
      <wpt lat="40.793444" lon="-73.960847"/>
      <wpt lat="40.794701" lon="-73.961933"/>
      <wpt lat="40.794073" lon="-73.962733"/>
      <wpt lat="40.793752" lon="-73.962809"/>
      <wpt lat="40.795971" lon="-73.961361"/>
      <wpt lat="40.794785" lon="-73.958519"/>
      <wpt lat="40.794107" lon="-73.957676"/>
      <wpt lat="40.794458" lon="-73.957338"/>
      <wpt lat="40.793355" lon="-73.958193"/>
      <wpt lat="40.792787" lon="-73.95722"/>
      <wpt lat="40.790994" lon="-73.959104"/>
      <wpt lat="40.790895" lon="-73.960624"/>
      <wpt lat="40.789361" lon="-73.961836"/>
      <wpt lat="40.788918" lon="-73.962067"/>
      <wpt lat="40.788911" lon="-73.961437"/>
      <wpt lat="40.788944" lon="-73.961025"/>
      <wpt lat="40.789425" lon="-73.963949"/>
      <wpt lat="40.7905" lon="-73.963844"/>
      <wpt lat="40.791509" lon="-73.964602"/>
      <wpt lat="40.789561" lon="-73.965366"/>
      <wpt lat="40.789266" lon="-73.966062"/>
      <wpt lat="40.788593" lon="-73.966261"/>
      <wpt lat="40.788316" lon="-73.96661"/>
      <wpt lat="40.800019" lon="-73.957828"/>
      <wpt lat="40.799221" lon="-73.955133"/>
    </trkseg>
  </trk>
</gpx>
