<?xml version="1.0" encoding="UTF-8"?>
<gpx xmlns="http://www.topografix.com/GPX/1/1"
     xmlns:pgr="https://joshuaspence.github.io/pokemon-go-gpx-routes/gpx/1"
     version="1.1">
  <trk>
    <name>LA Zoo</name>
    <extensions>
      <pgr:city>Los Angeles, California</pgr:city>
      <pgr:country>United States</pgr:country>
    </extensions>
    <trkseg>
      <trkpt lat="34.149008" lon="-118.281283"/>
      <trkpt lat="34.148520" lon="-118.280885"/>
      <trkpt lat="34.148041" lon="-118.280142"/>
      <trkpt lat="34.147948" lon="-118.281697"/>
      <trkpt lat="34.148326" lon="-118.281614"/>
      <trkpt lat="34.148330" lon="-118.282320"/>
      <trkpt lat="34.148335" lon="-118.283026"/>
      <trkpt lat="34.149936" lon="-118.284008"/>
      <trkpt lat="34.149277" lon="-118.284800"/>
      <trkpt lat="34.149155" lon="-118.285396"/>
      <trkpt lat="34.148473" lon="-118.284524"/>
      <trkpt lat="34.148126" lon="-118.284508"/>
      <trkpt lat="34.148438" lon="-118.284107"/>
      <trkpt lat="34.148358" lon="-118.286003"/>
      <trkpt lat="34.149441" lon="-118.286418"/>
      <trkpt lat="34.147818" lon="-118.286329"/>
      <trkpt lat="34.147606" lon="-118.287032"/>
      <trkpt lat="34.147030" lon="-118.288002"/>
      <trkpt lat="34.146378" lon="-118.288168"/>
      <trkpt lat="34.146048" lon="-118.288715"/>
      <trkpt lat="34.145216" lon="-118.289087"/>
      <trkpt lat="34.144829" lon="-118.289411"/>
      <trkpt lat="34.145208" lon="-118.289946"/>
      <trkpt lat="34.145820" lon="-118.289758"/>
      <trkpt lat="34.146276" lon="-118.289588"/>
      <trkpt lat="34.146578" lon="-118.290762"/>
      <trkpt lat="34.146864" lon="-118.290069"/>
      <trkpt lat="34.147120" lon="-118.289891"/>
      <trkpt lat="34.147437" lon="-118.290707"/>
      <trkpt lat="34.147704" lon="-118.290434"/>
      <trkpt lat="34.147901" lon="-118.290928"/>
      <trkpt lat="34.147334" lon="-118.291583"/>
      <trkpt lat="34.147203" lon="-118.292637"/>
      <trkpt lat="34.147428" lon="-118.293115"/>
      <trkpt lat="34.149663" lon="-118.292192"/>
      <trkpt lat="34.150023" lon="-118.291936"/>
      <trkpt lat="34.149197" lon="-118.291554"/>
      <trkpt lat="34.149311" lon="-118.291083"/>
      <trkpt lat="34.148894" lon="-118.290926"/>
      <trkpt lat="34.149117" lon="-118.290406"/>
      <trkpt lat="34.148782" lon="-118.289997"/>
      <trkpt lat="34.149866" lon="-118.290069"/>
      <trkpt lat="34.149987" lon="-118.289491"/>
      <trkpt lat="34.150584" lon="-118.288008"/>
      <trkpt lat="34.149668" lon="-118.288613"/>
      <trkpt lat="34.149087" lon="-118.288475"/>
      <trkpt lat="34.149020" lon="-118.289006"/>
      <trkpt lat="34.148502" lon="-118.288787"/>
      <trkpt lat="34.148185" lon="-118.289603"/>
      <trkpt lat="34.147738" lon="-118.289310"/>
      <trkpt lat="34.147929" lon="-118.289048"/>
      <trkpt lat="34.147250" lon="-118.288723"/>
      <trkpt lat="34.147256" lon="-118.288319"/>
      <trkpt lat="34.147979" lon="-118.288102"/>
      <trkpt lat="34.147588" lon="-118.286915"/>
      <trkpt lat="34.148298" lon="-118.286148"/>
      <trkpt lat="34.149227" lon="-118.285152"/>
      <trkpt lat="34.149015" lon="-118.282238"/>
      <trkpt lat="34.149008" lon="-118.281283"/>
      <trkpt lat="34.148520" lon="-118.280885"/>
      <trkpt lat="34.148041" lon="-118.280142"/>
      <trkpt lat="34.147948" lon="-118.281697"/>
      <trkpt lat="34.148326" lon="-118.281614"/>
      <trkpt lat="34.148330" lon="-118.282320"/>
      <trkpt lat="34.148335" lon="-118.283026"/>
      <trkpt lat="34.149936" lon="-118.284008"/>
      <trkpt lat="34.149277" lon="-118.284800"/>
      <trkpt lat="34.149155" lon="-118.285396"/>
      <trkpt lat="34.148473" lon="-118.284524"/>
      <trkpt lat="34.148126" lon="-118.284508"/>
      <trkpt lat="34.148438" lon="-118.284107"/>
      <trkpt lat="34.148358" lon="-118.286003"/>
      <trkpt lat="34.149441" lon="-118.286418"/>
      <trkpt lat="34.147818" lon="-118.286329"/>
      <trkpt lat="34.147606" lon="-118.287032"/>
      <trkpt lat="34.147030" lon="-118.288002"/>
      <trkpt lat="34.146378" lon="-118.288168"/>
      <trkpt lat="34.146048" lon="-118.288715"/>
      <trkpt lat="34.145216" lon="-118.289087"/>
      <trkpt lat="34.144829" lon="-118.289411"/>
      <trkpt lat="34.145208" lon="-118.289946"/>
      <trkpt lat="34.145820" lon="-118.289758"/>
      <trkpt lat="34.146276" lon="-118.289588"/>
      <trkpt lat="34.146578" lon="-118.290762"/>
      <trkpt lat="34.146864" lon="-118.290069"/>
      <trkpt lat="34.147120" lon="-118.289891"/>
      <trkpt lat="34.147437" lon="-118.290707"/>
      <trkpt lat="34.147704" lon="-118.290434"/>
      <trkpt lat="34.147901" lon="-118.290928"/>
      <trkpt lat="34.147334" lon="-118.291583"/>
      <trkpt lat="34.147203" lon="-118.292637"/>
      <trkpt lat="34.147428" lon="-118.293115"/>
      <trkpt lat="34.149663" lon="-118.292192"/>
      <trkpt lat="34.150023" lon="-118.291936"/>
      <trkpt lat="34.149197" lon="-118.291554"/>
      <trkpt lat="34.149311" lon="-118.291083"/>
      <trkpt lat="34.148894" lon="-118.290926"/>
      <trkpt lat="34.149117" lon="-118.290406"/>
      <trkpt lat="34.148782" lon="-118.289997"/>
      <trkpt lat="34.149866" lon="-118.290069"/>
      <trkpt lat="34.149987" lon="-118.289491"/>
      <trkpt lat="34.150584" lon="-118.288008"/>
      <trkpt lat="34.149668" lon="-118.288613"/>
      <trkpt lat="34.149087" lon="-118.288475"/>
      <trkpt lat="34.149020" lon="-118.289006"/>
      <trkpt lat="34.148502" lon="-118.288787"/>
      <trkpt lat="34.148185" lon="-118.289603"/>
      <trkpt lat="34.147738" lon="-118.289310"/>
      <trkpt lat="34.147929" lon="-118.289048"/>
      <trkpt lat="34.147250" lon="-118.288723"/>
      <trkpt lat="34.147256" lon="-118.288319"/>
      <trkpt lat="34.147979" lon="-118.288102"/>
      <trkpt lat="34.147588" lon="-118.286915"/>
      <trkpt lat="34.148298" lon="-118.286148"/>
      <trkpt lat="34.149227" lon="-118.285152"/>
      <trkpt lat="34.149015" lon="-118.282238"/>
    </trkseg>
  </trk>
</gpx>
