<?xml version="1.0" encoding="UTF-8"?>
<gpx xmlns="http://www.topografix.com/GPX/1/1" version="1.1">
  <trk>
    <name>Lebanon Hills, Eagan, Minnesota</name>
    <desc>United States</desc>
    <trkseg>
      <trkpt lat="44.783528" lon="-93.130794"/>
      <trkpt lat="44.783369" lon="-93.132266"/>
      <trkpt lat="44.783908" lon="-93.132218"/>
      <trkpt lat="44.784196" lon="-93.133031"/>
      <trkpt lat="44.785053" lon="-93.133496"/>
      <trkpt lat="44.784884" lon="-93.132711"/>
      <trkpt lat="44.784316" lon="-93.131200"/>
      <trkpt lat="44.784515" lon="-93.131003"/>
      <trkpt lat="44.784903" lon="-93.130320"/>
      <trkpt lat="44.785309" lon="-93.131052"/>
      <trkpt lat="44.785519" lon="-93.131813"/>
      <trkpt lat="44.785453" lon="-93.130038"/>
      <trkpt lat="44.785958" lon="-93.129870"/>
      <trkpt lat="44.786263" lon="-93.130050"/>
      <trkpt lat="44.786998" lon="-93.129472"/>
      <trkpt lat="44.786346" lon="-93.128779"/>
      <trkpt lat="44.785983" lon="-93.128169"/>
      <trkpt lat="44.786166" lon="-93.127427"/>
      <trkpt lat="44.785456" lon="-93.127561"/>
      <trkpt lat="44.784645" lon="-93.127380"/>
      <trkpt lat="44.785183" lon="-93.125593"/>
      <trkpt lat="44.785091" lon="-93.124826"/>
      <trkpt lat="44.784456" lon="-93.125881"/>
      <trkpt lat="44.782756" lon="-93.126887"/>
      <trkpt lat="44.782120" lon="-93.128372"/>
      <trkpt lat="44.782329" lon="-93.128857"/>
      <trkpt lat="44.780708" lon="-93.130187"/>
      <trkpt lat="44.781085" lon="-93.130446"/>
      <trkpt lat="44.781281" lon="-93.131492"/>
      <trkpt lat="44.781505" lon="-93.133803"/>
      <trkpt lat="44.782197" lon="-93.132925"/>
      <trkpt lat="44.782039" lon="-93.132235"/>
      <trkpt lat="44.782557" lon="-93.131620"/>
      <trkpt lat="44.783001" lon="-93.130714"/>
      <trkpt lat="44.783528" lon="-93.130794"/>
    </trkseg>
  </trk>
</gpx>
