<?xml version="1.0" encoding="UTF-8"?>
<gpx xmlns="http://www.topografix.com/GPX/1/1" version="1.1" creator="GPS Visualizer http://www.gpsvisualizer.com/">
  <trk>
    <name>0</name>
    <trkseg>
      <trkpt lat="29.764878" lon="-95.449907"/>
      <trkpt lat="29.767091" lon="-95.447714"/>
      <trkpt lat="29.767994" lon="-95.446927"/>
      <trkpt lat="29.768184" lon="-95.446255"/>
      <trkpt lat="29.768270" lon="-95.446623"/>
      <trkpt lat="29.768512" lon="-95.448184"/>
      <trkpt lat="29.766728" lon="-95.449715"/>
      <trkpt lat="29.766818" lon="-95.450544"/>
      <trkpt lat="29.767407" lon="-95.452336"/>
      <trkpt lat="29.767234" lon="-95.453049"/>
      <trkpt lat="29.766795" lon="-95.455283"/>
      <trkpt lat="29.765872" lon="-95.454748"/>
      <trkpt lat="29.765623" lon="-95.453954"/>
      <trkpt lat="29.766722" lon="-95.452494"/>
      <trkpt lat="29.766465" lon="-95.451904"/>
      <trkpt lat="29.765258" lon="-95.452300"/>
      <trkpt lat="29.765356" lon="-95.452103"/>
      <trkpt lat="29.765224" lon="-95.450947"/>
      <trkpt lat="29.764487" lon="-95.450921"/>
      <trkpt lat="29.764596" lon="-95.451788"/>
      <trkpt lat="29.765033" lon="-95.452409"/>
      <trkpt lat="29.764974" lon="-95.453058"/>
      <trkpt lat="29.764347" lon="-95.452085"/>
      <trkpt lat="29.764096" lon="-95.452670"/>
      <trkpt lat="29.763986" lon="-95.453373"/>
      <trkpt lat="29.764336" lon="-95.453983"/>
      <trkpt lat="29.763930" lon="-95.454068"/>
      <trkpt lat="29.763169" lon="-95.454026"/>
      <trkpt lat="29.763628" lon="-95.450842"/>
      <trkpt lat="29.762311" lon="-95.452552"/>
      <trkpt lat="29.761685" lon="-95.454342"/>
      <trkpt lat="29.761407" lon="-95.451101"/>
      <trkpt lat="29.759675" lon="-95.450824"/>
      <trkpt lat="29.758301" lon="-95.449542"/>
      <trkpt lat="29.759216" lon="-95.449196"/>
      <trkpt lat="29.760711" lon="-95.449497"/>
      <trkpt lat="29.761410" lon="-95.449207"/>
      <trkpt lat="29.761739" lon="-95.450044"/>
      <trkpt lat="29.761816" lon="-95.450392"/>
      <trkpt lat="29.762239" lon="-95.451153"/>
      <trkpt lat="29.762570" lon="-95.450424"/>
      <trkpt lat="29.762593" lon="-95.450111"/>
      <trkpt lat="29.762568" lon="-95.449475"/>
      <trkpt lat="29.764804" lon="-95.445758"/>
    </trkseg>
  </trk>
</gpx>
