<?xml version="1.0" encoding="UTF-8"?>
<gpx xmlns="http://www.topografix.com/GPX/1/1" version="1.1" creator="GPS Visualizer http://www.gpsvisualizer.com/">
  <trk>
    <name>0</name>
    <trkseg>
      <wpt lat="41.892207" lon="-87.598934"/>
      <wpt lat="41.891847" lon="-87.598637"/>
      <wpt lat="41.891500" lon="-87.598916"/>
      <wpt lat="41.891773" lon="-87.599428"/>
      <wpt lat="41.891763" lon="-87.599825"/>
      <wpt lat="41.891948" lon="-87.600188"/>
      <wpt lat="41.891230" lon="-87.600699"/>
      <wpt lat="41.891413" lon="-87.601832"/>
      <wpt lat="41.891450" lon="-87.601116"/>
      <wpt lat="41.891773" lon="-87.602586"/>
      <wpt lat="41.891320" lon="-87.602619"/>
      <wpt lat="41.891407" lon="-87.603746"/>
      <wpt lat="41.891777" lon="-87.603972"/>
      <wpt lat="41.891255" lon="-87.604241"/>
      <wpt lat="41.891115" lon="-87.604886"/>
      <wpt lat="41.891181" lon="-87.606106"/>
      <wpt lat="41.891685" lon="-87.607105"/>
      <wpt lat="41.891829" lon="-87.607855"/>
      <wpt lat="41.891504" lon="-87.608113"/>
      <wpt lat="41.891602" lon="-87.608578"/>
      <wpt lat="41.891088" lon="-87.608595"/>
      <wpt lat="41.891336" lon="-87.609141"/>
      <wpt lat="41.891332" lon="-87.609518"/>
      <wpt lat="41.891960" lon="-87.609818"/>
      <wpt lat="41.891656" lon="-87.610837"/>
      <wpt lat="41.891136" lon="-87.610875"/>
      <wpt lat="41.891065" lon="-87.610550"/>
      <wpt lat="41.891383" lon="-87.610138"/>
      <wpt lat="41.890712" lon="-87.609676"/>
      <wpt lat="41.890170" lon="-87.609582"/>
    </trkseg>
  </trk>
</gpx>
