<?xml version="1.0" encoding="UTF-8"?>
<gpx xmlns="http://www.topografix.com/GPX/1/1" version="1.1">
  <trk>
    <name>Pier 39, San Francisco, California (2)</name>
    <desc>United States</desc>
    <trkseg>
      <trkpt lat="37.811344" lon="-122.410360"/>
      <trkpt lat="37.811360" lon="-122.410469"/>
      <trkpt lat="37.811253" lon="-122.410812"/>
      <trkpt lat="37.811072" lon="-122.411221"/>
      <trkpt lat="37.810977" lon="-122.411291"/>
      <trkpt lat="37.810881" lon="-122.411307"/>
      <trkpt lat="37.810755" lon="-122.411255"/>
      <trkpt lat="37.810643" lon="-122.411205"/>
      <trkpt lat="37.810567" lon="-122.411103"/>
      <trkpt lat="37.810470" lon="-122.411036"/>
      <trkpt lat="37.810156" lon="-122.410867"/>
      <trkpt lat="37.809844" lon="-122.410686"/>
      <trkpt lat="37.809531" lon="-122.410509"/>
      <trkpt lat="37.809311" lon="-122.410391"/>
      <trkpt lat="37.809258" lon="-122.410395"/>
      <trkpt lat="37.808991" lon="-122.410447"/>
      <trkpt lat="37.808753" lon="-122.410501"/>
      <trkpt lat="37.808746" lon="-122.410505"/>
      <trkpt lat="37.808799" lon="-122.410852"/>
      <trkpt lat="37.808856" lon="-122.411263"/>
      <trkpt lat="37.808894" lon="-122.411518"/>
      <trkpt lat="37.808929" lon="-122.411505"/>
      <trkpt lat="37.808949" lon="-122.411509"/>
      <trkpt lat="37.809106" lon="-122.411637"/>
      <trkpt lat="37.809263" lon="-122.411764"/>
      <trkpt lat="37.809368" lon="-122.411849"/>
      <trkpt lat="37.809396" lon="-122.411862"/>
      <trkpt lat="37.809447" lon="-122.411861"/>
      <trkpt lat="37.809486" lon="-122.411842"/>
      <trkpt lat="37.809511" lon="-122.411836"/>
      <trkpt lat="37.809541" lon="-122.411855"/>
      <trkpt lat="37.809701" lon="-122.411990"/>
      <trkpt lat="37.809849" lon="-122.412116"/>
      <trkpt lat="37.809995" lon="-122.412242"/>
      <trkpt lat="37.810142" lon="-122.412374"/>
      <trkpt lat="37.810278" lon="-122.412494"/>
      <trkpt lat="37.810414" lon="-122.412614"/>
      <trkpt lat="37.810551" lon="-122.412734"/>
      <trkpt lat="37.810599" lon="-122.412769"/>
      <trkpt lat="37.809572" lon="-122.411880"/>
      <trkpt lat="37.809519" lon="-122.411839"/>
      <trkpt lat="37.809498" lon="-122.411837"/>
      <trkpt lat="37.809447" lon="-122.411859"/>
      <trkpt lat="37.809371" lon="-122.411854"/>
      <trkpt lat="37.809280" lon="-122.412056"/>
      <trkpt lat="37.809172" lon="-122.412252"/>
      <trkpt lat="37.809065" lon="-122.412451"/>
      <trkpt lat="37.809024" lon="-122.412524"/>
      <trkpt lat="37.809087" lon="-122.412645"/>
      <trkpt lat="37.809214" lon="-122.412932"/>
      <trkpt lat="37.809275" lon="-122.413073"/>
      <trkpt lat="37.809320" lon="-122.413111"/>
      <trkpt lat="37.809407" lon="-122.413327"/>
      <trkpt lat="37.809274" lon="-122.413422"/>
      <trkpt lat="37.809224" lon="-122.413458"/>
      <trkpt lat="37.809237" lon="-122.413514"/>
      <trkpt lat="37.809204" lon="-122.413525"/>
      <trkpt lat="37.809174" lon="-122.413473"/>
      <trkpt lat="37.809121" lon="-122.413289"/>
      <trkpt lat="37.809118" lon="-122.413121"/>
      <trkpt lat="37.809030" lon="-122.412881"/>
      <trkpt lat="37.809006" lon="-122.412878"/>
      <trkpt lat="37.808953" lon="-122.412870"/>
      <trkpt lat="37.808968" lon="-122.413181"/>
      <trkpt lat="37.808962" lon="-122.413205"/>
      <trkpt lat="37.808944" lon="-122.413237"/>
      <trkpt lat="37.808940" lon="-122.413257"/>
      <trkpt lat="37.808964" lon="-122.413722"/>
      <trkpt lat="37.808984" lon="-122.414094"/>
      <trkpt lat="37.809141" lon="-122.414311"/>
      <trkpt lat="37.809262" lon="-122.414500"/>
      <trkpt lat="37.809280" lon="-122.414792"/>
      <trkpt lat="37.809252" lon="-122.414867"/>
      <trkpt lat="37.809376" lon="-122.415057"/>
      <trkpt lat="37.809397" lon="-122.415057"/>
      <trkpt lat="37.809530" lon="-122.415244"/>
      <trkpt lat="37.809502" lon="-122.415286"/>
      <trkpt lat="37.809369" lon="-122.415102"/>
      <trkpt lat="37.809372" lon="-122.415075"/>
      <trkpt lat="37.809247" lon="-122.414896"/>
      <trkpt lat="37.809187" lon="-122.415059"/>
      <trkpt lat="37.809261" lon="-122.415156"/>
      <trkpt lat="37.809294" lon="-122.415195"/>
      <trkpt lat="37.809427" lon="-122.415386"/>
      <trkpt lat="37.809410" lon="-122.415424"/>
      <trkpt lat="37.809271" lon="-122.415213"/>
      <trkpt lat="37.809284" lon="-122.415193"/>
      <trkpt lat="37.809259" lon="-122.415156"/>
      <trkpt lat="37.809230" lon="-122.415181"/>
      <trkpt lat="37.809193" lon="-122.415224"/>
      <trkpt lat="37.809155" lon="-122.415239"/>
      <trkpt lat="37.809127" lon="-122.415089"/>
      <trkpt lat="37.809226" lon="-122.414738"/>
      <trkpt lat="37.809102" lon="-122.414486"/>
      <trkpt lat="37.808991" lon="-122.414267"/>
      <trkpt lat="37.809003" lon="-122.414589"/>
      <trkpt lat="37.809120" lon="-122.414752"/>
      <trkpt lat="37.809024" lon="-122.414989"/>
      <trkpt lat="37.809021" lon="-122.415057"/>
      <trkpt lat="37.809031" lon="-122.415195"/>
      <trkpt lat="37.809054" lon="-122.415312"/>
      <trkpt lat="37.809168" lon="-122.415507"/>
      <trkpt lat="37.809218" lon="-122.415534"/>
      <trkpt lat="37.809245" lon="-122.415562"/>
      <trkpt lat="37.809427" lon="-122.415836"/>
      <trkpt lat="37.809543" lon="-122.416010"/>
      <trkpt lat="37.809659" lon="-122.416186"/>
      <trkpt lat="37.809784" lon="-122.416383"/>
      <trkpt lat="37.809909" lon="-122.416579"/>
      <trkpt lat="37.810100" lon="-122.416860"/>
      <trkpt lat="37.810257" lon="-122.417093"/>
      <trkpt lat="37.810417" lon="-122.417326"/>
      <trkpt lat="37.811342" lon="-122.418686"/>
      <trkpt lat="37.811452" lon="-122.419345"/>
      <trkpt lat="37.811136" lon="-122.419050"/>
      <trkpt lat="37.810886" lon="-122.419316"/>
      <trkpt lat="37.811180" lon="-122.419957"/>
      <trkpt lat="37.811473" lon="-122.420416"/>
      <trkpt lat="37.811291" lon="-122.420569"/>
      <trkpt lat="37.810668" lon="-122.419630"/>
      <trkpt lat="37.810174" lon="-122.418908"/>
      <trkpt lat="37.809744" lon="-122.418235"/>
      <trkpt lat="37.809314" lon="-122.417562"/>
      <trkpt lat="37.809161" lon="-122.417355"/>
      <trkpt lat="37.809066" lon="-122.417342"/>
      <trkpt lat="37.808994" lon="-122.417117"/>
      <trkpt lat="37.808949" lon="-122.416827"/>
      <trkpt lat="37.808926" lon="-122.416280"/>
      <trkpt lat="37.808864" lon="-122.416218"/>
      <trkpt lat="37.808741" lon="-122.416221"/>
      <trkpt lat="37.808343" lon="-122.416239"/>
      <trkpt lat="37.808243" lon="-122.416239"/>
      <trkpt lat="37.808279" lon="-122.415891"/>
      <trkpt lat="37.808379" lon="-122.415488"/>
      <trkpt lat="37.808833" lon="-122.415684"/>
      <trkpt lat="37.809080" lon="-122.415872"/>
      <trkpt lat="37.809157" lon="-122.416301"/>
      <trkpt lat="37.809178" lon="-122.416593"/>
      <trkpt lat="37.809415" lon="-122.416690"/>
      <trkpt lat="37.810055" lon="-122.417613"/>
      <trkpt lat="37.810581" lon="-122.418404"/>
      <trkpt lat="37.810918" lon="-122.418978"/>
      <trkpt lat="37.810691" lon="-122.419238"/>
      <trkpt lat="37.810146" lon="-122.418332"/>
      <trkpt lat="37.809523" lon="-122.417288"/>
      <trkpt lat="37.809210" lon="-122.416982"/>
      <trkpt lat="37.809004" lon="-122.416792"/>
      <trkpt lat="37.808970" lon="-122.416135"/>
      <trkpt lat="37.808788" lon="-122.415317"/>
      <trkpt lat="37.808519" lon="-122.414606"/>
      <trkpt lat="37.808421" lon="-122.414346"/>
      <trkpt lat="37.808186" lon="-122.416046"/>
      <trkpt lat="37.807981" lon="-122.417685"/>
      <trkpt lat="37.809013" lon="-122.417988"/>
      <trkpt lat="37.809072" lon="-122.419673"/>
      <trkpt lat="37.808911" lon="-122.419694"/>
      <trkpt lat="37.808894" lon="-122.417913"/>
      <trkpt lat="37.807979" lon="-122.417736"/>
      <trkpt lat="37.807593" lon="-122.420783"/>
      <trkpt lat="37.808817" lon="-122.421085"/>
      <trkpt lat="37.808880" lon="-122.421105"/>
      <trkpt lat="37.809056" lon="-122.421286"/>
      <trkpt lat="37.809172" lon="-122.421405"/>
      <trkpt lat="37.809489" lon="-122.421863"/>
      <trkpt lat="37.809809" lon="-122.422297"/>
      <trkpt lat="37.810099" lon="-122.422696"/>
      <trkpt lat="37.810209" lon="-122.422834"/>
      <trkpt lat="37.809032" lon="-122.421183"/>
      <trkpt lat="37.808468" lon="-122.421027"/>
      <trkpt lat="37.808108" lon="-122.420952"/>
      <trkpt lat="37.807991" lon="-122.420861"/>
      <trkpt lat="37.807580" lon="-122.420772"/>
      <trkpt lat="37.807478" lon="-122.421867"/>
      <trkpt lat="37.807148" lon="-122.422725"/>
      <trkpt lat="37.806605" lon="-122.423905"/>
      <trkpt lat="37.806682" lon="-122.425000"/>
      <trkpt lat="37.807097" lon="-122.425890"/>
      <trkpt lat="37.807046" lon="-122.426148"/>
      <trkpt lat="37.808106" lon="-122.426641"/>
      <trkpt lat="37.808886" lon="-122.426781"/>
      <trkpt lat="37.809733" lon="-122.426598"/>
      <trkpt lat="37.810369" lon="-122.426051"/>
      <trkpt lat="37.810750" lon="-122.425042"/>
      <trkpt lat="37.810623" lon="-122.424549"/>
      <trkpt lat="37.810555" lon="-122.424485"/>
      <trkpt lat="37.810750" lon="-122.424785"/>
      <trkpt lat="37.810657" lon="-122.425493"/>
      <trkpt lat="37.810496" lon="-122.425933"/>
      <trkpt lat="37.810081" lon="-122.426394"/>
      <trkpt lat="37.809420" lon="-122.426716"/>
      <trkpt lat="37.808716" lon="-122.426727"/>
      <trkpt lat="37.807877" lon="-122.426598"/>
      <trkpt lat="37.807529" lon="-122.429076"/>
      <trkpt lat="37.807055" lon="-122.432188"/>
      <trkpt lat="37.805809" lon="-122.431995"/>
      <trkpt lat="37.806868" lon="-122.426748"/>
      <trkpt lat="37.806080" lon="-122.425386"/>
      <trkpt lat="37.806148" lon="-122.423755"/>
      <trkpt lat="37.806665" lon="-122.420644"/>
      <trkpt lat="37.805707" lon="-122.420397"/>
      <trkpt lat="37.805096" lon="-122.425375"/>
      <trkpt lat="37.805800" lon="-122.426459"/>
      <trkpt lat="37.804944" lon="-122.431812"/>
      <trkpt lat="37.803850" lon="-122.431566"/>
      <trkpt lat="37.803376" lon="-122.431533"/>
      <trkpt lat="37.804774" lon="-122.420236"/>
      <trkpt lat="37.802926" lon="-122.419871"/>
      <trkpt lat="37.802324" lon="-122.424667"/>
      <trkpt lat="37.803257" lon="-122.424828"/>
      <trkpt lat="37.802367" lon="-122.431544"/>
      <trkpt lat="37.803274" lon="-122.431716"/>
      <trkpt lat="37.805190" lon="-122.432123"/>
      <trkpt lat="37.805020" lon="-122.433754"/>
      <trkpt lat="37.805520" lon="-122.433690"/>
      <trkpt lat="37.805690" lon="-122.433958"/>
      <trkpt lat="37.806927" lon="-122.434269"/>
      <trkpt lat="37.806800" lon="-122.435685"/>
      <trkpt lat="37.807529" lon="-122.435879"/>
      <trkpt lat="37.806605" lon="-122.442584"/>
      <trkpt lat="37.805817" lon="-122.442359"/>
      <trkpt lat="37.805241" lon="-122.447369"/>
      <trkpt lat="37.806529" lon="-122.447627"/>
      <trkpt lat="37.807631" lon="-122.443990"/>
      <trkpt lat="37.807970" lon="-122.442380"/>
      <trkpt lat="37.808250" lon="-122.440610"/>
      <trkpt lat="37.808741" lon="-122.440116"/>
      <trkpt lat="37.808267" lon="-122.440428"/>
      <trkpt lat="37.808012" lon="-122.442455"/>
      <trkpt lat="37.807394" lon="-122.444580"/>
      <trkpt lat="37.807334" lon="-122.446361"/>
      <trkpt lat="37.807309" lon="-122.447165"/>
      <trkpt lat="37.806665" lon="-122.448410"/>
      <trkpt lat="37.806300" lon="-122.451704"/>
      <trkpt lat="37.806410" lon="-122.453367"/>
      <trkpt lat="37.806504" lon="-122.452573"/>
      <trkpt lat="37.805961" lon="-122.452380"/>
      <trkpt lat="37.805698" lon="-122.453742"/>
      <trkpt lat="37.805012" lon="-122.453495"/>
      <trkpt lat="37.806165" lon="-122.448485"/>
      <trkpt lat="37.805096" lon="-122.448324"/>
      <trkpt lat="37.804181" lon="-122.454718"/>
      <trkpt lat="37.803477" lon="-122.460061"/>
      <trkpt lat="37.803367" lon="-122.460244"/>
      <trkpt lat="37.804715" lon="-122.460480"/>
      <trkpt lat="37.805520" lon="-122.454536"/>
      <trkpt lat="37.806190" lon="-122.454461"/>
      <trkpt lat="37.804918" lon="-122.460834"/>
      <trkpt lat="37.804885" lon="-122.463194"/>
      <trkpt lat="37.806775" lon="-122.468602"/>
      <trkpt lat="37.804308" lon="-122.468044"/>
      <trkpt lat="37.803706" lon="-122.467443"/>
      <trkpt lat="37.802901" lon="-122.461488"/>
      <trkpt lat="37.803164" lon="-122.460437"/>
      <trkpt lat="37.803274" lon="-122.451382"/>
      <trkpt lat="37.802257" lon="-122.450781"/>
      <trkpt lat="37.801850" lon="-122.467432"/>
      <trkpt lat="37.808224" lon="-122.470865"/>
      <trkpt lat="37.809309" lon="-122.477045"/>
      <trkpt lat="37.807478" lon="-122.477818"/>
      <trkpt lat="37.802392" lon="-122.479105"/>
      <trkpt lat="37.799205" lon="-122.480822"/>
      <trkpt lat="37.796967" lon="-122.481766"/>
      <trkpt lat="37.794661" lon="-122.482882"/>
      <trkpt lat="37.789981" lon="-122.486057"/>
      <trkpt lat="37.787403" lon="-122.482281"/>
      <trkpt lat="37.792015" lon="-122.446919"/>
      <trkpt lat="37.794118" lon="-122.447004"/>
      <trkpt lat="37.789235" lon="-122.482195"/>
      <trkpt lat="37.791812" lon="-122.482624"/>
      <trkpt lat="37.795949" lon="-122.447348"/>
      <trkpt lat="37.798459" lon="-122.447605"/>
      <trkpt lat="37.793915" lon="-122.481766"/>
      <trkpt lat="37.796492" lon="-122.480993"/>
      <trkpt lat="37.800086" lon="-122.448463"/>
      <trkpt lat="37.801511" lon="-122.449322"/>
      <trkpt lat="37.798730" lon="-122.479191"/>
      <trkpt lat="37.801511" lon="-122.478418"/>
      <trkpt lat="37.801714" lon="-122.470007"/>
      <trkpt lat="37.804834" lon="-122.470522"/>
      <trkpt lat="37.803003" lon="-122.477303"/>
      <trkpt lat="37.805647" lon="-122.476530"/>
      <trkpt lat="37.805715" lon="-122.470779"/>
      <trkpt lat="37.808428" lon="-122.476702"/>
      <trkpt lat="37.806597" lon="-122.477474"/>
      <trkpt lat="37.789777" lon="-122.484255"/>
      <trkpt lat="37.787539" lon="-122.485371"/>
      <trkpt lat="37.780145" lon="-122.484727"/>
      <trkpt lat="37.772614" lon="-122.484255"/>
      <trkpt lat="37.771393" lon="-122.511034"/>
      <trkpt lat="37.770749" lon="-122.511249"/>
      <trkpt lat="37.772343" lon="-122.465973"/>
      <trkpt lat="37.771665" lon="-122.466145"/>
      <trkpt lat="37.769765" lon="-122.510691"/>
      <trkpt lat="37.768747" lon="-122.510519"/>
      <trkpt lat="37.770647" lon="-122.466316"/>
      <trkpt lat="37.769086" lon="-122.466316"/>
      <trkpt lat="37.767390" lon="-122.510519"/>
      <trkpt lat="37.766237" lon="-122.510347"/>
      <trkpt lat="37.768154" lon="-122.466338"/>
      <trkpt lat="37.767407" lon="-122.466338"/>
      <trkpt lat="37.766898" lon="-122.476745"/>
      <trkpt lat="37.765304" lon="-122.510390"/>
      <trkpt lat="37.764167" lon="-122.510476"/>
      <trkpt lat="37.766067" lon="-122.464857"/>
      <trkpt lat="37.773564" lon="-122.465501"/>
      <trkpt lat="37.773564" lon="-122.464342"/>
      <trkpt lat="37.766033" lon="-122.463827"/>
      <trkpt lat="37.766067" lon="-122.462411"/>
      <trkpt lat="37.773768" lon="-122.462454"/>
      <trkpt lat="37.773971" lon="-122.460694"/>
      <trkpt lat="37.766101" lon="-122.460866"/>
      <trkpt lat="37.766406" lon="-122.459192"/>
      <trkpt lat="37.774141" lon="-122.459364"/>
      <trkpt lat="37.774480" lon="-122.457905"/>
      <trkpt lat="37.766101" lon="-122.457776"/>
      <trkpt lat="37.766067" lon="-122.456489"/>
      <trkpt lat="37.774514" lon="-122.456875"/>
      <trkpt lat="37.774718" lon="-122.455630"/>
      <trkpt lat="37.766203" lon="-122.454686"/>
      <trkpt lat="37.766474" lon="-122.453141"/>
      <trkpt lat="37.774718" lon="-122.454815"/>
      <trkpt lat="37.777618" lon="-122.455266"/>
      <trkpt lat="37.778669" lon="-122.447026"/>
      <trkpt lat="37.782350" lon="-122.447734"/>
      <trkpt lat="37.783333" lon="-122.439666"/>
      <trkpt lat="37.783740" lon="-122.437692"/>
      <trkpt lat="37.785232" lon="-122.425933"/>
      <trkpt lat="37.785419" lon="-122.424645"/>
      <trkpt lat="37.785707" lon="-122.421470"/>
      <trkpt lat="37.786352" lon="-122.416406"/>
      <trkpt lat="37.786894" lon="-122.411556"/>
      <trkpt lat="37.788064" lon="-122.402973"/>
      <trkpt lat="37.787721" lon="-122.403429"/>
      <trkpt lat="37.788033" lon="-122.403472"/>
      <trkpt lat="37.788101" lon="-122.402957"/>
      <trkpt lat="37.787734" lon="-122.403424"/>
      <trkpt lat="37.785790" lon="-122.405900"/>
      <trkpt lat="37.785345" lon="-122.405229"/>
      <trkpt lat="37.784582" lon="-122.404293"/>
      <trkpt lat="37.784469" lon="-122.404156"/>
      <trkpt lat="37.784410" lon="-122.404245"/>
      <trkpt lat="37.784073" lon="-122.403818"/>
      <trkpt lat="37.783802" lon="-122.404159"/>
      <trkpt lat="37.784158" lon="-122.404615"/>
      <trkpt lat="37.784380" lon="-122.404336"/>
      <trkpt lat="37.784412" lon="-122.404253"/>
      <trkpt lat="37.784073" lon="-122.403829"/>
      <trkpt lat="37.783810" lon="-122.404159"/>
      <trkpt lat="37.784160" lon="-122.404607"/>
      <trkpt lat="37.784380" lon="-122.404330"/>
      <trkpt lat="37.784408" lon="-122.404255"/>
      <trkpt lat="37.784073" lon="-122.403840"/>
      <trkpt lat="37.783819" lon="-122.404161"/>
      <trkpt lat="37.784160" lon="-122.404599"/>
      <trkpt lat="37.784380" lon="-122.404325"/>
      <trkpt lat="37.784402" lon="-122.404258"/>
      <trkpt lat="37.782746" lon="-122.406428"/>
      <trkpt lat="37.782369" lon="-122.405959"/>
      <trkpt lat="37.783098" lon="-122.405041"/>
      <trkpt lat="37.783149" lon="-122.404977"/>
      <trkpt lat="37.783176" lon="-122.405012"/>
      <trkpt lat="37.783223" lon="-122.405073"/>
      <trkpt lat="37.783270" lon="-122.405135"/>
      <trkpt lat="37.783278" lon="-122.405199"/>
      <trkpt lat="37.783323" lon="-122.405269"/>
      <trkpt lat="37.783356" lon="-122.405307"/>
      <trkpt lat="37.783390" lon="-122.405344"/>
      <trkpt lat="37.783422" lon="-122.405382"/>
      <trkpt lat="37.783454" lon="-122.405419"/>
      <trkpt lat="37.783486" lon="-122.405449"/>
      <trkpt lat="37.783435" lon="-122.405521"/>
      <trkpt lat="37.783382" lon="-122.405591"/>
      <trkpt lat="37.783327" lon="-122.405658"/>
      <trkpt lat="37.783276" lon="-122.405725"/>
      <trkpt lat="37.783234" lon="-122.405685"/>
      <trkpt lat="37.783191" lon="-122.405645"/>
      <trkpt lat="37.783149" lon="-122.405604"/>
      <trkpt lat="37.783106" lon="-122.405564"/>
      <trkpt lat="37.783064" lon="-122.405524"/>
      <trkpt lat="37.783022" lon="-122.405484"/>
      <trkpt lat="37.782979" lon="-122.405444"/>
      <trkpt lat="37.782958" lon="-122.405423"/>
      <trkpt lat="37.782937" lon="-122.405403"/>
      <trkpt lat="37.782916" lon="-122.405383"/>
      <trkpt lat="37.782894" lon="-122.405363"/>
      <trkpt lat="37.782873" lon="-122.405343"/>
      <trkpt lat="37.782866" lon="-122.405338"/>
      <trkpt lat="37.782907" lon="-122.405289"/>
      <trkpt lat="37.782948" lon="-122.405241"/>
      <trkpt lat="37.782990" lon="-122.405193"/>
      <trkpt lat="37.783028" lon="-122.405140"/>
      <trkpt lat="37.783067" lon="-122.405088"/>
      <trkpt lat="37.783106" lon="-122.405036"/>
      <trkpt lat="37.783147" lon="-122.404988"/>
      <trkpt lat="37.783191" lon="-122.405041"/>
      <trkpt lat="37.783235" lon="-122.405095"/>
      <trkpt lat="37.783266" lon="-122.405136"/>
      <trkpt lat="37.783272" lon="-122.405214"/>
      <trkpt lat="37.783305" lon="-122.405267"/>
      <trkpt lat="37.783337" lon="-122.405319"/>
      <trkpt lat="37.783371" lon="-122.405371"/>
      <trkpt lat="37.783395" lon="-122.405391"/>
      <trkpt lat="37.783424" lon="-122.405416"/>
      <trkpt lat="37.783452" lon="-122.405442"/>
      <trkpt lat="37.783470" lon="-122.405462"/>
      <trkpt lat="37.783449" lon="-122.405491"/>
      <trkpt lat="37.783427" lon="-122.405520"/>
      <trkpt lat="37.783406" lon="-122.405549"/>
      <trkpt lat="37.783384" lon="-122.405578"/>
      <trkpt lat="37.783362" lon="-122.405606"/>
      <trkpt lat="37.783341" lon="-122.405635"/>
      <trkpt lat="37.783319" lon="-122.405664"/>
      <trkpt lat="37.783297" lon="-122.405693"/>
      <trkpt lat="37.783275" lon="-122.405722"/>
      <trkpt lat="37.783251" lon="-122.405697"/>
      <trkpt lat="37.783227" lon="-122.405672"/>
      <trkpt lat="37.783202" lon="-122.405647"/>
      <trkpt lat="37.783178" lon="-122.405623"/>
      <trkpt lat="37.783153" lon="-122.405598"/>
      <trkpt lat="37.783129" lon="-122.405573"/>
      <trkpt lat="37.783105" lon="-122.405548"/>
      <trkpt lat="37.783080" lon="-122.405523"/>
      <trkpt lat="37.783265" lon="-122.405217"/>
      <trkpt lat="37.783422" lon="-122.405402"/>
      <trkpt lat="37.783511" lon="-122.405486"/>
      <trkpt lat="37.783681" lon="-122.405226"/>
      <trkpt lat="37.783753" lon="-122.405393"/>
      <trkpt lat="37.783770" lon="-122.405446"/>
      <trkpt lat="37.783685" lon="-122.405586"/>
      <trkpt lat="37.783418" lon="-122.405913"/>
      <trkpt lat="37.783571" lon="-122.406058"/>
      <trkpt lat="37.784028" lon="-122.405355"/>
      <trkpt lat="37.784190" lon="-122.405580"/>
      <trkpt lat="37.783850" lon="-122.406219"/>
      <trkpt lat="37.783990" lon="-122.406444"/>
      <trkpt lat="37.784418" lon="-122.405800"/>
      <trkpt lat="37.784987" lon="-122.406476"/>
      <trkpt lat="37.784821" lon="-122.406728"/>
      <trkpt lat="37.784279" lon="-122.406133"/>
      <trkpt lat="37.784164" lon="-122.406305"/>
      <trkpt lat="37.784626" lon="-122.407018"/>
      <trkpt lat="37.784478" lon="-122.407179"/>
      <trkpt lat="37.783910" lon="-122.406508"/>
      <trkpt lat="37.783778" lon="-122.406664"/>
      <trkpt lat="37.784372" lon="-122.407313"/>
      <trkpt lat="37.784096" lon="-122.407699"/>
      <trkpt lat="37.783694" lon="-122.407157"/>
      <trkpt lat="37.783490" lon="-122.407383"/>
      <trkpt lat="37.783999" lon="-122.408005"/>
      <trkpt lat="37.785042" lon="-122.406707"/>
      <trkpt lat="37.785690" lon="-122.405875"/>
      <trkpt lat="37.788069" lon="-122.402855"/>
      <trkpt lat="37.787980" lon="-122.403783"/>
      <trkpt lat="37.787636" lon="-122.406659"/>
      <trkpt lat="37.787424" lon="-122.408220"/>
      <trkpt lat="37.786487" lon="-122.408043"/>
      <trkpt lat="37.786687" lon="-122.406460"/>
      <trkpt lat="37.787530" lon="-122.406642"/>
      <trkpt lat="37.787446" lon="-122.407463"/>
      <trkpt lat="37.787318" lon="-122.407420"/>
      <trkpt lat="37.787060" lon="-122.407227"/>
      <trkpt lat="37.786983" lon="-122.406680"/>
      <trkpt lat="37.786738" lon="-122.406642"/>
      <trkpt lat="37.786649" lon="-122.407388"/>
      <trkpt lat="37.786877" lon="-122.407694"/>
      <trkpt lat="37.787234" lon="-122.407640"/>
      <trkpt lat="37.787200" lon="-122.406803"/>
      <trkpt lat="37.786814" lon="-122.407275"/>
      <trkpt lat="37.787424" lon="-122.407479"/>
      <trkpt lat="37.787581" lon="-122.407152"/>
      <trkpt lat="37.787772" lon="-122.407190"/>
      <trkpt lat="37.787810" lon="-122.407039"/>
      <trkpt lat="37.788200" lon="-122.407098"/>
      <trkpt lat="37.788098" lon="-122.407984"/>
      <trkpt lat="37.787696" lon="-122.407919"/>
      <trkpt lat="37.787717" lon="-122.407705"/>
      <trkpt lat="37.787522" lon="-122.407646"/>
      <trkpt lat="37.787649" lon="-122.406669"/>
      <trkpt lat="37.788484" lon="-122.406841"/>
      <trkpt lat="37.788276" lon="-122.408370"/>
      <trkpt lat="37.787437" lon="-122.408225"/>
      <trkpt lat="37.786483" lon="-122.408048"/>
      <trkpt lat="37.786873" lon="-122.404931"/>
      <trkpt lat="37.788739" lon="-122.405296"/>
      <trkpt lat="37.788548" lon="-122.406744"/>
      <trkpt lat="37.789413" lon="-122.406943"/>
      <trkpt lat="37.789595" lon="-122.405478"/>
      <trkpt lat="37.790523" lon="-122.405650"/>
      <trkpt lat="37.790335" lon="-122.407139"/>
      <trkpt lat="37.790125" lon="-122.408767"/>
      <trkpt lat="37.789896" lon="-122.410430"/>
      <trkpt lat="37.789065" lon="-122.410269"/>
      <trkpt lat="37.789268" lon="-122.408681"/>
      <trkpt lat="37.788353" lon="-122.408488"/>
      <trkpt lat="37.788132" lon="-122.410044"/>
      <trkpt lat="37.787242" lon="-122.409872"/>
      <trkpt lat="37.786318" lon="-122.409700"/>
      <trkpt lat="37.786860" lon="-122.404754"/>
      <trkpt lat="37.790812" lon="-122.399604"/>
      <trkpt lat="37.792524" lon="-122.397405"/>
      <trkpt lat="37.794423" lon="-122.395012"/>
      <trkpt lat="37.794542" lon="-122.394733"/>
      <trkpt lat="37.793347" lon="-122.393221"/>
      <trkpt lat="37.793720" lon="-122.392727"/>
      <trkpt lat="37.793838" lon="-122.392041"/>
      <trkpt lat="37.793474" lon="-122.391547"/>
      <trkpt lat="37.794508" lon="-122.389745"/>
      <trkpt lat="37.793448" lon="-122.391601"/>
      <trkpt lat="37.793889" lon="-122.392041"/>
      <trkpt lat="37.793779" lon="-122.392234"/>
      <trkpt lat="37.794640" lon="-122.393097"/>
      <trkpt lat="37.795462" lon="-122.393870"/>
      <trkpt lat="37.796106" lon="-122.394455"/>
      <trkpt lat="37.796899" lon="-122.393130"/>
      <trkpt lat="37.796488" lon="-122.393864"/>
      <trkpt lat="37.795576" lon="-122.393038"/>
      <trkpt lat="37.796000" lon="-122.392057"/>
      <trkpt lat="37.796242" lon="-122.391933"/>
      <trkpt lat="37.796021" lon="-122.392024"/>
      <trkpt lat="37.796178" lon="-122.391611"/>
      <trkpt lat="37.795818" lon="-122.391316"/>
      <trkpt lat="37.795322" lon="-122.391933"/>
      <trkpt lat="37.794885" lon="-122.392497"/>
      <trkpt lat="37.795572" lon="-122.393044"/>
      <trkpt lat="37.796450" lon="-122.393854"/>
      <trkpt lat="37.796288" lon="-122.394122"/>
      <trkpt lat="37.794733" lon="-122.392722"/>
      <trkpt lat="37.794517" lon="-122.393087"/>
      <trkpt lat="37.796500" lon="-122.394959"/>
      <trkpt lat="37.796594" lon="-122.394771"/>
      <trkpt lat="37.796734" lon="-122.394755"/>
      <trkpt lat="37.796903" lon="-122.394487"/>
      <trkpt lat="37.797352" lon="-122.393838"/>
      <trkpt lat="37.797704" lon="-122.393430"/>
      <trkpt lat="37.797992" lon="-122.392963"/>
      <trkpt lat="37.798217" lon="-122.393189"/>
      <trkpt lat="37.797653" lon="-122.394213"/>
      <trkpt lat="37.797022" lon="-122.395318"/>
      <trkpt lat="37.797624" lon="-122.395865"/>
      <trkpt lat="37.797908" lon="-122.395329"/>
      <trkpt lat="37.797912" lon="-122.395179"/>
      <trkpt lat="37.798666" lon="-122.393848"/>
      <trkpt lat="37.798764" lon="-122.393913"/>
      <trkpt lat="37.798264" lon="-122.394798"/>
      <trkpt lat="37.797920" lon="-122.395324"/>
      <trkpt lat="37.797632" lon="-122.395881"/>
      <trkpt lat="37.798679" lon="-122.396826"/>
      <trkpt lat="37.800108" lon="-122.394374"/>
      <trkpt lat="37.798692" lon="-122.396831"/>
      <trkpt lat="37.799997" lon="-122.398000"/>
      <trkpt lat="37.800565" lon="-122.398505"/>
      <trkpt lat="37.800769" lon="-122.398118"/>
      <trkpt lat="37.800875" lon="-122.398167"/>
      <trkpt lat="37.801964" lon="-122.396182"/>
      <trkpt lat="37.802545" lon="-122.396745"/>
      <trkpt lat="37.802392" lon="-122.397013"/>
      <trkpt lat="37.802138" lon="-122.397024"/>
      <trkpt lat="37.801100" lon="-122.398982"/>
      <trkpt lat="37.802413" lon="-122.400178"/>
      <trkpt lat="37.803583" lon="-122.401219"/>
      <trkpt lat="37.804367" lon="-122.401954"/>
      <trkpt lat="37.804952" lon="-122.402732"/>
      <trkpt lat="37.805109" lon="-122.402539"/>
      <trkpt lat="37.805135" lon="-122.402410"/>
      <trkpt lat="37.805067" lon="-122.401552"/>
      <trkpt lat="37.805113" lon="-122.401487"/>
      <trkpt lat="37.806198" lon="-122.401316"/>
      <trkpt lat="37.806258" lon="-122.401428"/>
      <trkpt lat="37.805372" lon="-122.402469"/>
      <trkpt lat="37.805304" lon="-122.402501"/>
      <trkpt lat="37.805122" lon="-122.402539"/>
      <trkpt lat="37.804952" lon="-122.402716"/>
      <trkpt lat="37.805626" lon="-122.403649"/>
      <trkpt lat="37.806173" lon="-122.404416"/>
      <trkpt lat="37.806402" lon="-122.404770"/>
      <trkpt lat="37.806775" lon="-122.404411"/>
      <trkpt lat="37.807059" lon="-122.404159"/>
      <trkpt lat="37.807775" lon="-122.403746"/>
      <trkpt lat="37.809674" lon="-122.403263"/>
      <trkpt lat="37.810555" lon="-122.403263"/>
      <trkpt lat="37.813115" lon="-122.404336"/>
      <trkpt lat="37.815590" lon="-122.405634"/>
      <trkpt lat="37.817073" lon="-122.406567"/>
      <trkpt lat="37.819006" lon="-122.408241"/>
      <trkpt lat="37.820904" lon="-122.410280"/>
      <trkpt lat="37.822777" lon="-122.412951"/>
      <trkpt lat="37.824447" lon="-122.416052"/>
      <trkpt lat="37.826040" lon="-122.419603"/>
      <trkpt lat="37.826574" lon="-122.420805"/>
      <trkpt lat="37.826853" lon="-122.421202"/>
      <trkpt lat="37.827209" lon="-122.421695"/>
      <trkpt lat="37.826866" lon="-122.421196"/>
      <trkpt lat="37.826650" lon="-122.421271"/>
      <trkpt lat="37.826239" lon="-122.420697"/>
      <trkpt lat="37.825786" lon="-122.420440"/>
      <trkpt lat="37.825510" lon="-122.420536"/>
      <trkpt lat="37.825226" lon="-122.420783"/>
      <trkpt lat="37.825112" lon="-122.421185"/>
      <trkpt lat="37.825192" lon="-122.421084"/>
      <trkpt lat="37.825561" lon="-122.420762"/>
      <trkpt lat="37.825586" lon="-122.420826"/>
      <trkpt lat="37.825277" lon="-122.421400"/>
      <trkpt lat="37.825256" lon="-122.421749"/>
      <trkpt lat="37.825574" lon="-122.422301"/>
      <trkpt lat="37.825853" lon="-122.422763"/>
      <trkpt lat="37.826053" lon="-122.423363"/>
      <trkpt lat="37.826353" lon="-122.423589"/>
      <trkpt lat="37.826578" lon="-122.423653"/>
      <trkpt lat="37.826586" lon="-122.423556"/>
      <trkpt lat="37.826319" lon="-122.423208"/>
      <trkpt lat="37.826112" lon="-122.422473"/>
      <trkpt lat="37.826069" lon="-122.422140"/>
      <trkpt lat="37.826146" lon="-122.421979"/>
      <trkpt lat="37.826286" lon="-122.422092"/>
      <trkpt lat="37.826485" lon="-122.422205"/>
      <trkpt lat="37.826908" lon="-122.422693"/>
      <trkpt lat="37.827146" lon="-122.423031"/>
      <trkpt lat="37.827290" lon="-122.423133"/>
      <trkpt lat="37.827417" lon="-122.423363"/>
      <trkpt lat="37.827434" lon="-122.423433"/>
      <trkpt lat="37.827345" lon="-122.423487"/>
      <trkpt lat="37.826883" lon="-122.422843"/>
      <trkpt lat="37.826786" lon="-122.422687"/>
      <trkpt lat="37.826544" lon="-122.422414"/>
      <trkpt lat="37.826529" lon="-122.422465"/>
      <trkpt lat="37.826805" lon="-122.422789"/>
      <trkpt lat="37.826769" lon="-122.422838"/>
      <trkpt lat="37.826489" lon="-122.422501"/>
      <trkpt lat="37.826458" lon="-122.422557"/>
      <trkpt lat="37.826645" lon="-122.422781"/>
      <trkpt lat="37.826831" lon="-122.423008"/>
      <trkpt lat="37.826790" lon="-122.423058"/>
      <trkpt lat="37.826599" lon="-122.422828"/>
      <trkpt lat="37.826417" lon="-122.422599"/>
      <trkpt lat="37.826377" lon="-122.422653"/>
      <trkpt lat="37.826562" lon="-122.422869"/>
      <trkpt lat="37.826760" lon="-122.423114"/>
      <trkpt lat="37.826725" lon="-122.423162"/>
      <trkpt lat="37.826519" lon="-122.422925"/>
      <trkpt lat="37.826341" lon="-122.422691"/>
      <trkpt lat="37.826377" lon="-122.422634"/>
      <trkpt lat="37.826308" lon="-122.422543"/>
      <trkpt lat="37.826368" lon="-122.422443"/>
      <trkpt lat="37.826453" lon="-122.422549"/>
      <trkpt lat="37.826638" lon="-122.422783"/>
      <trkpt lat="37.826833" lon="-122.423023"/>
      <trkpt lat="37.826898" lon="-122.423102"/>
      <trkpt lat="37.827022" lon="-122.423261"/>
      <trkpt lat="37.826944" lon="-122.423363"/>
      <trkpt lat="37.826840" lon="-122.423231"/>
      <trkpt lat="37.826862" lon="-122.423127"/>
      <trkpt lat="37.826854" lon="-122.423066"/>
      <trkpt lat="37.826832" lon="-122.423031"/>
      <trkpt lat="37.826665" lon="-122.423224"/>
      <trkpt lat="37.826622" lon="-122.423215"/>
      <trkpt lat="37.826456" lon="-122.423029"/>
      <trkpt lat="37.826477" lon="-122.422997"/>
      <trkpt lat="37.826646" lon="-122.423197"/>
      <trkpt lat="37.826709" lon="-122.423193"/>
      <trkpt lat="37.826779" lon="-122.423122"/>
      <trkpt lat="37.826867" lon="-122.422964"/>
      <trkpt lat="37.826784" lon="-122.422852"/>
      <trkpt lat="37.826833" lon="-122.422753"/>
      <trkpt lat="37.826903" lon="-122.422879"/>
      <trkpt lat="37.827153" lon="-122.423252"/>
      <trkpt lat="37.827170" lon="-122.423000"/>
      <trkpt lat="37.826938" lon="-122.422380"/>
      <trkpt lat="37.826869" lon="-122.422274"/>
      <trkpt lat="37.826925" lon="-122.422237"/>
      <trkpt lat="37.827194" lon="-122.422619"/>
      <trkpt lat="37.827336" lon="-122.422796"/>
      <trkpt lat="37.827471" lon="-122.422999"/>
      <trkpt lat="37.827564" lon="-122.423071"/>
      <trkpt lat="37.827545" lon="-122.422969"/>
      <trkpt lat="37.827361" lon="-122.422572"/>
      <trkpt lat="37.827345" lon="-122.422525"/>
      <trkpt lat="37.827314" lon="-122.422539"/>
      <trkpt lat="37.827250" lon="-122.422453"/>
      <trkpt lat="37.827162" lon="-122.422254"/>
      <trkpt lat="37.827201" lon="-122.422223"/>
      <trkpt lat="37.827308" lon="-122.422415"/>
      <trkpt lat="37.827355" lon="-122.422431"/>
      <trkpt lat="37.827386" lon="-122.422477"/>
      <trkpt lat="37.827354" lon="-122.422518"/>
      <trkpt lat="37.827143" lon="-122.422166"/>
      <trkpt lat="37.827021" lon="-122.421912"/>
      <trkpt lat="37.827061" lon="-122.422013"/>
      <trkpt lat="37.826926" lon="-122.422130"/>
      <trkpt lat="37.826784" lon="-122.421928"/>
      <trkpt lat="37.826562" lon="-122.421546"/>
      <trkpt lat="37.826515" lon="-122.421522"/>
      <trkpt lat="37.826504" lon="-122.421360"/>
      <trkpt lat="37.826619" lon="-122.421344"/>
      <trkpt lat="37.826941" lon="-122.421894"/>
      <trkpt lat="37.826996" lon="-122.422005"/>
      <trkpt lat="37.826979" lon="-122.421840"/>
      <trkpt lat="37.826786" lon="-122.421455"/>
      <trkpt lat="37.826668" lon="-122.421262"/>
      <trkpt lat="37.826787" lon="-122.421122"/>
      <trkpt lat="37.826633" lon="-122.420894"/>
      <trkpt lat="37.826150" lon="-122.419859"/>
      <trkpt lat="37.825940" lon="-122.419400"/>
      <trkpt lat="37.825634" lon="-122.418710"/>
      <trkpt lat="37.825247" lon="-122.417854"/>
      <trkpt lat="37.824690" lon="-122.416612"/>
      <trkpt lat="37.824233" lon="-122.415580"/>
      <trkpt lat="37.823739" lon="-122.414552"/>
      <trkpt lat="37.823370" lon="-122.413901"/>
      <trkpt lat="37.822940" lon="-122.413192"/>
      <trkpt lat="37.822432" lon="-122.412409"/>
      <trkpt lat="37.821832" lon="-122.411500"/>
      <trkpt lat="37.821218" lon="-122.410642"/>
      <trkpt lat="37.820586" lon="-122.409858"/>
      <trkpt lat="37.819980" lon="-122.409193"/>
      <trkpt lat="37.819457" lon="-122.408657"/>
      <trkpt lat="37.818908" lon="-122.408134"/>
      <trkpt lat="37.818400" lon="-122.407672"/>
      <trkpt lat="37.817859" lon="-122.407198"/>
      <trkpt lat="37.817226" lon="-122.406675"/>
      <trkpt lat="37.816584" lon="-122.406221"/>
      <trkpt lat="37.815942" lon="-122.405830"/>
      <trkpt lat="37.815321" lon="-122.405460"/>
      <trkpt lat="37.814698" lon="-122.405130"/>
      <trkpt lat="37.814045" lon="-122.404797"/>
      <trkpt lat="37.813414" lon="-122.404478"/>
      <trkpt lat="37.812778" lon="-122.404191"/>
      <trkpt lat="37.812126" lon="-122.403885"/>
      <trkpt lat="37.811473" lon="-122.403598"/>
      <trkpt lat="37.810822" lon="-122.403351"/>
      <trkpt lat="37.810197" lon="-122.403233"/>
      <trkpt lat="37.809759" lon="-122.403239"/>
      <trkpt lat="37.809165" lon="-122.403351"/>
      <trkpt lat="37.808557" lon="-122.403510"/>
      <trkpt lat="37.807987" lon="-122.403679"/>
      <trkpt lat="37.807576" lon="-122.403848"/>
      <trkpt lat="37.807156" lon="-122.404094"/>
      <trkpt lat="37.807114" lon="-122.404116"/>
      <trkpt lat="37.807086" lon="-122.404129"/>
      <trkpt lat="37.807057" lon="-122.404156"/>
      <trkpt lat="37.806754" lon="-122.404384"/>
      <trkpt lat="37.806961" lon="-122.404794"/>
      <trkpt lat="37.807591" lon="-122.404513"/>
      <trkpt lat="37.808214" lon="-122.404231"/>
      <trkpt lat="37.808684" lon="-122.404009"/>
      <trkpt lat="37.808824" lon="-122.404387"/>
      <trkpt lat="37.808231" lon="-122.404660"/>
      <trkpt lat="37.807620" lon="-122.404955"/>
      <trkpt lat="37.806881" lon="-122.405291"/>
      <trkpt lat="37.806826" lon="-122.405554"/>
      <trkpt lat="37.807042" lon="-122.406031"/>
      <trkpt lat="37.808322" lon="-122.406133"/>
      <trkpt lat="37.809534" lon="-122.406219"/>
      <trkpt lat="37.809954" lon="-122.406251"/>
      <trkpt lat="37.809920" lon="-122.406701"/>
      <trkpt lat="37.808644" lon="-122.406653"/>
      <trkpt lat="37.807673" lon="-122.406557"/>
      <trkpt lat="37.808275" lon="-122.408397"/>
      <trkpt lat="37.808521" lon="-122.408971"/>
      <trkpt lat="37.808373" lon="-122.409105"/>
      <trkpt lat="37.808470" lon="-122.409625"/>
      <trkpt lat="37.808525" lon="-122.410151"/>
      <trkpt lat="37.809182" lon="-122.410001"/>
      <trkpt lat="37.810157" lon="-122.410483"/>
      <trkpt lat="37.810776" lon="-122.410762"/>
      <trkpt lat="37.811017" lon="-122.410730"/>
      <trkpt lat="37.810322" lon="-122.410424"/>
      <trkpt lat="37.809542" lon="-122.410054"/>
      <trkpt lat="37.808809" lon="-122.409689"/>
      <trkpt lat="37.808767" lon="-122.409598"/>
      <trkpt lat="37.809157" lon="-122.409475"/>
      <trkpt lat="37.809186" lon="-122.409668"/>
      <trkpt lat="37.810081" lon="-122.410215"/>
      <trkpt lat="37.810365" lon="-122.410221"/>
      <trkpt lat="37.810920" lon="-122.410103"/>
      <trkpt lat="37.811305" lon="-122.410253"/>
      <trkpt lat="37.811344" lon="-122.410359"/>
    </trkseg>
  </trk>
</gpx>
