<?xml version="1.0" encoding="UTF-8"?>
<gpx xmlns="http://www.topografix.com/GPX/1/1" version="1.1" creator="GPS Visualizer http://www.gpsvisualizer.com/">
  <trk>
    <trkseg>
      <trkpt lat="37.808734" lon="-122.409707"/>
      <trkpt lat="37.808465" lon="-122.409400"/>
      <trkpt lat="37.808043" lon="-122.409197"/>
      <trkpt lat="37.808335" lon="-122.408449"/>
      <trkpt lat="37.808021" lon="-122.408100"/>
      <trkpt lat="37.807660" lon="-122.407575"/>
      <trkpt lat="37.807566" lon="-122.406862"/>
      <trkpt lat="37.807176" lon="-122.406373"/>
      <trkpt lat="37.807150" lon="-122.406110"/>
      <trkpt lat="37.806595" lon="-122.407446"/>
      <trkpt lat="37.805568" lon="-122.407393"/>
      <trkpt lat="37.805472" lon="-122.408079"/>
      <trkpt lat="37.804854" lon="-122.408352"/>
      <trkpt lat="37.803771" lon="-122.408286"/>
      <trkpt lat="37.803529" lon="-122.408098"/>
      <trkpt lat="37.802603" lon="-122.407939"/>
      <trkpt lat="37.802420" lon="-122.407890"/>
      <trkpt lat="37.802575" lon="-122.407135"/>
      <trkpt lat="37.802655" lon="-122.406759"/>
      <trkpt lat="37.802605" lon="-122.405829"/>
      <trkpt lat="37.802952" lon="-122.404961"/>
      <trkpt lat="37.803008" lon="-122.404618"/>
      <trkpt lat="37.803803" lon="-122.405233"/>
      <trkpt lat="37.804386" lon="-122.405392"/>
      <trkpt lat="37.804100" lon="-122.404522"/>
      <trkpt lat="37.804130" lon="-122.403779"/>
      <trkpt lat="37.804010" lon="-122.402789"/>
      <trkpt lat="37.804480" lon="-122.402037"/>
      <trkpt lat="37.804226" lon="-122.401789"/>
      <trkpt lat="37.804865" lon="-122.403391"/>
      <trkpt lat="37.805275" lon="-122.403136"/>
      <trkpt lat="37.805812" lon="-122.404675"/>
      <trkpt lat="37.806363" lon="-122.404655"/>
      <trkpt lat="37.806567" lon="-122.404518"/>
      <trkpt lat="37.806623" lon="-122.404132"/>
      <trkpt lat="37.807826" lon="-122.402422"/>
      <trkpt lat="37.803525" lon="-122.406465"/>
      <trkpt lat="37.803368" lon="-122.406280"/>
      <trkpt lat="37.803330" lon="-122.409702"/>
      <trkpt lat="37.804266" lon="-122.409869"/>
      <trkpt lat="37.805035" lon="-122.410028"/>
      <trkpt lat="37.805648" lon="-122.409689"/>
      <trkpt lat="37.805980" lon="-122.410150"/>
      <trkpt lat="37.807125" lon="-122.410639"/>
      <trkpt lat="37.808248" lon="-122.410796"/>
      <trkpt lat="37.808741" lon="-122.410739"/>
      <trkpt lat="37.808971" lon="-122.410244"/>
      <trkpt lat="37.808599" lon="-122.410172"/>
      <trkpt lat="37.809260" lon="-122.409761"/>
      <trkpt lat="37.809642" lon="-122.410227"/>
      <trkpt lat="37.809778" lon="-122.410630"/>
      <trkpt lat="37.810210" lon="-122.410593"/>
      <trkpt lat="37.810572" lon="-122.411009"/>
      <trkpt lat="37.811176" lon="-122.410916"/>
      <trkpt lat="37.811184" lon="-122.410199"/>
      <trkpt lat="37.810514" lon="-122.412759"/>
      <trkpt lat="37.809248" lon="-122.413307"/>
      <trkpt lat="37.809157" lon="-122.412839"/>
      <trkpt lat="37.808637" lon="-122.412322"/>
      <trkpt lat="37.808581" lon="-122.411532"/>
      <trkpt lat="37.809286" lon="-122.411648"/>
      <trkpt lat="37.808216" lon="-122.413302"/>
      <trkpt lat="37.808005" lon="-122.413466"/>
      <trkpt lat="37.807755" lon="-122.413060"/>
      <trkpt lat="37.807317" lon="-122.414201"/>
      <trkpt lat="37.806728" lon="-122.413499"/>
      <trkpt lat="37.805496" lon="-122.413789"/>
      <trkpt lat="37.805299" lon="-122.413735"/>
      <trkpt lat="37.804585" lon="-122.413702"/>
      <trkpt lat="37.803593" lon="-122.414005"/>
      <trkpt lat="37.803430" lon="-122.414971"/>
      <trkpt lat="37.803784" lon="-122.415411"/>
      <trkpt lat="37.804456" lon="-122.416395"/>
      <trkpt lat="37.805378" lon="-122.416613"/>
      <trkpt lat="37.805642" lon="-122.417364"/>
      <trkpt lat="37.804966" lon="-122.417500"/>
      <trkpt lat="37.805025" lon="-122.417882"/>
      <trkpt lat="37.803504" lon="-122.418158"/>
      <trkpt lat="37.802889" lon="-122.418023"/>
      <trkpt lat="37.803333" lon="-122.417370"/>
      <trkpt lat="37.803426" lon="-122.416644"/>
      <trkpt lat="37.802731" lon="-122.414810"/>
      <trkpt lat="37.802778" lon="-122.414184"/>
      <trkpt lat="37.802762" lon="-122.412922"/>
      <trkpt lat="37.802743" lon="-122.412068"/>
      <trkpt lat="37.802902" lon="-122.411921"/>
      <trkpt lat="37.803702" lon="-122.412619"/>
      <trkpt lat="37.803834" lon="-122.411525"/>
      <trkpt lat="37.804712" lon="-122.411633"/>
      <trkpt lat="37.805000" lon="-122.411668"/>
      <trkpt lat="37.805658" lon="-122.411862"/>
      <trkpt lat="37.805344" lon="-122.415115"/>
      <trkpt lat="37.805359" lon="-122.415242"/>
      <trkpt lat="37.805974" lon="-122.415691"/>
      <trkpt lat="37.806399" lon="-122.415817"/>
      <trkpt lat="37.807188" lon="-122.415443"/>
      <trkpt lat="37.807980" lon="-122.415963"/>
      <trkpt lat="37.808400" lon="-122.415709"/>
      <trkpt lat="37.808699" lon="-122.415566"/>
      <trkpt lat="37.809125" lon="-122.415250"/>
      <trkpt lat="37.809241" lon="-122.415908"/>
      <trkpt lat="37.809607" lon="-122.416184"/>
      <trkpt lat="37.809758" lon="-122.416414"/>
      <trkpt lat="37.809997" lon="-122.416485"/>
      <trkpt lat="37.810430" lon="-122.417439"/>
      <trkpt lat="37.810787" lon="-122.417663"/>
      <trkpt lat="37.809082" lon="-122.418077"/>
      <trkpt lat="37.808834" lon="-122.417952"/>
      <trkpt lat="37.809074" lon="-122.417287"/>
      <trkpt lat="37.808904" lon="-122.416816"/>
      <trkpt lat="37.808104" lon="-122.417486"/>
      <trkpt lat="37.807665" lon="-122.417557"/>
      <trkpt lat="37.807475" lon="-122.417493"/>
      <trkpt lat="37.807899" lon="-122.418105"/>
      <trkpt lat="37.806926" lon="-122.418068"/>
      <trkpt lat="37.807706" lon="-122.416596"/>
      <trkpt lat="37.808200" lon="-122.415381"/>
      <trkpt lat="37.808244" lon="-122.414745"/>
      <trkpt lat="37.809015" lon="-122.414513"/>
      <trkpt lat="37.801840" lon="-122.412224"/>
      <trkpt lat="37.801554" lon="-122.411659"/>
      <trkpt lat="37.801358" lon="-122.411187"/>
      <trkpt lat="37.800946" lon="-122.411355"/>
      <trkpt lat="37.801383" lon="-122.410176"/>
      <trkpt lat="37.801495" lon="-122.409297"/>
      <trkpt lat="37.801291" lon="-122.412697"/>
      <trkpt lat="37.801379" lon="-122.417709"/>
    </trkseg>
  </trk>
</gpx>
