<?xml version="1.0" encoding="UTF-8"?>
<gpx xmlns="http://www.topografix.com/GPX/1/1" version="1.1">
  <trk>
    <name>River North, Chicago, Illinois</name>
    <desc>United States</desc>
    <trkseg>
      <trkpt lat="41.893300" lon="-87.628690"/>
      <trkpt lat="41.893320" lon="-87.628780"/>
      <trkpt lat="41.893380" lon="-87.628220"/>
      <trkpt lat="41.892930" lon="-87.628300"/>
      <trkpt lat="41.892630" lon="-87.628370"/>
      <trkpt lat="41.892580" lon="-87.627810"/>
      <trkpt lat="41.892320" lon="-87.627980"/>
      <trkpt lat="41.891580" lon="-87.628200"/>
      <trkpt lat="41.891500" lon="-87.627800"/>
      <trkpt lat="41.891540" lon="-87.626950"/>
      <trkpt lat="41.891780" lon="-87.626850"/>
      <trkpt lat="41.892390" lon="-87.626900"/>
      <trkpt lat="41.892860" lon="-87.626820"/>
      <trkpt lat="41.893130" lon="-87.626600"/>
      <trkpt lat="41.893450" lon="-87.626610"/>
      <trkpt lat="41.893840" lon="-87.627100"/>
      <trkpt lat="41.893980" lon="-87.627430"/>
      <trkpt lat="41.894230" lon="-87.626540"/>
      <trkpt lat="41.894550" lon="-87.626680"/>
      <trkpt lat="41.894710" lon="-87.626480"/>
      <trkpt lat="41.894650" lon="-87.625720"/>
      <trkpt lat="41.894820" lon="-87.625270"/>
      <trkpt lat="41.895320" lon="-87.625320"/>
      <trkpt lat="41.895580" lon="-87.625640"/>
      <trkpt lat="41.895850" lon="-87.625550"/>
      <trkpt lat="41.895810" lon="-87.625010"/>
      <trkpt lat="41.895950" lon="-87.624480"/>
      <trkpt lat="41.896040" lon="-87.624030"/>
      <trkpt lat="41.895550" lon="-87.624430"/>
      <trkpt lat="41.895310" lon="-87.624470"/>
      <trkpt lat="41.895440" lon="-87.623890"/>
      <trkpt lat="41.895040" lon="-87.623800"/>
      <trkpt lat="41.894360" lon="-87.624000"/>
      <trkpt lat="41.894400" lon="-87.624440"/>
      <trkpt lat="41.894190" lon="-87.625190"/>
      <trkpt lat="41.893640" lon="-87.624390"/>
      <trkpt lat="41.893480" lon="-87.623950"/>
      <trkpt lat="41.893230" lon="-87.623300"/>
      <trkpt lat="41.893420" lon="-87.623170"/>
      <trkpt lat="41.892920" lon="-87.623080"/>
      <trkpt lat="41.893140" lon="-87.622350"/>
      <trkpt lat="41.893500" lon="-87.621730"/>
      <trkpt lat="41.893510" lon="-87.621180"/>
      <trkpt lat="41.892950" lon="-87.620350"/>
      <trkpt lat="41.892780" lon="-87.619780"/>
      <trkpt lat="41.891640" lon="-87.619300"/>
      <trkpt lat="41.891110" lon="-87.619120"/>
      <trkpt lat="41.890270" lon="-87.619890"/>
      <trkpt lat="41.889930" lon="-87.618850"/>
      <trkpt lat="41.889020" lon="-87.619730"/>
      <trkpt lat="41.889090" lon="-87.620280"/>
      <trkpt lat="41.888970" lon="-87.620990"/>
      <trkpt lat="41.889350" lon="-87.621360"/>
      <trkpt lat="41.889610" lon="-87.621740"/>
      <trkpt lat="41.889470" lon="-87.622000"/>
      <trkpt lat="41.889880" lon="-87.621490"/>
      <trkpt lat="41.890130" lon="-87.622780"/>
      <trkpt lat="41.890230" lon="-87.623360"/>
      <trkpt lat="41.889800" lon="-87.623360"/>
      <trkpt lat="41.889710" lon="-87.623660"/>
      <trkpt lat="41.889350" lon="-87.623090"/>
      <trkpt lat="41.889230" lon="-87.624120"/>
      <trkpt lat="41.889410" lon="-87.624780"/>
      <trkpt lat="41.889410" lon="-87.625230"/>
      <trkpt lat="41.889490" lon="-87.625720"/>
      <trkpt lat="41.889180" lon="-87.625780"/>
      <trkpt lat="41.889780" lon="-87.626110"/>
      <trkpt lat="41.890190" lon="-87.626770"/>
      <trkpt lat="41.890150" lon="-87.627470"/>
      <trkpt lat="41.890320" lon="-87.627840"/>
      <trkpt lat="41.890770" lon="-87.627160"/>
      <trkpt lat="41.891170" lon="-87.626620"/>
      <trkpt lat="41.890460" lon="-87.625620"/>
      <trkpt lat="41.890980" lon="-87.625220"/>
      <trkpt lat="41.891340" lon="-87.624470"/>
      <trkpt lat="41.891630" lon="-87.624460"/>
      <trkpt lat="41.891790" lon="-87.623890"/>
      <trkpt lat="41.891400" lon="-87.623870"/>
      <trkpt lat="41.891320" lon="-87.623870"/>
      <trkpt lat="41.890800" lon="-87.623870"/>
      <trkpt lat="41.890860" lon="-87.623500"/>
      <trkpt lat="41.890590" lon="-87.624270"/>
      <trkpt lat="41.890470" lon="-87.624340"/>
      <trkpt lat="41.890120" lon="-87.624430"/>
      <trkpt lat="41.890090" lon="-87.624850"/>
      <trkpt lat="41.888440" lon="-87.625090"/>
      <trkpt lat="41.888150" lon="-87.625140"/>
      <trkpt lat="41.888180" lon="-87.625790"/>
      <trkpt lat="41.887700" lon="-87.626220"/>
      <trkpt lat="41.887540" lon="-87.625630"/>
      <trkpt lat="41.887720" lon="-87.624430"/>
      <trkpt lat="41.888030" lon="-87.624340"/>
      <trkpt lat="41.888000" lon="-87.624000"/>
      <trkpt lat="41.888390" lon="-87.624240"/>
      <trkpt lat="41.888470" lon="-87.623980"/>
      <trkpt lat="41.888370" lon="-87.623500"/>
      <trkpt lat="41.887680" lon="-87.622510"/>
      <trkpt lat="41.887880" lon="-87.621850"/>
      <trkpt lat="41.887820" lon="-87.621300"/>
      <trkpt lat="41.887610" lon="-87.620870"/>
      <trkpt lat="41.887350" lon="-87.621650"/>
      <trkpt lat="41.887030" lon="-87.621580"/>
      <trkpt lat="41.886490" lon="-87.620910"/>
      <trkpt lat="41.887550" lon="-87.619780"/>
      <trkpt lat="41.888140" lon="-87.620210"/>
      <trkpt lat="41.890980" lon="-87.621800"/>
      <trkpt lat="41.891080" lon="-87.622380"/>
      <trkpt lat="41.892470" lon="-87.622410"/>
      <trkpt lat="41.892650" lon="-87.621910"/>
      <trkpt lat="41.893850" lon="-87.622810"/>
      <trkpt lat="41.894030" lon="-87.622820"/>
      <trkpt lat="41.893980" lon="-87.623150"/>
      <trkpt lat="41.894000" lon="-87.622450"/>
      <trkpt lat="41.894070" lon="-87.622170"/>
      <trkpt lat="41.894550" lon="-87.622620"/>
      <trkpt lat="41.894810" lon="-87.621080"/>
      <trkpt lat="41.894650" lon="-87.621020"/>
      <trkpt lat="41.894400" lon="-87.620840"/>
      <trkpt lat="41.894250" lon="-87.620430"/>
      <trkpt lat="41.894910" lon="-87.620490"/>
      <trkpt lat="41.895850" lon="-87.620530"/>
      <trkpt lat="41.895900" lon="-87.620220"/>
      <trkpt lat="41.895620" lon="-87.619510"/>
      <trkpt lat="41.895420" lon="-87.619010"/>
      <trkpt lat="41.895760" lon="-87.618800"/>
      <trkpt lat="41.896610" lon="-87.618760"/>
      <trkpt lat="41.896710" lon="-87.618490"/>
      <trkpt lat="41.897480" lon="-87.618550"/>
      <trkpt lat="41.897530" lon="-87.619980"/>
      <trkpt lat="41.896930" lon="-87.620840"/>
      <trkpt lat="41.897190" lon="-87.621440"/>
      <trkpt lat="41.896890" lon="-87.621790"/>
      <trkpt lat="41.897020" lon="-87.622040"/>
      <trkpt lat="41.896980" lon="-87.622620"/>
      <trkpt lat="41.896950" lon="-87.623070"/>
      <trkpt lat="41.897480" lon="-87.623080"/>
      <trkpt lat="41.897520" lon="-87.622660"/>
      <trkpt lat="41.897800" lon="-87.623320"/>
      <trkpt lat="41.897740" lon="-87.623820"/>
      <trkpt lat="41.897890" lon="-87.623910"/>
      <trkpt lat="41.897840" lon="-87.624470"/>
      <trkpt lat="41.898240" lon="-87.624310"/>
      <trkpt lat="41.898710" lon="-87.624350"/>
      <trkpt lat="41.899010" lon="-87.624360"/>
      <trkpt lat="41.899560" lon="-87.624320"/>
      <trkpt lat="41.899620" lon="-87.623930"/>
      <trkpt lat="41.899870" lon="-87.623400"/>
      <trkpt lat="41.900680" lon="-87.623690"/>
      <trkpt lat="41.901100" lon="-87.623580"/>
      <trkpt lat="41.901180" lon="-87.624300"/>
      <trkpt lat="41.900600" lon="-87.624360"/>
      <trkpt lat="41.900880" lon="-87.625350"/>
      <trkpt lat="41.900660" lon="-87.625560"/>
      <trkpt lat="41.900890" lon="-87.625820"/>
      <trkpt lat="41.900920" lon="-87.626640"/>
      <trkpt lat="41.900950" lon="-87.627410"/>
      <trkpt lat="41.901190" lon="-87.627820"/>
      <trkpt lat="41.901550" lon="-87.628580"/>
      <trkpt lat="41.901970" lon="-87.628210"/>
      <trkpt lat="41.901240" lon="-87.630040"/>
      <trkpt lat="41.900660" lon="-87.631190"/>
      <trkpt lat="41.900190" lon="-87.631450"/>
      <trkpt lat="41.899870" lon="-87.630610"/>
      <trkpt lat="41.900110" lon="-87.630280"/>
      <trkpt lat="41.900170" lon="-87.629710"/>
      <trkpt lat="41.900020" lon="-87.628530"/>
      <trkpt lat="41.899710" lon="-87.627920"/>
      <trkpt lat="41.899230" lon="-87.627550"/>
      <trkpt lat="41.899080" lon="-87.627920"/>
      <trkpt lat="41.898790" lon="-87.628020"/>
      <trkpt lat="41.899040" lon="-87.628820"/>
      <trkpt lat="41.898090" lon="-87.628760"/>
      <trkpt lat="41.897660" lon="-87.628430"/>
      <trkpt lat="41.897400" lon="-87.627580"/>
      <trkpt lat="41.897430" lon="-87.627100"/>
      <trkpt lat="41.897390" lon="-87.626630"/>
      <trkpt lat="41.896840" lon="-87.626720"/>
      <trkpt lat="41.896810" lon="-87.626540"/>
      <trkpt lat="41.896550" lon="-87.627360"/>
      <trkpt lat="41.896730" lon="-87.627900"/>
      <trkpt lat="41.896750" lon="-87.628510"/>
      <trkpt lat="41.896810" lon="-87.629650"/>
      <trkpt lat="41.897090" lon="-87.629990"/>
      <trkpt lat="41.897650" lon="-87.629930"/>
      <trkpt lat="41.897140" lon="-87.631080"/>
      <trkpt lat="41.896310" lon="-87.631110"/>
      <trkpt lat="41.895890" lon="-87.631350"/>
      <trkpt lat="41.895160" lon="-87.631380"/>
      <trkpt lat="41.894730" lon="-87.631620"/>
      <trkpt lat="41.894140" lon="-87.631400"/>
      <trkpt lat="41.893480" lon="-87.631750"/>
      <trkpt lat="41.893130" lon="-87.631920"/>
      <trkpt lat="41.893080" lon="-87.631560"/>
      <trkpt lat="41.892520" lon="-87.630990"/>
      <trkpt lat="41.891970" lon="-87.631280"/>
      <trkpt lat="41.891300" lon="-87.630980"/>
      <trkpt lat="41.890670" lon="-87.630960"/>
      <trkpt lat="41.890200" lon="-87.631260"/>
      <trkpt lat="41.889920" lon="-87.631220"/>
      <trkpt lat="41.890090" lon="-87.631610"/>
      <trkpt lat="41.890160" lon="-87.630820"/>
      <trkpt lat="41.890110" lon="-87.630300"/>
      <trkpt lat="41.890710" lon="-87.629780"/>
      <trkpt lat="41.890930" lon="-87.629780"/>
      <trkpt lat="41.891540" lon="-87.629540"/>
      <trkpt lat="41.891980" lon="-87.629380"/>
      <trkpt lat="41.891950" lon="-87.629950"/>
      <trkpt lat="41.892680" lon="-87.629820"/>
      <trkpt lat="41.893090" lon="-87.629280"/>
      <trkpt lat="41.893380" lon="-87.629900"/>
      <trkpt lat="41.893900" lon="-87.629890"/>
      <trkpt lat="41.894220" lon="-87.629300"/>
      <trkpt lat="41.895120" lon="-87.629870"/>
      <trkpt lat="41.895490" lon="-87.629890"/>
      <trkpt lat="41.895280" lon="-87.628330"/>
      <trkpt lat="41.894940" lon="-87.627660"/>
      <trkpt lat="41.895800" lon="-87.626920"/>
      <trkpt lat="41.896030" lon="-87.626730"/>
      <trkpt lat="41.895940" lon="-87.627970"/>
      <trkpt lat="41.896840" lon="-87.625120"/>
      <trkpt lat="41.897220" lon="-87.625040"/>
      <trkpt lat="41.897190" lon="-87.624520"/>
      <trkpt lat="41.896840" lon="-87.624510"/>
      <trkpt lat="41.897030" lon="-87.623920"/>
      <trkpt lat="41.895840" lon="-87.623040"/>
      <trkpt lat="41.895890" lon="-87.621230"/>
      <trkpt lat="41.896580" lon="-87.621510"/>
      <trkpt lat="41.896600" lon="-87.620190"/>
      <trkpt lat="41.896580" lon="-87.619750"/>
      <trkpt lat="41.898310" lon="-87.621230"/>
      <trkpt lat="41.898530" lon="-87.622270"/>
      <trkpt lat="41.898310" lon="-87.622540"/>
      <trkpt lat="41.898800" lon="-87.623000"/>
      <trkpt lat="41.899060" lon="-87.622920"/>
      <trkpt lat="41.898640" lon="-87.623740"/>
      <trkpt lat="41.898470" lon="-87.625290"/>
      <trkpt lat="41.898240" lon="-87.625350"/>
      <trkpt lat="41.898220" lon="-87.626160"/>
      <trkpt lat="41.898480" lon="-87.626550"/>
      <trkpt lat="41.898470" lon="-87.626810"/>
      <trkpt lat="41.899090" lon="-87.626870"/>
      <trkpt lat="41.900060" lon="-87.626410"/>
      <trkpt lat="41.899280" lon="-87.625210"/>
      <trkpt lat="41.897740" lon="-87.625940"/>
      <trkpt lat="41.899260" lon="-87.630590"/>
      <trkpt lat="41.899240" lon="-87.631140"/>
      <trkpt lat="41.899800" lon="-87.632550"/>
      <trkpt lat="41.899960" lon="-87.633070"/>
      <trkpt lat="41.899650" lon="-87.633100"/>
      <trkpt lat="41.898600" lon="-87.633010"/>
      <trkpt lat="41.898030" lon="-87.633020"/>
      <trkpt lat="41.898090" lon="-87.633720"/>
      <trkpt lat="41.898530" lon="-87.633810"/>
      <trkpt lat="41.898260" lon="-87.634890"/>
      <trkpt lat="41.898680" lon="-87.635870"/>
      <trkpt lat="41.898870" lon="-87.636460"/>
      <trkpt lat="41.898240" lon="-87.636410"/>
      <trkpt lat="41.898090" lon="-87.636990"/>
      <trkpt lat="41.898240" lon="-87.637430"/>
      <trkpt lat="41.897660" lon="-87.637120"/>
      <trkpt lat="41.897290" lon="-87.638230"/>
      <trkpt lat="41.896660" lon="-87.639090"/>
      <trkpt lat="41.894820" lon="-87.639090"/>
      <trkpt lat="41.894440" lon="-87.637550"/>
      <trkpt lat="41.894170" lon="-87.637520"/>
      <trkpt lat="41.894030" lon="-87.636510"/>
      <trkpt lat="41.894480" lon="-87.636390"/>
      <trkpt lat="41.894360" lon="-87.635480"/>
      <trkpt lat="41.894250" lon="-87.634750"/>
      <trkpt lat="41.894060" lon="-87.634800"/>
      <trkpt lat="41.893560" lon="-87.634300"/>
      <trkpt lat="41.893970" lon="-87.633530"/>
      <trkpt lat="41.894090" lon="-87.632860"/>
      <trkpt lat="41.894550" lon="-87.633220"/>
      <trkpt lat="41.895020" lon="-87.634300"/>
      <trkpt lat="41.895240" lon="-87.634940"/>
      <trkpt lat="41.895490" lon="-87.634690"/>
      <trkpt lat="41.895640" lon="-87.635300"/>
      <trkpt lat="41.895340" lon="-87.635580"/>
      <trkpt lat="41.896000" lon="-87.634960"/>
      <trkpt lat="41.895990" lon="-87.634320"/>
      <trkpt lat="41.895720" lon="-87.634010"/>
      <trkpt lat="41.895810" lon="-87.632480"/>
      <trkpt lat="41.897070" lon="-87.632970"/>
      <trkpt lat="41.897440" lon="-87.633010"/>
      <trkpt lat="41.897570" lon="-87.633930"/>
      <trkpt lat="41.896700" lon="-87.634860"/>
      <trkpt lat="41.896440" lon="-87.635650"/>
      <trkpt lat="41.896390" lon="-87.635880"/>
      <trkpt lat="41.896450" lon="-87.636120"/>
      <trkpt lat="41.895470" lon="-87.637000"/>
      <trkpt lat="41.893000" lon="-87.637530"/>
      <trkpt lat="41.892260" lon="-87.637500"/>
      <trkpt lat="41.892190" lon="-87.636400"/>
      <trkpt lat="41.892210" lon="-87.635170"/>
      <trkpt lat="41.892540" lon="-87.634920"/>
      <trkpt lat="41.892490" lon="-87.634220"/>
      <trkpt lat="41.892130" lon="-87.633970"/>
      <trkpt lat="41.891510" lon="-87.633330"/>
      <trkpt lat="41.891160" lon="-87.633920"/>
      <trkpt lat="41.891250" lon="-87.634230"/>
      <trkpt lat="41.890910" lon="-87.633610"/>
      <trkpt lat="41.890270" lon="-87.633920"/>
      <trkpt lat="41.890670" lon="-87.634700"/>
      <trkpt lat="41.890850" lon="-87.635760"/>
      <trkpt lat="41.890640" lon="-87.636320"/>
      <trkpt lat="41.890600" lon="-87.636670"/>
      <trkpt lat="41.889770" lon="-87.637160"/>
      <trkpt lat="41.889290" lon="-87.636880"/>
      <trkpt lat="41.889210" lon="-87.637390"/>
      <trkpt lat="41.889260" lon="-87.638410"/>
      <trkpt lat="41.889800" lon="-87.638350"/>
      <trkpt lat="41.890140" lon="-87.638540"/>
      <trkpt lat="41.890170" lon="-87.638210"/>
      <trkpt lat="41.888420" lon="-87.638250"/>
      <trkpt lat="41.888480" lon="-87.638830"/>
      <trkpt lat="41.888720" lon="-87.636430"/>
      <trkpt lat="41.888670" lon="-87.635740"/>
      <trkpt lat="41.888270" lon="-87.635920"/>
      <trkpt lat="41.887850" lon="-87.635780"/>
      <trkpt lat="41.887830" lon="-87.636030"/>
      <trkpt lat="41.887850" lon="-87.635090"/>
      <trkpt lat="41.888270" lon="-87.634610"/>
      <trkpt lat="41.888660" lon="-87.634530"/>
      <trkpt lat="41.888910" lon="-87.634170"/>
      <trkpt lat="41.889050" lon="-87.633880"/>
      <trkpt lat="41.889060" lon="-87.633170"/>
      <trkpt lat="41.889460" lon="-87.632820"/>
      <trkpt lat="41.889880" lon="-87.632390"/>
      <trkpt lat="41.890440" lon="-87.632790"/>
      <trkpt lat="41.889300" lon="-87.630950"/>
      <trkpt lat="41.888420" lon="-87.631170"/>
      <trkpt lat="41.887840" lon="-87.631140"/>
      <trkpt lat="41.887810" lon="-87.631710"/>
      <trkpt lat="41.887770" lon="-87.632240"/>
      <trkpt lat="41.887980" lon="-87.632350"/>
      <trkpt lat="41.888590" lon="-87.632720"/>
      <trkpt lat="41.888000" lon="-87.633330"/>
      <trkpt lat="41.888160" lon="-87.633760"/>
      <trkpt lat="41.887090" lon="-87.633740"/>
      <trkpt lat="41.887030" lon="-87.634580"/>
      <trkpt lat="41.887090" lon="-87.635460"/>
      <trkpt lat="41.886540" lon="-87.635590"/>
      <trkpt lat="41.886330" lon="-87.635960"/>
      <trkpt lat="41.885630" lon="-87.634300"/>
      <trkpt lat="41.885410" lon="-87.633850"/>
      <trkpt lat="41.885560" lon="-87.633380"/>
      <trkpt lat="41.885600" lon="-87.632650"/>
      <trkpt lat="41.885760" lon="-87.631660"/>
      <trkpt lat="41.885130" lon="-87.631690"/>
      <trkpt lat="41.884990" lon="-87.631590"/>
      <trkpt lat="41.884720" lon="-87.631210"/>
      <trkpt lat="41.884700" lon="-87.630750"/>
      <trkpt lat="41.885130" lon="-87.630750"/>
      <trkpt lat="41.885210" lon="-87.630520"/>
      <trkpt lat="41.885100" lon="-87.629620"/>
      <trkpt lat="41.885390" lon="-87.629580"/>
      <trkpt lat="41.885140" lon="-87.628850"/>
      <trkpt lat="41.885100" lon="-87.628220"/>
      <trkpt lat="41.885430" lon="-87.628130"/>
      <trkpt lat="41.885390" lon="-87.627750"/>
      <trkpt lat="41.885170" lon="-87.627130"/>
      <trkpt lat="41.884680" lon="-87.626750"/>
      <trkpt lat="41.884680" lon="-87.626750"/>
      <trkpt lat="41.884970" lon="-87.626090"/>
      <trkpt lat="41.884690" lon="-87.625800"/>
      <trkpt lat="41.885500" lon="-87.626100"/>
      <trkpt lat="41.885630" lon="-87.625610"/>
      <trkpt lat="41.885660" lon="-87.625090"/>
      <trkpt lat="41.885950" lon="-87.624810"/>
      <trkpt lat="41.886410" lon="-87.624770"/>
      <trkpt lat="41.886740" lon="-87.624860"/>
      <trkpt lat="41.886550" lon="-87.625560"/>
      <trkpt lat="41.886060" lon="-87.625630"/>
      <trkpt lat="41.886310" lon="-87.626480"/>
      <trkpt lat="41.886440" lon="-87.626780"/>
      <trkpt lat="41.886640" lon="-87.626990"/>
      <trkpt lat="41.886710" lon="-87.626770"/>
      <trkpt lat="41.886690" lon="-87.626410"/>
      <trkpt lat="41.887370" lon="-87.627030"/>
      <trkpt lat="41.887160" lon="-87.627750"/>
      <trkpt lat="41.887050" lon="-87.628150"/>
      <trkpt lat="41.887110" lon="-87.629350"/>
      <trkpt lat="41.886430" lon="-87.629150"/>
      <trkpt lat="41.885900" lon="-87.628860"/>
      <trkpt lat="41.885950" lon="-87.627940"/>
      <trkpt lat="41.884560" lon="-87.628680"/>
      <trkpt lat="41.884580" lon="-87.629650"/>
      <trkpt lat="41.884550" lon="-87.629980"/>
      <trkpt lat="41.884390" lon="-87.627640"/>
      <trkpt lat="41.885120" lon="-87.624110"/>
      <trkpt lat="41.885490" lon="-87.623180"/>
      <trkpt lat="41.886080" lon="-87.624070"/>
      <trkpt lat="41.886070" lon="-87.624160"/>
      <trkpt lat="41.887080" lon="-87.624240"/>
      <trkpt lat="41.887270" lon="-87.624300"/>
      <trkpt lat="41.888110" lon="-87.627180"/>
      <trkpt lat="41.888520" lon="-87.627020"/>
      <trkpt lat="41.889050" lon="-87.627490"/>
      <trkpt lat="41.889020" lon="-87.628280"/>
      <trkpt lat="41.889350" lon="-87.628970"/>
      <trkpt lat="41.889140" lon="-87.629250"/>
      <trkpt lat="41.889710" lon="-87.628950"/>
      <trkpt lat="41.889650" lon="-87.628130"/>
      <trkpt lat="41.889100" lon="-87.626670"/>
      <trkpt lat="41.887930" lon="-87.627750"/>
      <trkpt lat="41.888300" lon="-87.628330"/>
      <trkpt lat="41.888190" lon="-87.629430"/>
      <trkpt lat="41.888100" lon="-87.630490"/>
      <trkpt lat="41.887000" lon="-87.631220"/>
      <trkpt lat="41.886530" lon="-87.630810"/>
      <trkpt lat="41.886620" lon="-87.630420"/>
      <trkpt lat="41.886670" lon="-87.630100"/>
      <trkpt lat="41.887040" lon="-87.632270"/>
      <trkpt lat="41.886540" lon="-87.632670"/>
      <trkpt lat="41.889020" lon="-87.635040"/>
      <trkpt lat="41.889240" lon="-87.634880"/>
      <trkpt lat="41.889330" lon="-87.635440"/>
      <trkpt lat="41.891320" lon="-87.640090"/>
      <trkpt lat="41.892310" lon="-87.639080"/>
      <trkpt lat="41.893020" lon="-87.638630"/>
      <trkpt lat="41.893170" lon="-87.639900"/>
      <trkpt lat="41.893110" lon="-87.633090"/>
      <trkpt lat="41.893380" lon="-87.630680"/>
      <trkpt lat="41.893220" lon="-87.627600"/>
      <trkpt lat="41.892600" lon="-87.625960"/>
      <trkpt lat="41.892230" lon="-87.626210"/>
      <trkpt lat="41.891940" lon="-87.625490"/>
      <trkpt lat="41.892140" lon="-87.624370"/>
      <trkpt lat="41.892180" lon="-87.623930"/>
      <trkpt lat="41.892860" lon="-87.623970"/>
      <trkpt lat="41.893400" lon="-87.624900"/>
      <trkpt lat="41.890790" lon="-87.628800"/>
      <trkpt lat="41.891970" lon="-87.617840"/>
      <trkpt lat="41.892790" lon="-87.618040"/>
      <trkpt lat="41.893330" lon="-87.617520"/>
      <trkpt lat="41.894640" lon="-87.617690"/>
      <trkpt lat="41.891170" lon="-87.617470"/>
      <trkpt lat="41.891050" lon="-87.617190"/>
      <trkpt lat="41.890510" lon="-87.617480"/>
      <trkpt lat="41.899410" lon="-87.620320"/>
      <trkpt lat="41.899950" lon="-87.621690"/>
      <trkpt lat="41.901140" lon="-87.632580"/>
      <trkpt lat="41.900630" lon="-87.634520"/>
      <trkpt lat="41.899940" lon="-87.634550"/>
      <trkpt lat="41.899640" lon="-87.636300"/>
    </trkseg>
  </trk>
</gpx>
