<?xml version="1.0" encoding="UTF-8"?>
<gpx xmlns="http://www.topografix.com/GPX/1/1" version="1.1" creator="GPS Visualizer http://www.gpsvisualizer.com/">
  <trk>
    <name>0</name>
    <trkseg>
      <wpt lat="40.844200" lon="-73.877263"/>
      <wpt lat="40.844863" lon="-73.877808"/>
      <wpt lat="40.845780" lon="-73.878942"/>
      <wpt lat="40.846560" lon="-73.880207"/>
      <wpt lat="40.847530" lon="-73.880432"/>
      <wpt lat="40.848228" lon="-73.881027"/>
      <wpt lat="40.848659" lon="-73.882567"/>
      <wpt lat="40.849105" lon="-73.881019"/>
      <wpt lat="40.849515" lon="-73.879625"/>
      <wpt lat="40.849573" lon="-73.880359"/>
      <wpt lat="40.849833" lon="-73.880432"/>
      <wpt lat="40.851222" lon="-73.879683"/>
      <wpt lat="40.851491" lon="-73.879368"/>
      <wpt lat="40.851835" lon="-73.880015"/>
      <wpt lat="40.851751" lon="-73.880423"/>
      <wpt lat="40.852333" lon="-73.881742"/>
      <wpt lat="40.852507" lon="-73.880503"/>
      <wpt lat="40.852391" lon="-73.879758"/>
      <wpt lat="40.852363" lon="-73.879392"/>
      <wpt lat="40.852977" lon="-73.879776"/>
      <wpt lat="40.853679" lon="-73.879516"/>
      <wpt lat="40.854102" lon="-73.879527"/>
      <wpt lat="40.853867" lon="-73.879006"/>
      <wpt lat="40.853238" lon="-73.878803"/>
      <wpt lat="40.853861" lon="-73.878121"/>
      <wpt lat="40.853546" lon="-73.877817"/>
      <wpt lat="40.853469" lon="-73.877082"/>
      <wpt lat="40.853253" lon="-73.875386"/>
      <wpt lat="40.852903" lon="-73.874207"/>
      <wpt lat="40.852600" lon="-73.875823"/>
      <wpt lat="40.852776" lon="-73.877968"/>
      <wpt lat="40.852143" lon="-73.878257"/>
      <wpt lat="40.852033" lon="-73.877147"/>
      <wpt lat="40.851194" lon="-73.877225"/>
      <wpt lat="40.850511" lon="-73.877665"/>
      <wpt lat="40.850173" lon="-73.877288"/>
      <wpt lat="40.849299" lon="-73.877147"/>
      <wpt lat="40.848988" lon="-73.876691"/>
      <wpt lat="40.848780" lon="-73.875845"/>
      <wpt lat="40.848423" lon="-73.876220"/>
      <wpt lat="40.848453" lon="-73.876728"/>
      <wpt lat="40.848545" lon="-73.877937"/>
      <wpt lat="40.849376" lon="-73.878731"/>
      <wpt lat="40.848740" lon="-73.879810"/>
      <wpt lat="40.848503" lon="-73.879278"/>
      <wpt lat="40.848141" lon="-73.879585"/>
      <wpt lat="40.847663" lon="-73.878913"/>
      <wpt lat="40.847656" lon="-73.878401"/>
      <wpt lat="40.847785" lon="-73.877657"/>
      <wpt lat="40.847072" lon="-73.878112"/>
      <wpt lat="40.846731" lon="-73.877539"/>
      <wpt lat="40.845819" lon="-73.877502"/>
      <wpt lat="40.845237" lon="-73.877532"/>
      <wpt lat="40.845001" lon="-73.877147"/>
      <wpt lat="40.845138" lon="-73.876707"/>
      <wpt lat="40.844936" lon="-73.876434"/>
      <wpt lat="40.844722" lon="-73.876396"/>
      <wpt lat="40.844809" lon="-73.876899"/>
    </trkseg>
  </trk>
</gpx>
