<?xml version="1.0" encoding="UTF-8"?>
<gpx xmlns="http://www.topografix.com/GPX/1/1" version="1.1">
  <trk>
    <name>The Loop, Chicago, Illinois</name>
    <desc>United States</desc>
    <trkseg>
      <trkpt lat="41.875110" lon="-87.626480"/>
      <trkpt lat="41.875170" lon="-87.626560"/>
      <trkpt lat="41.875010" lon="-87.627440"/>
      <trkpt lat="41.874470" lon="-87.628050"/>
      <trkpt lat="41.874630" lon="-87.628950"/>
      <trkpt lat="41.874950" lon="-87.629380"/>
      <trkpt lat="41.874410" lon="-87.629770"/>
      <trkpt lat="41.875050" lon="-87.630870"/>
      <trkpt lat="41.875760" lon="-87.631080"/>
      <trkpt lat="41.875750" lon="-87.631590"/>
      <trkpt lat="41.875420" lon="-87.631790"/>
      <trkpt lat="41.875350" lon="-87.632600"/>
      <trkpt lat="41.875110" lon="-87.633280"/>
      <trkpt lat="41.875750" lon="-87.633210"/>
      <trkpt lat="41.875950" lon="-87.632740"/>
      <trkpt lat="41.876300" lon="-87.633580"/>
      <trkpt lat="41.875890" lon="-87.633840"/>
      <trkpt lat="41.876670" lon="-87.633210"/>
      <trkpt lat="41.876890" lon="-87.633020"/>
      <trkpt lat="41.876940" lon="-87.633420"/>
      <trkpt lat="41.877130" lon="-87.633850"/>
      <trkpt lat="41.877920" lon="-87.634160"/>
      <trkpt lat="41.877980" lon="-87.634230"/>
      <trkpt lat="41.878230" lon="-87.633560"/>
      <trkpt lat="41.878190" lon="-87.633310"/>
      <trkpt lat="41.878790" lon="-87.633680"/>
      <trkpt lat="41.879510" lon="-87.633970"/>
      <trkpt lat="41.879720" lon="-87.633320"/>
      <trkpt lat="41.879180" lon="-87.632490"/>
      <trkpt lat="41.879150" lon="-87.632090"/>
      <trkpt lat="41.879540" lon="-87.632160"/>
      <trkpt lat="41.879950" lon="-87.632220"/>
      <trkpt lat="41.880580" lon="-87.631660"/>
      <trkpt lat="41.880790" lon="-87.632140"/>
      <trkpt lat="41.880750" lon="-87.632490"/>
      <trkpt lat="41.881100" lon="-87.632460"/>
      <trkpt lat="41.881260" lon="-87.632200"/>
      <trkpt lat="41.881740" lon="-87.633230"/>
      <trkpt lat="41.881760" lon="-87.633540"/>
      <trkpt lat="41.881260" lon="-87.633700"/>
      <trkpt lat="41.881180" lon="-87.634240"/>
      <trkpt lat="41.880730" lon="-87.633550"/>
      <trkpt lat="41.880410" lon="-87.634810"/>
      <trkpt lat="41.880740" lon="-87.635090"/>
      <trkpt lat="41.880270" lon="-87.635380"/>
      <trkpt lat="41.879800" lon="-87.635400"/>
      <trkpt lat="41.879800" lon="-87.635400"/>
      <trkpt lat="41.879440" lon="-87.635520"/>
      <trkpt lat="41.879510" lon="-87.634850"/>
      <trkpt lat="41.879960" lon="-87.634550"/>
      <trkpt lat="41.878880" lon="-87.635120"/>
      <trkpt lat="41.878940" lon="-87.635650"/>
      <trkpt lat="41.878850" lon="-87.636100"/>
      <trkpt lat="41.878960" lon="-87.636350"/>
      <trkpt lat="41.879120" lon="-87.636540"/>
      <trkpt lat="41.879140" lon="-87.637230"/>
      <trkpt lat="41.878540" lon="-87.636370"/>
      <trkpt lat="41.877990" lon="-87.636810"/>
      <trkpt lat="41.877700" lon="-87.637280"/>
      <trkpt lat="41.877460" lon="-87.636380"/>
      <trkpt lat="41.877480" lon="-87.636180"/>
      <trkpt lat="41.877770" lon="-87.635810"/>
      <trkpt lat="41.878020" lon="-87.635140"/>
      <trkpt lat="41.877060" lon="-87.635030"/>
      <trkpt lat="41.876620" lon="-87.636280"/>
      <trkpt lat="41.876690" lon="-87.636960"/>
      <trkpt lat="41.874870" lon="-87.634990"/>
      <trkpt lat="41.874360" lon="-87.636440"/>
      <trkpt lat="41.874390" lon="-87.632890"/>
      <trkpt lat="41.875740" lon="-87.630250"/>
      <trkpt lat="41.876140" lon="-87.629140"/>
      <trkpt lat="41.875810" lon="-87.628880"/>
      <trkpt lat="41.875780" lon="-87.628200"/>
      <trkpt lat="41.876230" lon="-87.628270"/>
      <trkpt lat="41.876330" lon="-87.627480"/>
      <trkpt lat="41.875780" lon="-87.627320"/>
      <trkpt lat="41.875800" lon="-87.626190"/>
      <trkpt lat="41.875820" lon="-87.625480"/>
      <trkpt lat="41.876400" lon="-87.625870"/>
      <trkpt lat="41.876360" lon="-87.626190"/>
      <trkpt lat="41.876960" lon="-87.626020"/>
      <trkpt lat="41.876900" lon="-87.625210"/>
      <trkpt lat="41.876790" lon="-87.624530"/>
      <trkpt lat="41.876340" lon="-87.624850"/>
      <trkpt lat="41.876220" lon="-87.624440"/>
      <trkpt lat="41.876430" lon="-87.623910"/>
      <trkpt lat="41.875960" lon="-87.623480"/>
      <trkpt lat="41.875720" lon="-87.623830"/>
      <trkpt lat="41.875490" lon="-87.623490"/>
      <trkpt lat="41.875050" lon="-87.623840"/>
      <trkpt lat="41.874560" lon="-87.623780"/>
      <trkpt lat="41.874150" lon="-87.623490"/>
      <trkpt lat="41.873400" lon="-87.623500"/>
      <trkpt lat="41.872710" lon="-87.623070"/>
      <trkpt lat="41.871880" lon="-87.623320"/>
      <trkpt lat="41.871520" lon="-87.624360"/>
      <trkpt lat="41.871900" lon="-87.624950"/>
      <trkpt lat="41.871920" lon="-87.625450"/>
      <trkpt lat="41.872310" lon="-87.625760"/>
      <trkpt lat="41.872310" lon="-87.626100"/>
      <trkpt lat="41.872000" lon="-87.626620"/>
      <trkpt lat="41.873010" lon="-87.627090"/>
      <trkpt lat="41.873010" lon="-87.626130"/>
      <trkpt lat="41.873200" lon="-87.625490"/>
      <trkpt lat="41.872790" lon="-87.625240"/>
      <trkpt lat="41.873160" lon="-87.624690"/>
      <trkpt lat="41.873310" lon="-87.624530"/>
      <trkpt lat="41.873470" lon="-87.624530"/>
      <trkpt lat="41.872640" lon="-87.624360"/>
      <trkpt lat="41.872200" lon="-87.624490"/>
      <trkpt lat="41.871080" lon="-87.625700"/>
      <trkpt lat="41.870330" lon="-87.626060"/>
      <trkpt lat="41.869530" lon="-87.625570"/>
      <trkpt lat="41.869390" lon="-87.625170"/>
      <trkpt lat="41.869760" lon="-87.624810"/>
      <trkpt lat="41.869550" lon="-87.624580"/>
      <trkpt lat="41.870230" lon="-87.624420"/>
      <trkpt lat="41.870690" lon="-87.624670"/>
      <trkpt lat="41.870580" lon="-87.623440"/>
      <trkpt lat="41.869510" lon="-87.623080"/>
      <trkpt lat="41.869350" lon="-87.622560"/>
      <trkpt lat="41.869450" lon="-87.621990"/>
      <trkpt lat="41.870620" lon="-87.621780"/>
      <trkpt lat="41.871360" lon="-87.621760"/>
      <trkpt lat="41.873370" lon="-87.620370"/>
      <trkpt lat="41.873890" lon="-87.618920"/>
      <trkpt lat="41.874460" lon="-87.619230"/>
      <trkpt lat="41.874460" lon="-87.618550"/>
      <trkpt lat="41.874520" lon="-87.616900"/>
      <trkpt lat="41.875330" lon="-87.616890"/>
      <trkpt lat="41.875400" lon="-87.616590"/>
      <trkpt lat="41.876250" lon="-87.616700"/>
      <trkpt lat="41.877200" lon="-87.616850"/>
      <trkpt lat="41.877390" lon="-87.617770"/>
      <trkpt lat="41.877710" lon="-87.618110"/>
      <trkpt lat="41.878200" lon="-87.617930"/>
      <trkpt lat="41.878360" lon="-87.618240"/>
      <trkpt lat="41.878130" lon="-87.618710"/>
      <trkpt lat="41.878190" lon="-87.619010"/>
      <trkpt lat="41.878640" lon="-87.619020"/>
      <trkpt lat="41.879070" lon="-87.619660"/>
      <trkpt lat="41.879080" lon="-87.619770"/>
      <trkpt lat="41.879230" lon="-87.619550"/>
      <trkpt lat="41.879540" lon="-87.619260"/>
      <trkpt lat="41.879570" lon="-87.619960"/>
      <trkpt lat="41.880040" lon="-87.619560"/>
      <trkpt lat="41.880310" lon="-87.619990"/>
      <trkpt lat="41.880440" lon="-87.620120"/>
      <trkpt lat="41.880660" lon="-87.621140"/>
      <trkpt lat="41.881000" lon="-87.621250"/>
      <trkpt lat="41.881120" lon="-87.621010"/>
      <trkpt lat="41.881760" lon="-87.621230"/>
      <trkpt lat="41.882390" lon="-87.621070"/>
      <trkpt lat="41.882790" lon="-87.621840"/>
      <trkpt lat="41.883230" lon="-87.621420"/>
      <trkpt lat="41.883370" lon="-87.621830"/>
      <trkpt lat="41.883010" lon="-87.622830"/>
      <trkpt lat="41.882690" lon="-87.622620"/>
      <trkpt lat="41.882680" lon="-87.623270"/>
      <trkpt lat="41.882950" lon="-87.623990"/>
      <trkpt lat="41.883340" lon="-87.624720"/>
      <trkpt lat="41.883340" lon="-87.624960"/>
      <trkpt lat="41.883760" lon="-87.624760"/>
      <trkpt lat="41.883950" lon="-87.625250"/>
      <trkpt lat="41.883960" lon="-87.625650"/>
      <trkpt lat="41.883850" lon="-87.626620"/>
      <trkpt lat="41.883700" lon="-87.626940"/>
      <trkpt lat="41.883330" lon="-87.626750"/>
      <trkpt lat="41.883140" lon="-87.626420"/>
      <trkpt lat="41.882920" lon="-87.626540"/>
      <trkpt lat="41.883120" lon="-87.625770"/>
      <trkpt lat="41.882290" lon="-87.625700"/>
      <trkpt lat="41.881820" lon="-87.626000"/>
      <trkpt lat="41.881930" lon="-87.626450"/>
      <trkpt lat="41.882000" lon="-87.626750"/>
      <trkpt lat="41.881950" lon="-87.627580"/>
      <trkpt lat="41.882140" lon="-87.627950"/>
      <trkpt lat="41.882510" lon="-87.627660"/>
      <trkpt lat="41.883310" lon="-87.627670"/>
      <trkpt lat="41.883350" lon="-87.627360"/>
      <trkpt lat="41.883350" lon="-87.627360"/>
      <trkpt lat="41.883880" lon="-87.627690"/>
      <trkpt lat="41.883890" lon="-87.628070"/>
      <trkpt lat="41.883890" lon="-87.628350"/>
      <trkpt lat="41.883390" lon="-87.628380"/>
      <trkpt lat="41.883320" lon="-87.628790"/>
      <trkpt lat="41.883740" lon="-87.629320"/>
      <trkpt lat="41.883460" lon="-87.629610"/>
      <trkpt lat="41.883620" lon="-87.629960"/>
      <trkpt lat="41.883450" lon="-87.630590"/>
      <trkpt lat="41.883130" lon="-87.629770"/>
      <trkpt lat="41.882670" lon="-87.630820"/>
      <trkpt lat="41.882820" lon="-87.631210"/>
      <trkpt lat="41.883090" lon="-87.631490"/>
      <trkpt lat="41.882640" lon="-87.632200"/>
      <trkpt lat="41.882860" lon="-87.632510"/>
      <trkpt lat="41.882690" lon="-87.632640"/>
      <trkpt lat="41.882240" lon="-87.632290"/>
      <trkpt lat="41.882100" lon="-87.631470"/>
      <trkpt lat="41.881610" lon="-87.631010"/>
      <trkpt lat="41.881220" lon="-87.630610"/>
      <trkpt lat="41.881130" lon="-87.630110"/>
      <trkpt lat="41.880950" lon="-87.630120"/>
      <trkpt lat="41.880870" lon="-87.630150"/>
      <trkpt lat="41.881050" lon="-87.629730"/>
      <trkpt lat="41.880890" lon="-87.629260"/>
      <trkpt lat="41.880740" lon="-87.628530"/>
      <trkpt lat="41.880810" lon="-87.628160"/>
      <trkpt lat="41.881080" lon="-87.627640"/>
      <trkpt lat="41.880630" lon="-87.627560"/>
      <trkpt lat="41.880380" lon="-87.627130"/>
      <trkpt lat="41.880140" lon="-87.626880"/>
      <trkpt lat="41.879770" lon="-87.626740"/>
      <trkpt lat="41.879850" lon="-87.626220"/>
      <trkpt lat="41.879540" lon="-87.626000"/>
      <trkpt lat="41.879470" lon="-87.624850"/>
      <trkpt lat="41.879400" lon="-87.624590"/>
      <trkpt lat="41.879380" lon="-87.624120"/>
      <trkpt lat="41.879690" lon="-87.624160"/>
      <trkpt lat="41.880070" lon="-87.624550"/>
      <trkpt lat="41.880620" lon="-87.624640"/>
      <trkpt lat="41.880940" lon="-87.625180"/>
      <trkpt lat="41.880530" lon="-87.625440"/>
      <trkpt lat="41.880700" lon="-87.626540"/>
      <trkpt lat="41.881160" lon="-87.626660"/>
      <trkpt lat="41.881330" lon="-87.625980"/>
      <trkpt lat="41.882020" lon="-87.624950"/>
      <trkpt lat="41.882020" lon="-87.624690"/>
      <trkpt lat="41.882480" lon="-87.624700"/>
      <trkpt lat="41.882270" lon="-87.624050"/>
      <trkpt lat="41.882120" lon="-87.623740"/>
      <trkpt lat="41.882110" lon="-87.623550"/>
      <trkpt lat="41.881750" lon="-87.623280"/>
      <trkpt lat="41.881950" lon="-87.622560"/>
      <trkpt lat="41.881140" lon="-87.622150"/>
      <trkpt lat="41.880650" lon="-87.622070"/>
      <trkpt lat="41.880380" lon="-87.622480"/>
      <trkpt lat="41.880060" lon="-87.623170"/>
      <trkpt lat="41.879630" lon="-87.622750"/>
      <trkpt lat="41.879470" lon="-87.623200"/>
      <trkpt lat="41.878800" lon="-87.623470"/>
      <trkpt lat="41.879010" lon="-87.623920"/>
      <trkpt lat="41.878960" lon="-87.624570"/>
      <trkpt lat="41.878520" lon="-87.624960"/>
      <trkpt lat="41.878230" lon="-87.624800"/>
      <trkpt lat="41.878100" lon="-87.625880"/>
      <trkpt lat="41.878320" lon="-87.625930"/>
      <trkpt lat="41.878590" lon="-87.626260"/>
      <trkpt lat="41.878090" lon="-87.626330"/>
      <trkpt lat="41.877830" lon="-87.626980"/>
      <trkpt lat="41.878070" lon="-87.627070"/>
      <trkpt lat="41.878000" lon="-87.627370"/>
      <trkpt lat="41.878550" lon="-87.627530"/>
      <trkpt lat="41.878510" lon="-87.627910"/>
      <trkpt lat="41.878790" lon="-87.628140"/>
      <trkpt lat="41.879110" lon="-87.627840"/>
      <trkpt lat="41.879150" lon="-87.627840"/>
      <trkpt lat="41.879360" lon="-87.627960"/>
      <trkpt lat="41.879590" lon="-87.627890"/>
      <trkpt lat="41.879770" lon="-87.627860"/>
      <trkpt lat="41.879570" lon="-87.629100"/>
      <trkpt lat="41.879320" lon="-87.629470"/>
      <trkpt lat="41.879180" lon="-87.629850"/>
      <trkpt lat="41.878810" lon="-87.629650"/>
      <trkpt lat="41.878600" lon="-87.629910"/>
      <trkpt lat="41.878340" lon="-87.630430"/>
      <trkpt lat="41.878040" lon="-87.630010"/>
      <trkpt lat="41.877560" lon="-87.629810"/>
      <trkpt lat="41.876960" lon="-87.629960"/>
      <trkpt lat="41.877000" lon="-87.629390"/>
      <trkpt lat="41.876870" lon="-87.628590"/>
      <trkpt lat="41.877250" lon="-87.628160"/>
      <trkpt lat="41.877480" lon="-87.628630"/>
      <trkpt lat="41.877330" lon="-87.627520"/>
      <trkpt lat="41.877040" lon="-87.627390"/>
      <trkpt lat="41.878400" lon="-87.629210"/>
      <trkpt lat="41.877730" lon="-87.630680"/>
      <trkpt lat="41.877730" lon="-87.631400"/>
      <trkpt lat="41.877930" lon="-87.631850"/>
      <trkpt lat="41.878170" lon="-87.632000"/>
      <trkpt lat="41.878260" lon="-87.632120"/>
      <trkpt lat="41.878050" lon="-87.632340"/>
      <trkpt lat="41.877720" lon="-87.632460"/>
      <trkpt lat="41.877550" lon="-87.632850"/>
      <trkpt lat="41.876980" lon="-87.631830"/>
      <trkpt lat="41.876660" lon="-87.631730"/>
      <trkpt lat="41.876720" lon="-87.630450"/>
      <trkpt lat="41.878310" lon="-87.631420"/>
      <trkpt lat="41.878580" lon="-87.631430"/>
      <trkpt lat="41.879290" lon="-87.631350"/>
      <trkpt lat="41.879280" lon="-87.630930"/>
      <trkpt lat="41.879160" lon="-87.630600"/>
      <trkpt lat="41.879920" lon="-87.629310"/>
      <trkpt lat="41.880600" lon="-87.630710"/>
      <trkpt lat="41.881620" lon="-87.630160"/>
      <trkpt lat="41.882110" lon="-87.630180"/>
      <trkpt lat="41.882140" lon="-87.630520"/>
      <trkpt lat="41.881940" lon="-87.629100"/>
      <trkpt lat="41.881250" lon="-87.623730"/>
      <trkpt lat="41.880730" lon="-87.623160"/>
      <trkpt lat="41.880570" lon="-87.623940"/>
      <trkpt lat="41.879540" lon="-87.621890"/>
      <trkpt lat="41.879820" lon="-87.621320"/>
      <trkpt lat="41.879670" lon="-87.621010"/>
      <trkpt lat="41.879490" lon="-87.621010"/>
      <trkpt lat="41.878670" lon="-87.621160"/>
      <trkpt lat="41.878680" lon="-87.620280"/>
      <trkpt lat="41.878210" lon="-87.619810"/>
      <trkpt lat="41.878080" lon="-87.620240"/>
      <trkpt lat="41.877690" lon="-87.619870"/>
      <trkpt lat="41.877690" lon="-87.618990"/>
      <trkpt lat="41.877110" lon="-87.618740"/>
      <trkpt lat="41.877120" lon="-87.619280"/>
      <trkpt lat="41.876720" lon="-87.618940"/>
      <trkpt lat="41.876020" lon="-87.619370"/>
      <trkpt lat="41.875660" lon="-87.620390"/>
      <trkpt lat="41.875270" lon="-87.621480"/>
      <trkpt lat="41.874740" lon="-87.621370"/>
      <trkpt lat="41.876220" lon="-87.621490"/>
      <trkpt lat="41.876090" lon="-87.622310"/>
      <trkpt lat="41.876440" lon="-87.622890"/>
      <trkpt lat="41.877270" lon="-87.623310"/>
      <trkpt lat="41.877740" lon="-87.623520"/>
      <trkpt lat="41.877900" lon="-87.623630"/>
      <trkpt lat="41.878190" lon="-87.623150"/>
      <trkpt lat="41.878980" lon="-87.622120"/>
      <trkpt lat="41.877380" lon="-87.621520"/>
      <trkpt lat="41.877000" lon="-87.623900"/>
      <trkpt lat="41.877280" lon="-87.624050"/>
      <trkpt lat="41.875360" lon="-87.624460"/>
      <trkpt lat="41.874330" lon="-87.624790"/>
      <trkpt lat="41.874330" lon="-87.625570"/>
      <trkpt lat="41.873900" lon="-87.625780"/>
      <trkpt lat="41.874470" lon="-87.626560"/>
      <trkpt lat="41.875170" lon="-87.628590"/>
      <trkpt lat="41.873480" lon="-87.629020"/>
      <trkpt lat="41.873270" lon="-87.629370"/>
      <trkpt lat="41.872710" lon="-87.629330"/>
      <trkpt lat="41.872710" lon="-87.629050"/>
      <trkpt lat="41.872130" lon="-87.629180"/>
      <trkpt lat="41.871740" lon="-87.628700"/>
      <trkpt lat="41.870970" lon="-87.629170"/>
      <trkpt lat="41.870780" lon="-87.628650"/>
      <trkpt lat="41.870390" lon="-87.629390"/>
      <trkpt lat="41.870630" lon="-87.629760"/>
      <trkpt lat="41.872100" lon="-87.630790"/>
      <trkpt lat="41.872410" lon="-87.630480"/>
      <trkpt lat="41.871940" lon="-87.633910"/>
      <trkpt lat="41.871300" lon="-87.634540"/>
      <trkpt lat="41.869370" lon="-87.632740"/>
      <trkpt lat="41.869110" lon="-87.633040"/>
      <trkpt lat="41.868140" lon="-87.632590"/>
      <trkpt lat="41.867980" lon="-87.632580"/>
      <trkpt lat="41.867500" lon="-87.631530"/>
      <trkpt lat="41.867190" lon="-87.631940"/>
      <trkpt lat="41.867520" lon="-87.630880"/>
      <trkpt lat="41.867650" lon="-87.630730"/>
      <trkpt lat="41.867520" lon="-87.629890"/>
      <trkpt lat="41.868270" lon="-87.629590"/>
      <trkpt lat="41.868480" lon="-87.629870"/>
      <trkpt lat="41.867240" lon="-87.628590"/>
      <trkpt lat="41.867760" lon="-87.627600"/>
      <trkpt lat="41.867570" lon="-87.626640"/>
      <trkpt lat="41.867210" lon="-87.626140"/>
      <trkpt lat="41.866700" lon="-87.626470"/>
      <trkpt lat="41.868160" lon="-87.626350"/>
      <trkpt lat="41.869030" lon="-87.626030"/>
      <trkpt lat="41.869330" lon="-87.626760"/>
      <trkpt lat="41.868670" lon="-87.623790"/>
      <trkpt lat="41.868160" lon="-87.623630"/>
      <trkpt lat="41.867840" lon="-87.623040"/>
      <trkpt lat="41.868000" lon="-87.622790"/>
      <trkpt lat="41.867950" lon="-87.621710"/>
      <trkpt lat="41.867330" lon="-87.621630"/>
      <trkpt lat="41.866940" lon="-87.621720"/>
      <trkpt lat="41.867880" lon="-87.620120"/>
      <trkpt lat="41.867990" lon="-87.619640"/>
      <trkpt lat="41.868710" lon="-87.620740"/>
      <trkpt lat="41.869320" lon="-87.623650"/>
      <trkpt lat="41.866340" lon="-87.624300"/>
      <trkpt lat="41.873490" lon="-87.616510"/>
      <trkpt lat="41.878320" lon="-87.616690"/>
      <trkpt lat="41.878800" lon="-87.618020"/>
      <trkpt lat="41.879110" lon="-87.618410"/>
      <trkpt lat="41.879660" lon="-87.618130"/>
      <trkpt lat="41.880140" lon="-87.618510"/>
      <trkpt lat="41.880440" lon="-87.618100"/>
      <trkpt lat="41.880620" lon="-87.619050"/>
      <trkpt lat="41.881550" lon="-87.619080"/>
      <trkpt lat="41.883340" lon="-87.623020"/>
      <trkpt lat="41.883520" lon="-87.623120"/>
      <trkpt lat="41.883870" lon="-87.623780"/>
    </trkseg>
  </trk>
</gpx>
