<?xml version="1.0" encoding="UTF-8"?>
<gpx xmlns="http://www.topografix.com/GPX/1/1" version="1.1">
  <trk>
    <name>Grand-Place, Brussels</name>
    <desc>Belgium</desc>
    <trkseg>
      <trkpt lat="50.845920" lon="4.354620"/>
      <trkpt lat="50.845990" lon="4.354690"/>
      <trkpt lat="50.845710" lon="4.355080"/>
      <trkpt lat="50.845230" lon="4.355220"/>
      <trkpt lat="50.844750" lon="4.355380"/>
      <trkpt lat="50.844850" lon="4.355910"/>
      <trkpt lat="50.845180" lon="4.356410"/>
      <trkpt lat="50.845370" lon="4.356770"/>
      <trkpt lat="50.844960" lon="4.357390"/>
      <trkpt lat="50.845120" lon="4.357970"/>
      <trkpt lat="50.845800" lon="4.357580"/>
      <trkpt lat="50.846220" lon="4.357200"/>
      <trkpt lat="50.846860" lon="4.357010"/>
      <trkpt lat="50.846960" lon="4.356210"/>
      <trkpt lat="50.846730" lon="4.355920"/>
      <trkpt lat="50.847240" lon="4.356000"/>
      <trkpt lat="50.847480" lon="4.354770"/>
      <trkpt lat="50.847760" lon="4.355010"/>
      <trkpt lat="50.848300" lon="4.355430"/>
      <trkpt lat="50.848360" lon="4.356180"/>
      <trkpt lat="50.848190" lon="4.356370"/>
      <trkpt lat="50.848690" lon="4.355920"/>
      <trkpt lat="50.848760" lon="4.354990"/>
      <trkpt lat="50.848960" lon="4.354250"/>
      <trkpt lat="50.848510" lon="4.354030"/>
      <trkpt lat="50.848600" lon="4.353550"/>
      <trkpt lat="50.848390" lon="4.353420"/>
      <trkpt lat="50.847850" lon="4.353670"/>
      <trkpt lat="50.847240" lon="4.353470"/>
      <trkpt lat="50.846810" lon="4.352720"/>
      <trkpt lat="50.846470" lon="4.352470"/>
      <trkpt lat="50.846340" lon="4.352900"/>
      <trkpt lat="50.845740" lon="4.352570"/>
      <trkpt lat="50.845770" lon="4.351900"/>
      <trkpt lat="50.846040" lon="4.351730"/>
      <trkpt lat="50.846850" lon="4.351830"/>
      <trkpt lat="50.847210" lon="4.351700"/>
      <trkpt lat="50.847760" lon="4.351660"/>
      <trkpt lat="50.847920" lon="4.351070"/>
      <trkpt lat="50.848170" lon="4.351470"/>
      <trkpt lat="50.848200" lon="4.352120"/>
      <trkpt lat="50.848130" lon="4.352570"/>
      <trkpt lat="50.847650" lon="4.352670"/>
      <trkpt lat="50.846870" lon="4.354300"/>
      <trkpt lat="50.846530" lon="4.354280"/>
      <trkpt lat="50.846600" lon="4.354700"/>
      <trkpt lat="50.846110" lon="4.355630"/>
      <trkpt lat="50.845750" lon="4.353720"/>
      <trkpt lat="50.845600" lon="4.353460"/>
      <trkpt lat="50.844920" lon="4.353750"/>
      <trkpt lat="50.844560" lon="4.353720"/>
      <trkpt lat="50.844590" lon="4.352940"/>
      <trkpt lat="50.844890" lon="4.353030"/>
      <trkpt lat="50.845090" lon="4.352440"/>
      <trkpt lat="50.844950" lon="4.351540"/>
      <trkpt lat="50.844630" lon="4.351800"/>
      <trkpt lat="50.844070" lon="4.352100"/>
      <trkpt lat="50.843950" lon="4.352850"/>
      <trkpt lat="50.843750" lon="4.353960"/>
      <trkpt lat="50.843310" lon="4.353630"/>
      <trkpt lat="50.843120" lon="4.354930"/>
      <trkpt lat="50.843370" lon="4.355120"/>
      <trkpt lat="50.843920" lon="4.355630"/>
      <trkpt lat="50.844170" lon="4.356110"/>
      <trkpt lat="50.843860" lon="4.356260"/>
      <trkpt lat="50.844170" lon="4.356910"/>
      <trkpt lat="50.844550" lon="4.356920"/>
      <trkpt lat="50.844290" lon="4.357530"/>
      <trkpt lat="50.843760" lon="4.357610"/>
      <trkpt lat="50.843690" lon="4.357140"/>
      <trkpt lat="50.843440" lon="4.358070"/>
      <trkpt lat="50.843100" lon="4.358230"/>
      <trkpt lat="50.842810" lon="4.358790"/>
      <trkpt lat="50.842290" lon="4.358530"/>
      <trkpt lat="50.842490" lon="4.358050"/>
      <trkpt lat="50.842560" lon="4.357550"/>
      <trkpt lat="50.842100" lon="4.357670"/>
      <trkpt lat="50.841700" lon="4.358460"/>
      <trkpt lat="50.841270" lon="4.358250"/>
      <trkpt lat="50.841050" lon="4.357720"/>
      <trkpt lat="50.841030" lon="4.357420"/>
      <trkpt lat="50.841420" lon="4.357600"/>
      <trkpt lat="50.841360" lon="4.356360"/>
      <trkpt lat="50.841250" lon="4.355990"/>
      <trkpt lat="50.840460" lon="4.355470"/>
      <trkpt lat="50.840110" lon="4.354540"/>
      <trkpt lat="50.839520" lon="4.353720"/>
      <trkpt lat="50.840000" lon="4.353180"/>
      <trkpt lat="50.840260" lon="4.353200"/>
      <trkpt lat="50.840650" lon="4.352620"/>
      <trkpt lat="50.840220" lon="4.351760"/>
      <trkpt lat="50.840170" lon="4.351070"/>
      <trkpt lat="50.839970" lon="4.350960"/>
      <trkpt lat="50.839470" lon="4.351360"/>
      <trkpt lat="50.839190" lon="4.350660"/>
      <trkpt lat="50.838990" lon="4.349880"/>
      <trkpt lat="50.838570" lon="4.350310"/>
      <trkpt lat="50.838070" lon="4.350460"/>
      <trkpt lat="50.837960" lon="4.351110"/>
      <trkpt lat="50.838300" lon="4.351560"/>
      <trkpt lat="50.838740" lon="4.352170"/>
      <trkpt lat="50.838740" lon="4.352820"/>
      <trkpt lat="50.838930" lon="4.353300"/>
      <trkpt lat="50.839160" lon="4.352490"/>
      <trkpt lat="50.838790" lon="4.354350"/>
      <trkpt lat="50.838980" lon="4.355030"/>
      <trkpt lat="50.838430" lon="4.355070"/>
      <trkpt lat="50.838390" lon="4.355720"/>
      <trkpt lat="50.837770" lon="4.356110"/>
      <trkpt lat="50.837800" lon="4.356930"/>
      <trkpt lat="50.838280" lon="4.356910"/>
      <trkpt lat="50.838680" lon="4.357910"/>
      <trkpt lat="50.839320" lon="4.357110"/>
      <trkpt lat="50.839250" lon="4.356780"/>
      <trkpt lat="50.839680" lon="4.356010"/>
      <trkpt lat="50.840050" lon="4.357040"/>
      <trkpt lat="50.840350" lon="4.356550"/>
      <trkpt lat="50.840050" lon="4.357760"/>
      <trkpt lat="50.839840" lon="4.358150"/>
      <trkpt lat="50.839550" lon="4.357760"/>
      <trkpt lat="50.840320" lon="4.358650"/>
      <trkpt lat="50.840450" lon="4.359200"/>
      <trkpt lat="50.840160" lon="4.359890"/>
      <trkpt lat="50.839810" lon="4.359250"/>
      <trkpt lat="50.838840" lon="4.359310"/>
      <trkpt lat="50.838970" lon="4.360220"/>
      <trkpt lat="50.838530" lon="4.360870"/>
      <trkpt lat="50.838180" lon="4.361520"/>
      <trkpt lat="50.838670" lon="4.361970"/>
      <trkpt lat="50.839210" lon="4.361100"/>
      <trkpt lat="50.839440" lon="4.361250"/>
      <trkpt lat="50.840430" lon="4.361620"/>
      <trkpt lat="50.840580" lon="4.360980"/>
      <trkpt lat="50.841140" lon="4.359830"/>
      <trkpt lat="50.841490" lon="4.359660"/>
      <trkpt lat="50.842330" lon="4.359500"/>
      <trkpt lat="50.842360" lon="4.360380"/>
      <trkpt lat="50.843050" lon="4.360260"/>
      <trkpt lat="50.843410" lon="4.360440"/>
      <trkpt lat="50.843240" lon="4.361120"/>
      <trkpt lat="50.842930" lon="4.361950"/>
      <trkpt lat="50.842540" lon="4.362290"/>
      <trkpt lat="50.842150" lon="4.362370"/>
      <trkpt lat="50.842070" lon="4.361790"/>
      <trkpt lat="50.842910" lon="4.362810"/>
      <trkpt lat="50.843250" lon="4.363430"/>
      <trkpt lat="50.843430" lon="4.363050"/>
      <trkpt lat="50.843720" lon="4.362960"/>
      <trkpt lat="50.843870" lon="4.363500"/>
      <trkpt lat="50.844330" lon="4.363190"/>
      <trkpt lat="50.845000" lon="4.363270"/>
      <trkpt lat="50.845070" lon="4.363790"/>
      <trkpt lat="50.844850" lon="4.364010"/>
      <trkpt lat="50.844710" lon="4.364730"/>
      <trkpt lat="50.845220" lon="4.364920"/>
      <trkpt lat="50.845670" lon="4.364220"/>
      <trkpt lat="50.845870" lon="4.364560"/>
      <trkpt lat="50.846480" lon="4.364630"/>
      <trkpt lat="50.846350" lon="4.365340"/>
      <trkpt lat="50.845940" lon="4.365590"/>
      <trkpt lat="50.845690" lon="4.366780"/>
      <trkpt lat="50.845850" lon="4.367750"/>
      <trkpt lat="50.846700" lon="4.367020"/>
      <trkpt lat="50.846910" lon="4.367440"/>
      <trkpt lat="50.847310" lon="4.368020"/>
      <trkpt lat="50.847920" lon="4.368140"/>
      <trkpt lat="50.847960" lon="4.367500"/>
      <trkpt lat="50.847670" lon="4.367020"/>
      <trkpt lat="50.848450" lon="4.367010"/>
      <trkpt lat="50.848800" lon="4.366840"/>
      <trkpt lat="50.849410" lon="4.366980"/>
      <trkpt lat="50.849690" lon="4.366460"/>
      <trkpt lat="50.849110" lon="4.365650"/>
      <trkpt lat="50.848630" lon="4.364790"/>
      <trkpt lat="50.848340" lon="4.365020"/>
      <trkpt lat="50.848000" lon="4.364900"/>
      <trkpt lat="50.848060" lon="4.364290"/>
      <trkpt lat="50.847990" lon="4.363740"/>
      <trkpt lat="50.847780" lon="4.363120"/>
      <trkpt lat="50.847400" lon="4.362880"/>
      <trkpt lat="50.846790" lon="4.363170"/>
      <trkpt lat="50.846610" lon="4.362570"/>
      <trkpt lat="50.846130" lon="4.363290"/>
      <trkpt lat="50.845620" lon="4.362900"/>
      <trkpt lat="50.845390" lon="4.361510"/>
      <trkpt lat="50.846040" lon="4.361370"/>
      <trkpt lat="50.846080" lon="4.360270"/>
      <trkpt lat="50.846560" lon="4.360160"/>
      <trkpt lat="50.847000" lon="4.360280"/>
      <trkpt lat="50.846910" lon="4.359630"/>
      <trkpt lat="50.847590" lon="4.359720"/>
      <trkpt lat="50.847800" lon="4.359630"/>
      <trkpt lat="50.847810" lon="4.359190"/>
      <trkpt lat="50.847580" lon="4.358640"/>
      <trkpt lat="50.847700" lon="4.358350"/>
      <trkpt lat="50.847870" lon="4.358190"/>
      <trkpt lat="50.847710" lon="4.357590"/>
      <trkpt lat="50.846760" lon="4.357820"/>
      <trkpt lat="50.846290" lon="4.358510"/>
      <trkpt lat="50.845650" lon="4.359600"/>
      <trkpt lat="50.844890" lon="4.359460"/>
      <trkpt lat="50.844510" lon="4.358800"/>
      <trkpt lat="50.844190" lon="4.358390"/>
      <trkpt lat="50.844190" lon="4.359340"/>
      <trkpt lat="50.844420" lon="4.360040"/>
      <trkpt lat="50.844190" lon="4.360310"/>
      <trkpt lat="50.844140" lon="4.360840"/>
      <trkpt lat="50.844100" lon="4.361530"/>
      <trkpt lat="50.844710" lon="4.360530"/>
      <trkpt lat="50.843300" lon="4.359250"/>
      <trkpt lat="50.842910" lon="4.359650"/>
      <trkpt lat="50.842130" lon="4.356380"/>
      <trkpt lat="50.842440" lon="4.356010"/>
      <trkpt lat="50.842070" lon="4.355230"/>
      <trkpt lat="50.842470" lon="4.354380"/>
      <trkpt lat="50.841630" lon="4.354190"/>
      <trkpt lat="50.841230" lon="4.354480"/>
      <trkpt lat="50.841360" lon="4.353460"/>
      <trkpt lat="50.841580" lon="4.352770"/>
      <trkpt lat="50.841960" lon="4.353000"/>
      <trkpt lat="50.842070" lon="4.352760"/>
      <trkpt lat="50.842100" lon="4.352180"/>
      <trkpt lat="50.842100" lon="4.351530"/>
      <trkpt lat="50.842270" lon="4.350550"/>
      <trkpt lat="50.841850" lon="4.350160"/>
      <trkpt lat="50.841230" lon="4.350540"/>
      <trkpt lat="50.841320" lon="4.351540"/>
      <trkpt lat="50.840590" lon="4.350200"/>
      <trkpt lat="50.840950" lon="4.349490"/>
      <trkpt lat="50.840860" lon="4.348930"/>
      <trkpt lat="50.841660" lon="4.348780"/>
      <trkpt lat="50.841480" lon="4.348080"/>
      <trkpt lat="50.841640" lon="4.347770"/>
      <trkpt lat="50.841990" lon="4.347510"/>
      <trkpt lat="50.841560" lon="4.347150"/>
      <trkpt lat="50.840730" lon="4.347440"/>
      <trkpt lat="50.840410" lon="4.347170"/>
      <trkpt lat="50.839890" lon="4.346560"/>
      <trkpt lat="50.839180" lon="4.346340"/>
      <trkpt lat="50.839060" lon="4.346060"/>
      <trkpt lat="50.839080" lon="4.347250"/>
      <trkpt lat="50.838790" lon="4.348440"/>
      <trkpt lat="50.839310" lon="4.348780"/>
      <trkpt lat="50.840090" lon="4.348130"/>
      <trkpt lat="50.840680" lon="4.346160"/>
      <trkpt lat="50.840960" lon="4.345670"/>
      <trkpt lat="50.841400" lon="4.345000"/>
      <trkpt lat="50.842210" lon="4.345280"/>
      <trkpt lat="50.842440" lon="4.345800"/>
      <trkpt lat="50.843020" lon="4.345840"/>
      <trkpt lat="50.842840" lon="4.345110"/>
      <trkpt lat="50.843270" lon="4.344810"/>
      <trkpt lat="50.843670" lon="4.344430"/>
      <trkpt lat="50.843600" lon="4.344090"/>
      <trkpt lat="50.843010" lon="4.343830"/>
      <trkpt lat="50.843310" lon="4.342710"/>
      <trkpt lat="50.843440" lon="4.341130"/>
      <trkpt lat="50.844330" lon="4.343690"/>
      <trkpt lat="50.844630" lon="4.344040"/>
      <trkpt lat="50.844940" lon="4.343760"/>
      <trkpt lat="50.845290" lon="4.343940"/>
      <trkpt lat="50.845110" lon="4.343200"/>
      <trkpt lat="50.846040" lon="4.342510"/>
      <trkpt lat="50.846590" lon="4.342130"/>
      <trkpt lat="50.846910" lon="4.341770"/>
      <trkpt lat="50.847510" lon="4.341370"/>
      <trkpt lat="50.847680" lon="4.342080"/>
      <trkpt lat="50.848530" lon="4.342600"/>
      <trkpt lat="50.848150" lon="4.343600"/>
      <trkpt lat="50.848280" lon="4.344060"/>
      <trkpt lat="50.848230" lon="4.345060"/>
      <trkpt lat="50.848800" lon="4.345660"/>
      <trkpt lat="50.848870" lon="4.346470"/>
      <trkpt lat="50.849270" lon="4.347250"/>
      <trkpt lat="50.849120" lon="4.348190"/>
      <trkpt lat="50.848660" lon="4.348340"/>
      <trkpt lat="50.848540" lon="4.349300"/>
      <trkpt lat="50.848250" lon="4.349860"/>
      <trkpt lat="50.847940" lon="4.349900"/>
      <trkpt lat="50.847790" lon="4.350220"/>
      <trkpt lat="50.848120" lon="4.350540"/>
      <trkpt lat="50.848760" lon="4.350940"/>
      <trkpt lat="50.849170" lon="4.350240"/>
      <trkpt lat="50.849820" lon="4.350560"/>
      <trkpt lat="50.850040" lon="4.350220"/>
      <trkpt lat="50.850300" lon="4.349590"/>
      <trkpt lat="50.850860" lon="4.349800"/>
      <trkpt lat="50.850960" lon="4.349180"/>
      <trkpt lat="50.851100" lon="4.348590"/>
      <trkpt lat="50.851170" lon="4.348150"/>
      <trkpt lat="50.851560" lon="4.348350"/>
      <trkpt lat="50.852050" lon="4.348650"/>
      <trkpt lat="50.852460" lon="4.348180"/>
      <trkpt lat="50.852100" lon="4.347510"/>
      <trkpt lat="50.852100" lon="4.346230"/>
      <trkpt lat="50.852510" lon="4.345820"/>
      <trkpt lat="50.852100" lon="4.345270"/>
      <trkpt lat="50.851420" lon="4.344830"/>
      <trkpt lat="50.850780" lon="4.344410"/>
      <trkpt lat="50.850150" lon="4.345170"/>
      <trkpt lat="50.849960" lon="4.346340"/>
      <trkpt lat="50.850590" lon="4.347110"/>
      <trkpt lat="50.850690" lon="4.347970"/>
      <trkpt lat="50.850430" lon="4.348210"/>
      <trkpt lat="50.850060" lon="4.347790"/>
      <trkpt lat="50.849920" lon="4.347990"/>
      <trkpt lat="50.849660" lon="4.348970"/>
      <trkpt lat="50.849620" lon="4.351380"/>
      <trkpt lat="50.848990" lon="4.352310"/>
      <trkpt lat="50.849310" lon="4.353290"/>
      <trkpt lat="50.849840" lon="4.353480"/>
      <trkpt lat="50.850540" lon="4.353960"/>
      <trkpt lat="50.850360" lon="4.354480"/>
      <trkpt lat="50.850090" lon="4.355320"/>
      <trkpt lat="50.849840" lon="4.356420"/>
      <trkpt lat="50.849470" lon="4.356160"/>
      <trkpt lat="50.848970" lon="4.356890"/>
      <trkpt lat="50.849950" lon="4.357210"/>
      <trkpt lat="50.850530" lon="4.357550"/>
      <trkpt lat="50.850670" lon="4.356610"/>
      <trkpt lat="50.851320" lon="4.356890"/>
      <trkpt lat="50.851680" lon="4.356200"/>
      <trkpt lat="50.851990" lon="4.356640"/>
      <trkpt lat="50.852540" lon="4.357810"/>
      <trkpt lat="50.853290" lon="4.359400"/>
      <trkpt lat="50.853070" lon="4.360040"/>
      <trkpt lat="50.853460" lon="4.360310"/>
      <trkpt lat="50.852440" lon="4.361380"/>
      <trkpt lat="50.852270" lon="4.361950"/>
      <trkpt lat="50.852070" lon="4.362100"/>
      <trkpt lat="50.851880" lon="4.362600"/>
      <trkpt lat="50.851050" lon="4.362720"/>
      <trkpt lat="50.851110" lon="4.361870"/>
      <trkpt lat="50.850470" lon="4.360900"/>
      <trkpt lat="50.850650" lon="4.360500"/>
      <trkpt lat="50.851090" lon="4.360070"/>
      <trkpt lat="50.850860" lon="4.359020"/>
      <trkpt lat="50.851200" lon="4.358670"/>
      <trkpt lat="50.852020" lon="4.359760"/>
      <trkpt lat="50.850090" lon="4.360430"/>
      <trkpt lat="50.850160" lon="4.361180"/>
      <trkpt lat="50.849490" lon="4.361140"/>
      <trkpt lat="50.848820" lon="4.362010"/>
      <trkpt lat="50.848280" lon="4.363010"/>
      <trkpt lat="50.847690" lon="4.361870"/>
      <trkpt lat="50.847500" lon="4.361780"/>
      <trkpt lat="50.847360" lon="4.361220"/>
      <trkpt lat="50.847640" lon="4.361100"/>
      <trkpt lat="50.848110" lon="4.360670"/>
      <trkpt lat="50.848360" lon="4.360850"/>
      <trkpt lat="50.848340" lon="4.360040"/>
      <trkpt lat="50.847660" lon="4.360220"/>
      <trkpt lat="50.847120" lon="4.361700"/>
      <trkpt lat="50.847360" lon="4.364790"/>
      <trkpt lat="50.847290" lon="4.365590"/>
      <trkpt lat="50.849080" lon="4.364410"/>
      <trkpt lat="50.849860" lon="4.364120"/>
      <trkpt lat="50.850110" lon="4.363540"/>
      <trkpt lat="50.849950" lon="4.362770"/>
      <trkpt lat="50.850510" lon="4.364430"/>
      <trkpt lat="50.850840" lon="4.364330"/>
      <trkpt lat="50.850670" lon="4.365090"/>
      <trkpt lat="50.851290" lon="4.364850"/>
      <trkpt lat="50.851860" lon="4.365140"/>
      <trkpt lat="50.849820" lon="4.365200"/>
      <trkpt lat="50.848650" lon="4.368080"/>
      <trkpt lat="50.844330" lon="4.366080"/>
      <trkpt lat="50.843890" lon="4.365870"/>
      <trkpt lat="50.843540" lon="4.365270"/>
      <trkpt lat="50.844090" lon="4.365100"/>
      <trkpt lat="50.843140" lon="4.364250"/>
      <trkpt lat="50.842680" lon="4.363740"/>
      <trkpt lat="50.842520" lon="4.364340"/>
      <trkpt lat="50.842290" lon="4.365030"/>
      <trkpt lat="50.842030" lon="4.365050"/>
      <trkpt lat="50.842020" lon="4.364150"/>
      <trkpt lat="50.841420" lon="4.364950"/>
      <trkpt lat="50.840840" lon="4.365220"/>
      <trkpt lat="50.840470" lon="4.364420"/>
      <trkpt lat="50.840500" lon="4.363590"/>
      <trkpt lat="50.840070" lon="4.363480"/>
      <trkpt lat="50.840460" lon="4.362710"/>
      <trkpt lat="50.842020" lon="4.366210"/>
      <trkpt lat="50.842430" lon="4.366390"/>
      <trkpt lat="50.842660" lon="4.365810"/>
      <trkpt lat="50.842660" lon="4.367230"/>
      <trkpt lat="50.842970" lon="4.367590"/>
      <trkpt lat="50.843420" lon="4.366930"/>
      <trkpt lat="50.837900" lon="4.359500"/>
      <trkpt lat="50.837760" lon="4.358920"/>
      <trkpt lat="50.837480" lon="4.358240"/>
      <trkpt lat="50.837240" lon="4.355570"/>
      <trkpt lat="50.837250" lon="4.354870"/>
      <trkpt lat="50.837530" lon="4.354680"/>
      <trkpt lat="50.837300" lon="4.353790"/>
      <trkpt lat="50.837620" lon="4.353480"/>
      <trkpt lat="50.837870" lon="4.352320"/>
      <trkpt lat="50.837190" lon="4.352230"/>
      <trkpt lat="50.838060" lon="4.349580"/>
      <trkpt lat="50.839880" lon="4.345360"/>
      <trkpt lat="50.840160" lon="4.344780"/>
      <trkpt lat="50.841070" lon="4.343310"/>
      <trkpt lat="50.841400" lon="4.342630"/>
      <trkpt lat="50.842040" lon="4.343310"/>
      <trkpt lat="50.843360" lon="4.346420"/>
      <trkpt lat="50.843780" lon="4.346310"/>
      <trkpt lat="50.844090" lon="4.345510"/>
      <trkpt lat="50.844780" lon="4.345710"/>
      <trkpt lat="50.845270" lon="4.346270"/>
      <trkpt lat="50.845590" lon="4.345940"/>
      <trkpt lat="50.846160" lon="4.345560"/>
      <trkpt lat="50.846480" lon="4.344770"/>
      <trkpt lat="50.846200" lon="4.344270"/>
      <trkpt lat="50.846360" lon="4.346590"/>
      <trkpt lat="50.846600" lon="4.347090"/>
      <trkpt lat="50.846690" lon="4.347650"/>
      <trkpt lat="50.847110" lon="4.346910"/>
      <trkpt lat="50.847040" lon="4.346470"/>
      <trkpt lat="50.847710" lon="4.347190"/>
      <trkpt lat="50.847860" lon="4.346840"/>
      <trkpt lat="50.848120" lon="4.347450"/>
      <trkpt lat="50.847720" lon="4.348810"/>
      <trkpt lat="50.847220" lon="4.348280"/>
      <trkpt lat="50.846940" lon="4.348710"/>
      <trkpt lat="50.846640" lon="4.348940"/>
      <trkpt lat="50.846870" lon="4.349240"/>
      <trkpt lat="50.846630" lon="4.349500"/>
      <trkpt lat="50.846870" lon="4.350140"/>
      <trkpt lat="50.846470" lon="4.350400"/>
      <trkpt lat="50.846910" lon="4.350960"/>
      <trkpt lat="50.845810" lon="4.350440"/>
      <trkpt lat="50.845240" lon="4.351190"/>
      <trkpt lat="50.845000" lon="4.349970"/>
      <trkpt lat="50.844640" lon="4.350200"/>
      <trkpt lat="50.844420" lon="4.349430"/>
      <trkpt lat="50.843660" lon="4.349690"/>
      <trkpt lat="50.843650" lon="4.349050"/>
      <trkpt lat="50.843270" lon="4.348670"/>
      <trkpt lat="50.843170" lon="4.348030"/>
      <trkpt lat="50.843310" lon="4.347330"/>
      <trkpt lat="50.842550" lon="4.347320"/>
      <trkpt lat="50.842360" lon="4.348480"/>
      <trkpt lat="50.843000" lon="4.350540"/>
      <trkpt lat="50.843410" lon="4.350880"/>
      <trkpt lat="50.843680" lon="4.350960"/>
      <trkpt lat="50.843900" lon="4.350660"/>
      <trkpt lat="50.844170" lon="4.350970"/>
      <trkpt lat="50.842750" lon="4.351530"/>
      <trkpt lat="50.844440" lon="4.348090"/>
      <trkpt lat="50.844190" lon="4.347780"/>
      <trkpt lat="50.844970" lon="4.348470"/>
      <trkpt lat="50.845200" lon="4.347800"/>
      <trkpt lat="50.845880" lon="4.348210"/>
      <trkpt lat="50.845980" lon="4.347880"/>
      <trkpt lat="50.845240" lon="4.349340"/>
      <trkpt lat="50.850790" lon="4.353230"/>
      <trkpt lat="50.851500" lon="4.353160"/>
      <trkpt lat="50.851650" lon="4.352710"/>
      <trkpt lat="50.852020" lon="4.353300"/>
      <trkpt lat="50.851900" lon="4.353990"/>
      <trkpt lat="50.852360" lon="4.354400"/>
      <trkpt lat="50.852630" lon="4.354230"/>
      <trkpt lat="50.852390" lon="4.355000"/>
      <trkpt lat="50.852800" lon="4.355290"/>
      <trkpt lat="50.852790" lon="4.355840"/>
      <trkpt lat="50.853020" lon="4.355940"/>
      <trkpt lat="50.853370" lon="4.355230"/>
      <trkpt lat="50.853700" lon="4.354590"/>
      <trkpt lat="50.853750" lon="4.353780"/>
      <trkpt lat="50.853130" lon="4.352850"/>
      <trkpt lat="50.852990" lon="4.353110"/>
      <trkpt lat="50.853190" lon="4.352390"/>
      <trkpt lat="50.853040" lon="4.351530"/>
      <trkpt lat="50.853140" lon="4.350740"/>
      <trkpt lat="50.852570" lon="4.350170"/>
      <trkpt lat="50.852600" lon="4.349580"/>
      <trkpt lat="50.852640" lon="4.349230"/>
      <trkpt lat="50.851600" lon="4.350040"/>
      <trkpt lat="50.851620" lon="4.350900"/>
      <trkpt lat="50.852160" lon="4.351210"/>
      <trkpt lat="50.851160" lon="4.352020"/>
      <trkpt lat="50.851600" lon="4.354730"/>
      <trkpt lat="50.853750" lon="4.356040"/>
      <trkpt lat="50.854080" lon="4.357250"/>
      <trkpt lat="50.853970" lon="4.358160"/>
      <trkpt lat="50.854740" lon="4.354540"/>
      <trkpt lat="50.854690" lon="4.352080"/>
      <trkpt lat="50.854170" lon="4.351870"/>
      <trkpt lat="50.853860" lon="4.350170"/>
      <trkpt lat="50.853740" lon="4.348370"/>
      <trkpt lat="50.853130" lon="4.346770"/>
      <trkpt lat="50.850970" lon="4.342900"/>
      <trkpt lat="50.848680" lon="4.341420"/>
      <trkpt lat="50.850140" lon="4.358340"/>
      <trkpt lat="50.849130" lon="4.359520"/>
    </trkseg>
  </trk>
</gpx>
