<?xml version="1.0" encoding="UTF-8"?>
<gpx xmlns="http://www.topografix.com/GPX/1/1"
     xmlns:pgr="https://joshuaspence.github.io/pokemon-go-gpx-routes/gpx/1"
     version="1.1"
     creator="https://github.com/joshuaspence/pokemon-go-gpx-routes">
  <trk>
    <name>Ibirapuera Park</name>
    <extensions>
      <pgr:city>São Paulo</pgr:city>
      <pgr:country>Brazil</pgr:country>
      <pgr:variant>long</pgr:variant>
    </extensions>
    <trkseg>
      <trkpt lat="-23.585856" lon="-46.655580"/>
      <trkpt lat="-23.585879" lon="-46.655589"/>
      <trkpt lat="-23.585998" lon="-46.655491"/>
      <trkpt lat="-23.586258" lon="-46.655855"/>
      <trkpt lat="-23.586381" lon="-46.655750"/>
      <trkpt lat="-23.586423" lon="-46.655640"/>
      <trkpt lat="-23.586376" lon="-46.655373"/>
      <trkpt lat="-23.586410" lon="-46.655239"/>
      <trkpt lat="-23.587274" lon="-46.653872"/>
      <trkpt lat="-23.587285" lon="-46.654049"/>
      <trkpt lat="-23.587331" lon="-46.654190"/>
      <trkpt lat="-23.587462" lon="-46.654447"/>
      <trkpt lat="-23.587645" lon="-46.654675"/>
      <trkpt lat="-23.587769" lon="-46.654787"/>
      <trkpt lat="-23.588009" lon="-46.654896"/>
      <trkpt lat="-23.588425" lon="-46.654938"/>
      <trkpt lat="-23.588510" lon="-46.654996"/>
      <trkpt lat="-23.588563" lon="-46.655081"/>
      <trkpt lat="-23.588587" lon="-46.655206"/>
      <trkpt lat="-23.588568" lon="-46.655577"/>
      <trkpt lat="-23.588285" lon="-46.655589"/>
      <trkpt lat="-23.588186" lon="-46.655667"/>
      <trkpt lat="-23.587732" lon="-46.656551"/>
      <trkpt lat="-23.587918" lon="-46.656894"/>
      <trkpt lat="-23.587631" lon="-46.657157"/>
      <trkpt lat="-23.587669" lon="-46.657197"/>
      <trkpt lat="-23.587350" lon="-46.657582"/>
      <trkpt lat="-23.586921" lon="-46.658281"/>
      <trkpt lat="-23.586804" lon="-46.658521"/>
      <trkpt lat="-23.586714" lon="-46.658860"/>
      <trkpt lat="-23.586540" lon="-46.660020"/>
      <trkpt lat="-23.586444" lon="-46.660281"/>
      <trkpt lat="-23.586333" lon="-46.660425"/>
      <trkpt lat="-23.586158" lon="-46.660561"/>
      <trkpt lat="-23.585903" lon="-46.660696"/>
      <trkpt lat="-23.585766" lon="-46.660713"/>
      <trkpt lat="-23.585165" lon="-46.660556"/>
      <trkpt lat="-23.584990" lon="-46.660471"/>
      <trkpt lat="-23.584497" lon="-46.660131"/>
      <trkpt lat="-23.584308" lon="-46.660119"/>
      <trkpt lat="-23.583724" lon="-46.660247"/>
      <trkpt lat="-23.583365" lon="-46.660156"/>
      <trkpt lat="-23.583208" lon="-46.660079"/>
      <trkpt lat="-23.582932" lon="-46.659808"/>
      <trkpt lat="-23.582841" lon="-46.659574"/>
      <trkpt lat="-23.582849" lon="-46.659476"/>
      <trkpt lat="-23.582944" lon="-46.659201"/>
      <trkpt lat="-23.583276" lon="-46.658716"/>
      <trkpt lat="-23.583434" lon="-46.658420"/>
      <trkpt lat="-23.583485" lon="-46.658170"/>
      <trkpt lat="-23.583471" lon="-46.657883"/>
      <trkpt lat="-23.583288" lon="-46.657697"/>
      <trkpt lat="-23.583426" lon="-46.657469"/>
      <trkpt lat="-23.583481" lon="-46.657254"/>
      <trkpt lat="-23.583589" lon="-46.657029"/>
      <trkpt lat="-23.583699" lon="-46.656886"/>
      <trkpt lat="-23.584079" lon="-46.656573"/>
      <trkpt lat="-23.584957" lon="-46.656077"/>
      <trkpt lat="-23.585398" lon="-46.655885"/>
      <trkpt lat="-23.585587" lon="-46.655739"/>
      <trkpt lat="-23.585737" lon="-46.655695"/>
      <trkpt lat="-23.585853" lon="-46.655580"/>
    </trkseg>
  </trk>
</gpx>
