<?xml version="1.0" encoding="UTF-8"?>
<gpx xmlns="http://www.topografix.com/GPX/1/1"
     xmlns:pgr="https://joshuaspence.github.io/pokemon-go-gpx-routes/gpx/1"
     version="1.1"
     creator="https://github.com/joshuaspence/pokemon-go-gpx-routes">
  <trk>
    <name>Ibirapuera Park</name>
    <extensions>
      <pgr:city>São Paulo</pgr:city>
      <pgr:country>Brazil</pgr:country>
      <pgr:variant>short</pgr:variant>
    </extensions>
    <trkseg>
      <trkpt lat="-23.585856" lon="-46.655580"/>
      <trkpt lat="-23.585879" lon="-46.655589"/>
      <trkpt lat="-23.585998" lon="-46.655491"/>
      <trkpt lat="-23.586258" lon="-46.655855"/>
      <trkpt lat="-23.586381" lon="-46.655750"/>
      <trkpt lat="-23.586423" lon="-46.655640"/>
      <trkpt lat="-23.586376" lon="-46.655373"/>
      <trkpt lat="-23.586410" lon="-46.655239"/>
      <trkpt lat="-23.587274" lon="-46.653872"/>
      <trkpt lat="-23.587285" lon="-46.654049"/>
      <trkpt lat="-23.587331" lon="-46.654190"/>
      <trkpt lat="-23.587462" lon="-46.654447"/>
      <trkpt lat="-23.587645" lon="-46.654675"/>
      <trkpt lat="-23.587769" lon="-46.654787"/>
      <trkpt lat="-23.588009" lon="-46.654896"/>
      <trkpt lat="-23.588425" lon="-46.654938"/>
      <trkpt lat="-23.588510" lon="-46.654996"/>
      <trkpt lat="-23.588563" lon="-46.655081"/>
      <trkpt lat="-23.588587" lon="-46.655206"/>
      <trkpt lat="-23.588568" lon="-46.655577"/>
      <trkpt lat="-23.588285" lon="-46.655589"/>
      <trkpt lat="-23.588186" lon="-46.655667"/>
      <trkpt lat="-23.586688" lon="-46.658539"/>
      <trkpt lat="-23.584779" lon="-46.656178"/>
      <trkpt lat="-23.585398" lon="-46.655885"/>
      <trkpt lat="-23.585587" lon="-46.655739"/>
      <trkpt lat="-23.585737" lon="-46.655695"/>
      <trkpt lat="-23.585853" lon="-46.655580"/>
    </trkseg>
  </trk>
</gpx>
