<?xml version="1.0" encoding="UTF-8"?>
<gpx xmlns="http://www.topografix.com/GPX/1/1" version="1.1">
  <trk>
    <name>Ashburton Domain, Ashburton, Canterbury</name>
    <desc>New Zealand</desc>
    <trkseg>
      <trkpt lat="-43.897048" lon="171.750851"/>
      <trkpt lat="-43.897451" lon="171.750989"/>
      <trkpt lat="-43.897327" lon="171.751712"/>
      <trkpt lat="-43.897667" lon="171.751544"/>
      <trkpt lat="-43.898102" lon="171.751019"/>
      <trkpt lat="-43.898357" lon="171.750625"/>
      <trkpt lat="-43.898261" lon="171.751675"/>
      <trkpt lat="-43.897749" lon="171.752208"/>
      <trkpt lat="-43.898267" lon="171.752418"/>
      <trkpt lat="-43.898084" lon="171.752915"/>
      <trkpt lat="-43.897865" lon="171.753439"/>
      <trkpt lat="-43.898392" lon="171.753264"/>
      <trkpt lat="-43.898543" lon="171.753635"/>
      <trkpt lat="-43.898337" lon="171.753869"/>
      <trkpt lat="-43.897939" lon="171.754167"/>
      <trkpt lat="-43.897804" lon="171.755003"/>
      <trkpt lat="-43.898142" lon="171.755803"/>
      <trkpt lat="-43.898454" lon="171.755196"/>
      <trkpt lat="-43.898326" lon="171.754758"/>
      <trkpt lat="-43.898938" lon="171.754287"/>
      <trkpt lat="-43.899238" lon="171.753639"/>
      <trkpt lat="-43.899498" lon="171.753627"/>
      <trkpt lat="-43.898832" lon="171.752259"/>
      <trkpt lat="-43.899167" lon="171.752894"/>
      <trkpt lat="-43.899832" lon="171.752956"/>
      <trkpt lat="-43.899806" lon="171.752553"/>
      <trkpt lat="-43.900031" lon="171.752116"/>
      <trkpt lat="-43.900060" lon="171.751795"/>
      <trkpt lat="-43.900977" lon="171.751174"/>
      <trkpt lat="-43.901449" lon="171.750551"/>
      <trkpt lat="-43.900405" lon="171.750808"/>
      <trkpt lat="-43.900326" lon="171.750264"/>
      <trkpt lat="-43.900085" lon="171.750335"/>
      <trkpt lat="-43.899783" lon="171.750951"/>
      <trkpt lat="-43.899727" lon="171.751400"/>
      <trkpt lat="-43.899187" lon="171.751369"/>
      <trkpt lat="-43.898996" lon="171.751197"/>
      <trkpt lat="-43.899190" lon="171.750937"/>
      <trkpt lat="-43.899162" lon="171.750157"/>
      <trkpt lat="-43.899372" lon="171.749740"/>
      <trkpt lat="-43.898838" lon="171.750461"/>
      <trkpt lat="-43.898858" lon="171.749983"/>
      <trkpt lat="-43.898318" lon="171.749429"/>
      <trkpt lat="-43.898818" lon="171.748868"/>
      <trkpt lat="-43.898352" lon="171.748667"/>
      <trkpt lat="-43.898818" lon="171.747785"/>
      <trkpt lat="-43.898241" lon="171.747810"/>
      <trkpt lat="-43.898044" lon="171.747939"/>
      <trkpt lat="-43.896709" lon="171.747936"/>
      <trkpt lat="-43.896180" lon="171.747549"/>
      <trkpt lat="-43.895760" lon="171.747739"/>
      <trkpt lat="-43.896073" lon="171.748284"/>
      <trkpt lat="-43.896108" lon="171.748835"/>
      <trkpt lat="-43.895005" lon="171.748938"/>
      <trkpt lat="-43.894931" lon="171.749435"/>
      <trkpt lat="-43.895632" lon="171.749787"/>
      <trkpt lat="-43.896606" lon="171.750114"/>
    </trkseg>
  </trk>
</gpx>
