<?xml version="1.0" encoding="UTF-8"?>
<gpx xmlns="http://www.topografix.com/GPX/1/1"
     xmlns:pgr="https://joshuaspence.github.io/pokemon-go-gpx-routes/gpx/1"
     version="1.1">
  <trk>
    <name>Botanic Garden</name>
    <extensions>
      <pgr:city>Wellington</pgr:city>
      <pgr:country>New Zealand</pgr:country>
    </extensions>
    <trkseg>
      <trkpt lat="-41.284912" lon="174.766660"/>
      <trkpt lat="-41.284977" lon="174.767644"/>
      <trkpt lat="-41.284657" lon="174.768345"/>
      <trkpt lat="-41.284424" lon="174.767459"/>
      <trkpt lat="-41.284372" lon="174.768280"/>
      <trkpt lat="-41.283956" lon="174.767888"/>
      <trkpt lat="-41.283992" lon="174.767093"/>
      <trkpt lat="-41.283660" lon="174.767208"/>
      <trkpt lat="-41.284028" lon="174.766445"/>
      <trkpt lat="-41.283625" lon="174.766356"/>
      <trkpt lat="-41.283910" lon="174.765887"/>
      <trkpt lat="-41.283667" lon="174.765575"/>
      <trkpt lat="-41.282981" lon="174.765687"/>
      <trkpt lat="-41.282965" lon="174.766473"/>
      <trkpt lat="-41.282132" lon="174.766450"/>
      <trkpt lat="-41.281641" lon="174.767092"/>
      <trkpt lat="-41.281549" lon="174.767636"/>
      <trkpt lat="-41.282070" lon="174.768064"/>
      <trkpt lat="-41.282381" lon="174.768387"/>
      <trkpt lat="-41.282864" lon="174.769309"/>
      <trkpt lat="-41.283109" lon="174.769582"/>
      <trkpt lat="-41.282202" lon="174.769418"/>
      <trkpt lat="-41.281973" lon="174.769949"/>
      <trkpt lat="-41.282137" lon="174.770317"/>
      <trkpt lat="-41.281931" lon="174.770550"/>
      <trkpt lat="-41.281667" lon="174.770040"/>
      <trkpt lat="-41.281370" lon="174.770735"/>
      <trkpt lat="-41.281154" lon="174.770418"/>
      <trkpt lat="-41.280825" lon="174.769951"/>
      <trkpt lat="-41.280641" lon="174.770029"/>
      <trkpt lat="-41.280387" lon="174.770287"/>
      <trkpt lat="-41.279776" lon="174.770956"/>
      <trkpt lat="-41.280376" lon="174.769218"/>
      <trkpt lat="-41.280043" lon="174.768849"/>
      <trkpt lat="-41.280032" lon="174.768606"/>
      <trkpt lat="-41.280263" lon="174.768491"/>
      <trkpt lat="-41.280782" lon="174.768763"/>
      <trkpt lat="-41.280788" lon="174.769201"/>
      <trkpt lat="-41.281576" lon="174.769038"/>
      <trkpt lat="-41.281326" lon="174.768218"/>
      <trkpt lat="-41.280840" lon="174.767722"/>
      <trkpt lat="-41.280740" lon="174.767177"/>
      <trkpt lat="-41.280857" lon="174.766801"/>
      <trkpt lat="-41.281570" lon="174.766371"/>
      <trkpt lat="-41.281645" lon="174.765964"/>
      <trkpt lat="-41.281862" lon="174.765573"/>
      <trkpt lat="-41.281735" lon="174.765158"/>
      <trkpt lat="-41.282068" lon="174.765446"/>
      <trkpt lat="-41.282640" lon="174.764932"/>
      <trkpt lat="-41.282534" lon="174.763582"/>
      <trkpt lat="-41.283138" lon="174.763154"/>
      <trkpt lat="-41.283296" lon="174.763592"/>
      <trkpt lat="-41.283474" lon="174.762603"/>
      <trkpt lat="-41.283564" lon="174.762331"/>
      <trkpt lat="-41.284541" lon="174.762021"/>
      <trkpt lat="-41.284197" lon="174.763231"/>
      <trkpt lat="-41.284714" lon="174.762861"/>
      <trkpt lat="-41.284989" lon="174.764479"/>
      <trkpt lat="-41.283631" lon="174.764629"/>
      <trkpt lat="-41.284292" lon="174.765045"/>
      <trkpt lat="-41.284828" lon="174.765174"/>
      <trkpt lat="-41.284490" lon="174.765791"/>
      <trkpt lat="-41.284912" lon="174.766660"/>
    </trkseg>
  </trk>
</gpx>
