<?xml version="1.0" encoding="utf-8" standalone="yes"?>
<gpx xmlns="http://www.topografix.com/GPX/1/1" xmlns:xsi="http://www.w3.org/2001/XMLSchema-instance" version="1.1" creator="GPS Visualizer http://www.gpsvisualizer.com/" xsi:schemaLocation="http://www.topografix.com/GPX/1/1 http://www.topografix.com/GPX/1/1/gpx.xsd">
  <trk>
    <name>0</name>
    <trkseg>
      <trkpt lat="49.871538" lon="-97.238943"/>
      <trkpt lat="49.871238" lon="-97.238570"/>
      <trkpt lat="49.870886" lon="-97.238078"/>
      <trkpt lat="49.870163" lon="-97.238157"/>
      <trkpt lat="49.869907" lon="-97.238926"/>
      <trkpt lat="49.869537" lon="-97.239176"/>
      <trkpt lat="49.869479" lon="-97.239724"/>
      <trkpt lat="49.869068" lon="-97.239268"/>
      <trkpt lat="49.869037" lon="-97.238269"/>
      <trkpt lat="49.868905" lon="-97.240446"/>
      <trkpt lat="49.868247" lon="-97.240514"/>
      <trkpt lat="49.867976" lon="-97.240445"/>
      <trkpt lat="49.867765" lon="-97.241430"/>
      <trkpt lat="49.868557" lon="-97.241463"/>
      <trkpt lat="49.869336" lon="-97.241475"/>
      <trkpt lat="49.870145" lon="-97.242183"/>
      <trkpt lat="49.870402" lon="-97.241152"/>
      <trkpt lat="49.871258" lon="-97.241531"/>
      <trkpt lat="49.871662" lon="-97.240867"/>
      <trkpt lat="49.871025" lon="-97.240069"/>
      <trkpt lat="49.871536" lon="-97.239571"/>
      <trkpt lat="49.872197" lon="-97.238847"/>
      <trkpt lat="49.872929" lon="-97.238283"/>
      <trkpt lat="49.872384" lon="-97.237535"/>
      <trkpt lat="49.871696" lon="-97.237532"/>
      <trkpt lat="49.870562" lon="-97.235802"/>
      <trkpt lat="49.871355" lon="-97.233184"/>
      <trkpt lat="49.871849" lon="-97.232501"/>
      <trkpt lat="49.871908" lon="-97.232087"/>
      <trkpt lat="49.872114" lon="-97.230757"/>
      <trkpt lat="49.872614" lon="-97.229720"/>
      <trkpt lat="49.873028" lon="-97.231177"/>
      <trkpt lat="49.873283" lon="-97.231349"/>
      <trkpt lat="49.873386" lon="-97.231850"/>
      <trkpt lat="49.873802" lon="-97.231816"/>
      <trkpt lat="49.873791" lon="-97.232451"/>
      <trkpt lat="49.873742" lon="-97.233244"/>
      <trkpt lat="49.873502" lon="-97.233621"/>
      <trkpt lat="49.873883" lon="-97.234195"/>
      <trkpt lat="49.873809" lon="-97.234822"/>
      <trkpt lat="49.873301" lon="-97.234592"/>
      <trkpt lat="49.874015" lon="-97.235711"/>
      <trkpt lat="49.874300" lon="-97.236620"/>
      <trkpt lat="49.874442" lon="-97.236928"/>
      <trkpt lat="49.874836" lon="-97.237265"/>
      <trkpt lat="49.874780" lon="-97.238013"/>
      <trkpt lat="49.874669" lon="-97.239615"/>
      <trkpt lat="49.874523" lon="-97.240226"/>
      <trkpt lat="49.873692" lon="-97.240465"/>
      <trkpt lat="49.873405" lon="-97.239331"/>
      <trkpt lat="49.873884" lon="-97.239257"/>
      <trkpt lat="49.873698" lon="-97.238579"/>
      <trkpt lat="49.872491" lon="-97.240692"/>
      <trkpt lat="49.873431" lon="-97.241793"/>
      <trkpt lat="49.873708" lon="-97.241734"/>
      <trkpt lat="49.873594" lon="-97.242746"/>
      <trkpt lat="49.873280" lon="-97.243181"/>
      <trkpt lat="49.872817" lon="-97.242505"/>
      <trkpt lat="49.874753" lon="-97.236278"/>
      <trkpt lat="49.874932" lon="-97.236362"/>
      <trkpt lat="49.874950" lon="-97.236065"/>
      <trkpt lat="49.874662" lon="-97.235862"/>
      <trkpt lat="49.874983" lon="-97.235279"/>
      <trkpt lat="49.874769" lon="-97.234707"/>
      <trkpt lat="49.874762" lon="-97.234031"/>
      <trkpt lat="49.874371" lon="-97.233448"/>
      <trkpt lat="49.874891" lon="-97.233142"/>
      <trkpt lat="49.874730" lon="-97.231271"/>
      <trkpt lat="49.874302" lon="-97.231136"/>
      <trkpt lat="49.874774" lon="-97.230511"/>
      <trkpt lat="49.874223" lon="-97.229889"/>
      <trkpt lat="49.873577" lon="-97.230492"/>
      <trkpt lat="49.872938" lon="-97.232279"/>
      <trkpt lat="49.873024" lon="-97.232625"/>
      <trkpt lat="49.872008" lon="-97.233471"/>
      <trkpt lat="49.871065" lon="-97.233105"/>
      <trkpt lat="49.870339" lon="-97.235739"/>
      <trkpt lat="49.871704" lon="-97.238526"/>
    </trkseg>
  </trk>
</gpx>
