<?xml version="1.0" encoding="UTF-8"?>
<gpx xmlns="http://www.topografix.com/GPX/1/1" version="1.1">
  <trk>
    <trkseg>
      <trkpt lat="48.203776" lon="16.379648"/>
      <trkpt lat="48.204017" lon="16.378637"/>
      <trkpt lat="48.203136" lon="16.378955"/>
      <trkpt lat="48.202872" lon="16.379353"/>
      <trkpt lat="48.202592" lon="16.379691"/>
      <trkpt lat="48.202191" lon="16.379322"/>
      <trkpt lat="48.202120" lon="16.379860"/>
      <trkpt lat="48.203108" lon="16.380607"/>
      <trkpt lat="48.203499" lon="16.380923"/>
      <trkpt lat="48.203327" lon="16.381691"/>
      <trkpt lat="48.203861" lon="16.381751"/>
      <trkpt lat="48.205051" lon="16.381709"/>
      <trkpt lat="48.206611" lon="16.382196"/>
      <trkpt lat="48.206481" lon="16.381560"/>
      <trkpt lat="48.206810" lon="16.381113"/>
      <trkpt lat="48.206903" lon="16.380387"/>
      <trkpt lat="48.206237" lon="16.380613"/>
      <trkpt lat="48.205703" lon="16.381336"/>
      <trkpt lat="48.204839" lon="16.380792"/>
      <trkpt lat="48.205656" lon="16.379877"/>
      <trkpt lat="48.204566" lon="16.380309"/>
      <trkpt lat="48.204823" lon="16.379491"/>
      <trkpt lat="48.204978" lon="16.379106"/>
      <trkpt lat="48.204491" lon="16.378782"/>
      <trkpt lat="48.204452" lon="16.379690"/>
      <trkpt lat="48.203803" lon="16.379155"/>
      <trkpt lat="48.203165" lon="16.377754"/>
      <trkpt lat="48.202988" lon="16.377579"/>
      <trkpt lat="48.203387" lon="16.376878"/>
    </trkseg>
  </trk>
</gpx>
