<?xml version="1.0" encoding="UTF-8"?>
<gpx xmlns="http://www.topografix.com/GPX/1/1"
     xmlns:pgr="https://joshuaspence.github.io/pokemon-go-gpx-routes/gpx/1"
     version="1.1"
     creator="https://github.com/joshuaspence/pokemon-go-gpx-routes">
  <trk>
    <name>Jardin Botanique</name>
    <extensions>
      <pgr:city>Montreal, Quebec</pgr:city>
      <pgr:country>Canada</pgr:country>
    </extensions>
    <trkseg>
      <trkpt lat="45.564485" lon="-73.570347"/>
      <trkpt lat="45.564221" lon="-73.569195"/>
      <trkpt lat="45.563832" lon="-73.569293"/>
      <trkpt lat="45.563342" lon="-73.569243"/>
      <trkpt lat="45.563520" lon="-73.568648"/>
      <trkpt lat="45.563193" lon="-73.568700"/>
      <trkpt lat="45.562380" lon="-73.570225"/>
      <trkpt lat="45.562404" lon="-73.569797"/>
      <trkpt lat="45.562340" lon="-73.569499"/>
      <trkpt lat="45.563363" lon="-73.566990"/>
      <trkpt lat="45.562470" lon="-73.567331"/>
      <trkpt lat="45.562121" lon="-73.567414"/>
      <trkpt lat="45.561909" lon="-73.566505"/>
      <trkpt lat="45.560247" lon="-73.566990"/>
      <trkpt lat="45.561150" lon="-73.566271"/>
      <trkpt lat="45.561294" lon="-73.565717"/>
      <trkpt lat="45.561791" lon="-73.565133"/>
      <trkpt lat="45.562314" lon="-73.564889"/>
      <trkpt lat="45.562531" lon="-73.563438"/>
      <trkpt lat="45.561975" lon="-73.563682"/>
      <trkpt lat="45.561144" lon="-73.563983"/>
      <trkpt lat="45.560507" lon="-73.564018"/>
      <trkpt lat="45.559231" lon="-73.564916"/>
      <trkpt lat="45.559199" lon="-73.564511"/>
      <trkpt lat="45.558575" lon="-73.563705"/>
      <trkpt lat="45.558201" lon="-73.563477"/>
      <trkpt lat="45.557897" lon="-73.562301"/>
      <trkpt lat="45.557558" lon="-73.561767"/>
      <trkpt lat="45.557195" lon="-73.560983"/>
      <trkpt lat="45.556737" lon="-73.559743"/>
      <trkpt lat="45.557026" lon="-73.558934"/>
      <trkpt lat="45.556252" lon="-73.558413"/>
      <trkpt lat="45.556752" lon="-73.558024"/>
      <trkpt lat="45.557934" lon="-73.556557"/>
      <trkpt lat="45.559059" lon="-73.555867"/>
      <trkpt lat="45.559501" lon="-73.555778"/>
      <trkpt lat="45.561339" lon="-73.557319"/>
      <trkpt lat="45.560006" lon="-73.557503"/>
      <trkpt lat="45.559694" lon="-73.556905"/>
      <trkpt lat="45.559536" lon="-73.557509"/>
      <trkpt lat="45.559157" lon="-73.557979"/>
      <trkpt lat="45.559234" lon="-73.558555"/>
      <trkpt lat="45.559547" lon="-73.558609"/>
      <trkpt lat="45.559526" lon="-73.559260"/>
      <trkpt lat="45.558478" lon="-73.559255"/>
      <trkpt lat="45.558637" lon="-73.559863"/>
      <trkpt lat="45.558091" lon="-73.560084"/>
      <trkpt lat="45.559400" lon="-73.561138"/>
      <trkpt lat="45.559200" lon="-73.561301"/>
      <trkpt lat="45.559148" lon="-73.561809"/>
      <trkpt lat="45.559888" lon="-73.561666"/>
      <trkpt lat="45.559791" lon="-73.562182"/>
      <trkpt lat="45.560362" lon="-73.562520"/>
      <trkpt lat="45.560389" lon="-73.561613"/>
      <trkpt lat="45.560481" lon="-73.561170"/>
      <trkpt lat="45.560171" lon="-73.560138"/>
      <trkpt lat="45.560359" lon="-73.560135"/>
      <trkpt lat="45.560496" lon="-73.559507"/>
      <trkpt lat="45.560944" lon="-73.558546"/>
      <trkpt lat="45.561044" lon="-73.559035"/>
      <trkpt lat="45.561248" lon="-73.559977"/>
      <trkpt lat="45.561311" lon="-73.560757"/>
      <trkpt lat="45.561744" lon="-73.561655"/>
      <trkpt lat="45.561937" lon="-73.562012"/>
      <trkpt lat="45.561947" lon="-73.562519"/>
      <trkpt lat="45.561765" lon="-73.562660"/>
    </trkseg>
  </trk>
</gpx>
