<?xml version="1.0" encoding="UTF-8"?>
<gpx xmlns="http://www.topografix.com/GPX/1/1"
     xmlns:pgr="https://joshuaspence.github.io/pokemon-go-gpx-routes/gpx/1"
     version="1.1"
     creator="https://github.com/joshuaspence/pokemon-go-gpx-routes">
  <trk>
    <name>City Centre</name>
    <extensions>
      <pgr:city>Dortmund, North Rhine-Westphalia</pgr:city>
      <pgr:country>Germany</pgr:country>
    </extensions>
    <trkseg>
      <trkpt lat="51.513690" lon="7.455983"/>
      <trkpt lat="51.513911" lon="7.457314"/>
      <trkpt lat="51.513790" lon="7.457421"/>
      <trkpt lat="51.513911" lon="7.457592"/>
      <trkpt lat="51.514014" lon="7.458102"/>
      <trkpt lat="51.514051" lon="7.458386"/>
      <trkpt lat="51.513991" lon="7.458515"/>
      <trkpt lat="51.513386" lon="7.458628"/>
      <trkpt lat="51.513323" lon="7.458708"/>
      <trkpt lat="51.513283" lon="7.458735"/>
      <trkpt lat="51.513303" lon="7.459599"/>
      <trkpt lat="51.513991" lon="7.459813"/>
      <trkpt lat="51.514224" lon="7.459760"/>
      <trkpt lat="51.514298" lon="7.460709"/>
      <trkpt lat="51.514318" lon="7.461686"/>
      <trkpt lat="51.513797" lon="7.461616"/>
      <trkpt lat="51.513764" lon="7.462399"/>
      <trkpt lat="51.513764" lon="7.462850"/>
      <trkpt lat="51.513550" lon="7.463944"/>
      <trkpt lat="51.513443" lon="7.464631"/>
      <trkpt lat="51.513410" lon="7.465349"/>
      <trkpt lat="51.513817" lon="7.465371"/>
      <trkpt lat="51.513817" lon="7.466025"/>
      <trkpt lat="51.512856" lon="7.466068"/>
      <trkpt lat="51.512902" lon="7.467023"/>
      <trkpt lat="51.513410" lon="7.466830"/>
      <trkpt lat="51.513590" lon="7.467045"/>
      <trkpt lat="51.513804" lon="7.466680"/>
      <trkpt lat="51.513891" lon="7.466669"/>
      <trkpt lat="51.513904" lon="7.467613"/>
      <trkpt lat="51.513971" lon="7.468235"/>
      <trkpt lat="51.513971" lon="7.468343"/>
      <trkpt lat="51.512996" lon="7.468225"/>
      <trkpt lat="51.513136" lon="7.469319"/>
      <trkpt lat="51.512528" lon="7.469480"/>
      <trkpt lat="51.512595" lon="7.470328"/>
      <trkpt lat="51.512642" lon="7.470810"/>
      <trkpt lat="51.512582" lon="7.472355"/>
      <trkpt lat="51.512562" lon="7.472548"/>
      <trkpt lat="51.512856" lon="7.471572"/>
      <trkpt lat="51.513109" lon="7.471218"/>
      <trkpt lat="51.513310" lon="7.471218"/>
      <trkpt lat="51.513417" lon="7.472452"/>
      <trkpt lat="51.514158" lon="7.472484"/>
      <trkpt lat="51.514351" lon="7.471315"/>
      <trkpt lat="51.514478" lon="7.468472"/>
      <trkpt lat="51.515112" lon="7.468536"/>
      <trkpt lat="51.514946" lon="7.466755"/>
      <trkpt lat="51.515333" lon="7.466733"/>
      <trkpt lat="51.515747" lon="7.466444"/>
      <trkpt lat="51.516161" lon="7.466058"/>
      <trkpt lat="51.517015" lon="7.467184"/>
      <trkpt lat="51.517349" lon="7.466776"/>
      <trkpt lat="51.517276" lon="7.466015"/>
      <trkpt lat="51.517222" lon="7.465231"/>
      <trkpt lat="51.516788" lon="7.465296"/>
      <trkpt lat="51.516795" lon="7.464985"/>
      <trkpt lat="51.516855" lon="7.464706"/>
      <trkpt lat="51.516688" lon="7.464384"/>
      <trkpt lat="51.516581" lon="7.464159"/>
      <trkpt lat="51.516468" lon="7.463558"/>
      <trkpt lat="51.515526" lon="7.464116"/>
      <trkpt lat="51.514999" lon="7.464159"/>
      <trkpt lat="51.514632" lon="7.464244"/>
      <trkpt lat="51.514271" lon="7.464180"/>
      <trkpt lat="51.514338" lon="7.463279"/>
      <trkpt lat="51.514418" lon="7.462378"/>
      <trkpt lat="51.515152" lon="7.462528"/>
      <trkpt lat="51.515206" lon="7.461830"/>
      <trkpt lat="51.515880" lon="7.461863"/>
      <trkpt lat="51.516568" lon="7.461669"/>
      <trkpt lat="51.516294" lon="7.459792"/>
      <trkpt lat="51.514999" lon="7.460178"/>
      <trkpt lat="51.514765" lon="7.457882"/>
      <trkpt lat="51.514598" lon="7.456595"/>
      <trkpt lat="51.514158" lon="7.456058"/>
      <trkpt lat="51.513690" lon="7.455983"/>
    </trkseg>
  </trk>
</gpx>
