<?xml version="1.0" encoding="UTF-8"?>
<gpx xmlns="http://www.topografix.com/GPX/1/1" version="1.1" creator="GPS Visualizer http://www.gpsvisualizer.com/">
  <trk>
    <trkseg>
      <trkpt lat="49.383602" lon="8.564771"/>
      <trkpt lat="49.383832" lon="8.564093"/>
      <trkpt lat="49.384126" lon="8.564803"/>
      <trkpt lat="49.384270" lon="8.565677"/>
      <trkpt lat="49.384761" lon="8.566088"/>
      <trkpt lat="49.384803" lon="8.565292"/>
      <trkpt lat="49.385048" lon="8.564568"/>
      <trkpt lat="49.385000" lon="8.563888"/>
      <trkpt lat="49.384733" lon="8.563880"/>
      <trkpt lat="49.385042" lon="8.563072"/>
      <trkpt lat="49.384828" lon="8.562337"/>
      <trkpt lat="49.384240" lon="8.562819"/>
      <trkpt lat="49.383061" lon="8.563409"/>
      <trkpt lat="49.382726" lon="8.563635"/>
      <trkpt lat="49.382777" lon="8.564229"/>
      <trkpt lat="49.382936" lon="8.564904"/>
      <trkpt lat="49.382990" lon="8.565482"/>
      <trkpt lat="49.382787" lon="8.565871"/>
      <trkpt lat="49.382101" lon="8.566309"/>
      <trkpt lat="49.381780" lon="8.565305"/>
      <trkpt lat="49.381199" lon="8.565434"/>
      <trkpt lat="49.380669" lon="8.564973"/>
      <trkpt lat="49.380964" lon="8.564230"/>
      <trkpt lat="49.381085" lon="8.562246"/>
      <trkpt lat="49.380261" lon="8.561907"/>
      <trkpt lat="49.381040" lon="8.560486"/>
      <trkpt lat="49.382079" lon="8.559414"/>
      <trkpt lat="49.382622" lon="8.558815"/>
      <trkpt lat="49.383071" lon="8.561567"/>
      <trkpt lat="49.382742" lon="8.561680"/>
      <trkpt lat="49.382754" lon="8.562065"/>
      <trkpt lat="49.383062" lon="8.562095"/>
      <trkpt lat="49.382479" lon="8.563129"/>
      <trkpt lat="49.383523" lon="8.565697"/>
      <trkpt lat="49.383905" lon="8.566605"/>
      <trkpt lat="49.383495" lon="8.567292"/>
      <trkpt lat="49.383612" lon="8.568010"/>
      <trkpt lat="49.383657" lon="8.568714"/>
      <trkpt lat="49.383894" lon="8.569243"/>
      <trkpt lat="49.383554" lon="8.569353"/>
      <trkpt lat="49.383897" lon="8.570053"/>
      <trkpt lat="49.384069" lon="8.570420"/>
      <trkpt lat="49.383679" lon="8.570454"/>
      <trkpt lat="49.383016" lon="8.570902"/>
      <trkpt lat="49.381856" lon="8.571458"/>
      <trkpt lat="49.381570" lon="8.569683"/>
      <trkpt lat="49.380773" lon="8.568812"/>
      <trkpt lat="49.382258" lon="8.568973"/>
      <trkpt lat="49.382118" lon="8.567901"/>
      <trkpt lat="49.382945" lon="8.568504"/>
      <trkpt lat="49.382889" lon="8.567961"/>
      <trkpt lat="49.384534" lon="8.567997"/>
      <trkpt lat="49.384496" lon="8.567378"/>
      <trkpt lat="49.385093" lon="8.566947"/>
      <trkpt lat="49.385009" lon="8.567318"/>
      <trkpt lat="49.385169" lon="8.567841"/>
      <trkpt lat="49.385156" lon="8.568260"/>
      <trkpt lat="49.384978" lon="8.569533"/>
      <trkpt lat="49.385317" lon="8.569194"/>
      <trkpt lat="49.385972" lon="8.568972"/>
      <trkpt lat="49.386388" lon="8.568055"/>
      <trkpt lat="49.386159" lon="8.567460"/>
      <trkpt lat="49.385872" lon="8.566834"/>
      <trkpt lat="49.386637" lon="8.567061"/>
      <trkpt lat="49.387178" lon="8.566730"/>
      <trkpt lat="49.387460" lon="8.565525"/>
      <trkpt lat="49.386291" lon="8.565813"/>
      <trkpt lat="49.385880" lon="8.565577"/>
      <trkpt lat="49.385545" lon="8.564409"/>
      <trkpt lat="49.385476" lon="8.563774"/>
      <trkpt lat="49.385916" lon="8.562870"/>
      <trkpt lat="49.386432" lon="8.562700"/>
      <trkpt lat="49.386261" lon="8.563417"/>
      <trkpt lat="49.386693" lon="8.563809"/>
      <trkpt lat="49.386441" lon="8.564724"/>
      <trkpt lat="49.387431" lon="8.564644"/>
      <trkpt lat="49.387761" lon="8.563609"/>
      <trkpt lat="49.388287" lon="8.562763"/>
      <trkpt lat="49.388834" lon="8.562377"/>
      <trkpt lat="49.388037" lon="8.562173"/>
      <trkpt lat="49.384423" lon="8.559455"/>
      <trkpt lat="49.384531" lon="8.560605"/>
    </trkseg>
  </trk>
</gpx>
