<?xml version="1.0"?>
<gpx version="1.1" creator="PissLUR">
  <wpt lat="48.408390" lon="10.012122"/>
  <wpt lat="48.407841" lon="10.012243"/>
  <wpt lat="48.407969" lon="10.011633"/>
  <wpt lat="48.408288" lon="10.010838"/>
  <wpt lat="48.408322" lon="10.010066"/>
  <wpt lat="48.408165" lon="10.009642"/>
  <wpt lat="48.409103" lon="10.009419"/>
  <wpt lat="48.409633" lon="10.009053"/>
  <wpt lat="48.409324" lon="10.010453"/>
  <wpt lat="48.408909" lon="10.011183"/>
  <wpt lat="48.409481" lon="10.011558"/>
  <wpt lat="48.409230" lon="10.012024"/>
  <wpt lat="48.409355" lon="10.012252"/>
  <wpt lat="48.409506" lon="10.012647"/>
  <wpt lat="48.410745" lon="10.011894"/>
  <wpt lat="48.411525" lon="10.012277"/>
  <wpt lat="48.410889" lon="10.013228"/>
  <wpt lat="48.410239" lon="10.012886"/>
  <wpt lat="48.410142" lon="10.013598"/>
  <wpt lat="48.410398" lon="10.014238"/>
  <wpt lat="48.409526" lon="10.014316"/>
  <wpt lat="48.409374" lon="10.013900"/>
  <wpt lat="48.408684" lon="10.014918"/>
  <wpt lat="48.408424" lon="10.015663"/>
  <wpt lat="48.408126" lon="10.015602"/>
  <wpt lat="48.407261" lon="10.016053"/>
  <wpt lat="48.406884" lon="10.015971"/>
  <wpt lat="48.406182" lon="10.015590"/>
  <wpt lat="48.405974" lon="10.015051"/>
  <wpt lat="48.405989" lon="10.014351"/>
  <wpt lat="48.406242" lon="10.013643"/>
  <wpt lat="48.406563" lon="10.015184"/>
  <wpt lat="48.407387" lon="10.015061"/>
  <wpt lat="48.408274" lon="10.014749"/>
  <wpt lat="48.408631" lon="10.014446"/>
  <wpt lat="48.408602" lon="10.013298"/>
  <wpt lat="48.407309" lon="10.014695"/>
  <wpt lat="48.407015" lon="10.014588"/>
  <wpt lat="48.407069" lon="10.013435"/>
  <wpt lat="48.406738" lon="10.011463"/>
  <wpt lat="48.406942" lon="10.010207"/>
  <wpt lat="48.406642" lon="10.009300"/>
  <wpt lat="48.406640" lon="10.009989"/>
  <wpt lat="48.407320" lon="10.011918"/>
  <wpt lat="48.407515" lon="10.013748"/>
  <wpt lat="48.407668" lon="10.013012"/>
  <wpt lat="48.408187" lon="10.012102"/>
</gpx>
