<?xml version="1.0" encoding="UTF-8"?>
<gpx xmlns="http://www.topografix.com/GPX/1/1" version="1.1">
  <trk>
    <name>Westfalenpark, Dortmund, North Rhine-Westphalia (2)</name>
    <desc>Germany</desc>
    <trkseg>
      <trkpt lat="51.496644" lon="7.469652"/>
      <trkpt lat="51.496447" lon="7.470392"/>
      <trkpt lat="51.496935" lon="7.471669"/>
      <trkpt lat="51.496501" lon="7.473359"/>
      <trkpt lat="51.496184" lon="7.472999"/>
      <trkpt lat="51.495566" lon="7.473122"/>
      <trkpt lat="51.495355" lon="7.473552"/>
      <trkpt lat="51.495779" lon="7.473788"/>
      <trkpt lat="51.496167" lon="7.474126"/>
      <trkpt lat="51.496294" lon="7.474716"/>
      <trkpt lat="51.496978" lon="7.474034"/>
      <trkpt lat="51.496765" lon="7.475488"/>
      <trkpt lat="51.496985" lon="7.475601"/>
      <trkpt lat="51.496287" lon="7.476304"/>
      <trkpt lat="51.497236" lon="7.476186"/>
      <trkpt lat="51.497549" lon="7.476727"/>
      <trkpt lat="51.496952" lon="7.477409"/>
      <trkpt lat="51.497199" lon="7.477532"/>
      <trkpt lat="51.497453" lon="7.477768"/>
      <trkpt lat="51.498585" lon="7.477419"/>
      <trkpt lat="51.497937" lon="7.478637"/>
      <trkpt lat="51.497473" lon="7.478546"/>
      <trkpt lat="51.496788" lon="7.478036"/>
      <trkpt lat="51.496177" lon="7.478278"/>
      <trkpt lat="51.495793" lon="7.478315"/>
      <trkpt lat="51.496170" lon="7.479056"/>
      <trkpt lat="51.496220" lon="7.480037"/>
      <trkpt lat="51.496801" lon="7.478943"/>
      <trkpt lat="51.497072" lon="7.479329"/>
      <trkpt lat="51.496868" lon="7.480096"/>
      <trkpt lat="51.497636" lon="7.479866"/>
      <trkpt lat="51.497463" lon="7.480831"/>
      <trkpt lat="51.497289" lon="7.481571"/>
      <trkpt lat="51.496725" lon="7.481030"/>
      <trkpt lat="51.496250" lon="7.481797"/>
      <trkpt lat="51.495789" lon="7.481357"/>
      <trkpt lat="51.495689" lon="7.480643"/>
      <trkpt lat="51.495439" lon="7.481775"/>
      <trkpt lat="51.495309" lon="7.482575"/>
      <trkpt lat="51.494590" lon="7.482204"/>
      <trkpt lat="51.494901" lon="7.483031"/>
      <trkpt lat="51.494704" lon="7.483900"/>
      <trkpt lat="51.494540" lon="7.484994"/>
      <trkpt lat="51.494333" lon="7.485917"/>
      <trkpt lat="51.494146" lon="7.486673"/>
      <trkpt lat="51.493832" lon="7.486914"/>
      <trkpt lat="51.493492" lon="7.487746"/>
      <trkpt lat="51.492941" lon="7.487960"/>
      <trkpt lat="51.492653" lon="7.486871"/>
      <trkpt lat="51.493231" lon="7.486399"/>
      <trkpt lat="51.493358" lon="7.486855"/>
      <trkpt lat="51.493722" lon="7.486169"/>
      <trkpt lat="51.493882" lon="7.485085"/>
      <trkpt lat="51.493712" lon="7.484243"/>
      <trkpt lat="51.494083" lon="7.483004"/>
      <trkpt lat="51.493802" lon="7.483250"/>
      <trkpt lat="51.493031" lon="7.482467"/>
      <trkpt lat="51.492667" lon="7.480831"/>
      <trkpt lat="51.492146" lon="7.480445"/>
      <trkpt lat="51.492019" lon="7.479807"/>
      <trkpt lat="51.491488" lon="7.478970"/>
      <trkpt lat="51.493415" lon="7.478975"/>
      <trkpt lat="51.493575" lon="7.481786"/>
      <trkpt lat="51.493695" lon="7.480005"/>
      <trkpt lat="51.493909" lon="7.480284"/>
      <trkpt lat="51.495158" lon="7.479393"/>
      <trkpt lat="51.494367" lon="7.477752"/>
      <trkpt lat="51.493856" lon="7.477065"/>
      <trkpt lat="51.494210" lon="7.476363"/>
      <trkpt lat="51.493826" lon="7.476030"/>
      <trkpt lat="51.494039" lon="7.475778"/>
      <trkpt lat="51.494594" lon="7.475869"/>
      <trkpt lat="51.495746" lon="7.477087"/>
      <trkpt lat="51.495172" lon="7.476261"/>
      <trkpt lat="51.494210" lon="7.474861"/>
      <trkpt lat="51.494881" lon="7.474716"/>
      <trkpt lat="51.494470" lon="7.473584"/>
      <trkpt lat="51.493602" lon="7.473144"/>
      <trkpt lat="51.492744" lon="7.474110"/>
      <trkpt lat="51.493044" lon="7.474791"/>
      <trkpt lat="51.491818" lon="7.474973"/>
      <trkpt lat="51.492209" lon="7.473707"/>
      <trkpt lat="51.492353" lon="7.473181"/>
      <trkpt lat="51.492673" lon="7.472420"/>
      <trkpt lat="51.492991" lon="7.471722"/>
      <trkpt lat="51.493335" lon="7.471610"/>
      <trkpt lat="51.493933" lon="7.471771"/>
      <trkpt lat="51.494657" lon="7.471460"/>
      <trkpt lat="51.494320" lon="7.472216"/>
      <trkpt lat="51.494874" lon="7.472726"/>
      <trkpt lat="51.495195" lon="7.472060"/>
      <trkpt lat="51.496060" lon="7.471712"/>
      <trkpt lat="51.495622" lon="7.471202"/>
      <trkpt lat="51.495806" lon="7.469448"/>
      <trkpt lat="51.496621" lon="7.469636"/>
    </trkseg>
  </trk>
</gpx>
