<?xml version="1.0" encoding="UTF-8"?>
<gpx xmlns="http://www.topografix.com/GPX/1/1" version="1.1" creator="GPS Visualizer http://www.gpsvisualizer.com/">
  <trk>
    <name>0</name>
    <trkseg>
      <wpt lat="37.515497" lon="127.056239"/>
      <wpt lat="37.515651" lon="127.057829"/>
      <wpt lat="37.515353" lon="127.057476"/>
      <wpt lat="37.515294" lon="127.057103"/>
      <wpt lat="37.514469" lon="127.056571"/>
      <wpt lat="37.514650" lon="127.057417"/>
      <wpt lat="37.514488" lon="127.057938"/>
      <wpt lat="37.514014" lon="127.058000"/>
      <wpt lat="37.513557" lon="127.058101"/>
      <wpt lat="37.513769" lon="127.058699"/>
      <wpt lat="37.514014" lon="127.058000"/>
      <wpt lat="37.514667" lon="127.060444"/>
      <wpt lat="37.514125" lon="127.060856"/>
      <wpt lat="37.513481" lon="127.061005"/>
      <wpt lat="37.513547" lon="127.059313"/>
      <wpt lat="37.513250" lon="127.059800"/>
      <wpt lat="37.512931" lon="127.060392"/>
      <wpt lat="37.512480" lon="127.060465"/>
      <wpt lat="37.512281" lon="127.059969"/>
      <wpt lat="37.512030" lon="127.060131"/>
      <wpt lat="37.511780" lon="127.059854"/>
      <wpt lat="37.511898" lon="127.060690"/>
      <wpt lat="37.511710" lon="127.060815"/>
      <wpt lat="37.511438" lon="127.060917"/>
      <wpt lat="37.510842" lon="127.061511"/>
      <wpt lat="37.510045" lon="127.061971"/>
      <wpt lat="37.509117" lon="127.062029"/>
      <wpt lat="37.509024" lon="127.062299"/>
      <wpt lat="37.508348" lon="127.062435"/>
      <wpt lat="37.507567" lon="127.062126"/>
      <wpt lat="37.508057" lon="127.061223"/>
      <wpt lat="37.508741" lon="127.060940"/>
      <wpt lat="37.508258" lon="127.060111"/>
      <wpt lat="37.508057" lon="127.061223"/>
      <wpt lat="37.507649" lon="127.061153"/>
      <wpt lat="37.506729" lon="127.061198"/>
      <wpt lat="37.507294" lon="127.059838"/>
      <wpt lat="37.507213" lon="127.059577"/>
      <wpt lat="37.506958" lon="127.059143"/>
      <wpt lat="37.507102" lon="127.058107"/>
      <wpt lat="37.507309" lon="127.057365"/>
      <wpt lat="37.506245" lon="127.056591"/>
      <wpt lat="37.506237" lon="127.055571"/>
      <wpt lat="37.505930" lon="127.055144"/>
      <wpt lat="37.505759" lon="127.053855"/>
      <wpt lat="37.506039" lon="127.053154"/>
      <wpt lat="37.506254" lon="127.053645"/>
      <wpt lat="37.506550" lon="127.054826"/>
      <wpt lat="37.507446" lon="127.055931"/>
      <wpt lat="37.507637" lon="127.056356"/>
      <wpt lat="37.507454" lon="127.057707"/>
      <wpt lat="37.508402" lon="127.058909"/>
      <wpt lat="37.509027" lon="127.059277"/>
      <wpt lat="37.509310" lon="127.058429"/>
      <wpt lat="37.509900" lon="127.058891"/>
      <wpt lat="37.510600" lon="127.058270"/>
      <wpt lat="37.512322" lon="127.058378"/>
      <wpt lat="37.512851" lon="127.057718"/>
      <wpt lat="37.513557" lon="127.058101"/>
      <wpt lat="37.513456" lon="127.057446"/>
      <wpt lat="37.514469" lon="127.056571"/>
    </trkseg>
  </trk>
</gpx>
