<?xml version="1.0" encoding="UTF-8"?>
<gpx xmlns="http://www.topografix.com/GPX/1/1" version="1.1">
  <trk>
    <name>Les Quatre Temps, Paris</name>
    <desc>France</desc>
    <trkseg>
      <trkpt lat="48.890841" lon="2.236350"/>
      <trkpt lat="48.890407" lon="2.239359"/>
      <trkpt lat="48.890298" lon="2.238941"/>
      <trkpt lat="48.890633" lon="2.237954"/>
      <trkpt lat="48.890160" lon="2.237659"/>
      <trkpt lat="48.890411" lon="2.236409"/>
      <trkpt lat="48.890851" lon="2.235765"/>
      <trkpt lat="48.890933" lon="2.235358"/>
      <trkpt lat="48.891042" lon="2.235383"/>
      <trkpt lat="48.891188" lon="2.235994"/>
      <trkpt lat="48.890911" lon="2.236352"/>
      <trkpt lat="48.890834" lon="2.236345"/>
    </trkseg>
  </trk>
</gpx>
