<?xml version="1.0" encoding="UTF-8"?>
<gpx xmlns="http://www.topografix.com/GPX/1/1"
     xmlns:pgr="https://joshuaspence.github.io/pokemon-go-gpx-routes/gpx/1"
     version="1.1">
  <trk>
    <name>Pere Lachaise Cemetery</name>
    <extensions>
      <pgr:city>Paris</pgr:city>
      <pgr:country>France</pgr:country>
    </extensions>
    <trkseg>
      <trkpt lat="48.859241" lon="2.393809"/>
      <trkpt lat="48.858891" lon="2.394004"/>
      <trkpt lat="48.858587" lon="2.393401"/>
      <trkpt lat="48.858337" lon="2.393464"/>
      <trkpt lat="48.858193" lon="2.394177"/>
      <trkpt lat="48.858076" lon="2.394757"/>
      <trkpt lat="48.858408" lon="2.394975"/>
      <trkpt lat="48.858258" lon="2.395641"/>
      <trkpt lat="48.858231" lon="2.396085"/>
      <trkpt lat="48.858630" lon="2.395715"/>
      <trkpt lat="48.858774" lon="2.396576"/>
      <trkpt lat="48.858900" lon="2.396926"/>
      <trkpt lat="48.858742" lon="2.397818"/>
      <trkpt lat="48.858574" lon="2.398440"/>
      <trkpt lat="48.859066" lon="2.398706"/>
      <trkpt lat="48.859406" lon="2.399197"/>
      <trkpt lat="48.859635" lon="2.399486"/>
      <trkpt lat="48.860074" lon="2.399790"/>
      <trkpt lat="48.860524" lon="2.399733"/>
      <trkpt lat="48.860468" lon="2.399394"/>
      <trkpt lat="48.860088" lon="2.398627"/>
      <trkpt lat="48.859946" lon="2.398097"/>
      <trkpt lat="48.859334" lon="2.397751"/>
      <trkpt lat="48.859625" lon="2.397357"/>
      <trkpt lat="48.859117" lon="2.397024"/>
      <trkpt lat="48.859342" lon="2.396452"/>
      <trkpt lat="48.859943" lon="2.396283"/>
      <trkpt lat="48.859621" lon="2.395988"/>
      <trkpt lat="48.859321" lon="2.395753"/>
      <trkpt lat="48.859126" lon="2.395492"/>
      <trkpt lat="48.859582" lon="2.394977"/>
      <trkpt lat="48.859815" lon="2.394468"/>
      <trkpt lat="48.859576" lon="2.394624"/>
      <trkpt lat="48.858859" lon="2.393016"/>
      <trkpt lat="48.859041" lon="2.392662"/>
      <trkpt lat="48.859213" lon="2.391586"/>
      <trkpt lat="48.859542" lon="2.392225"/>
      <trkpt lat="48.859758" lon="2.391440"/>
      <trkpt lat="48.859918" lon="2.392408"/>
      <trkpt lat="48.860226" lon="2.392681"/>
      <trkpt lat="48.859922" lon="2.393507"/>
      <trkpt lat="48.860538" lon="2.394289"/>
      <trkpt lat="48.860659" lon="2.394889"/>
      <trkpt lat="48.860191" lon="2.395386"/>
      <trkpt lat="48.860085" lon="2.395878"/>
      <trkpt lat="48.860799" lon="2.395539"/>
      <trkpt lat="48.860550" lon="2.395813"/>
      <trkpt lat="48.860734" lon="2.396215"/>
      <trkpt lat="48.860780" lon="2.396629"/>
      <trkpt lat="48.860346" lon="2.396994"/>
      <trkpt lat="48.860774" lon="2.397732"/>
      <trkpt lat="48.861135" lon="2.397933"/>
      <trkpt lat="48.860557" lon="2.398498"/>
      <trkpt lat="48.861190" lon="2.398840"/>
      <trkpt lat="48.861353" lon="2.399108"/>
      <trkpt lat="48.861833" lon="2.398810"/>
      <trkpt lat="48.862161" lon="2.398392"/>
      <trkpt lat="48.862066" lon="2.397710"/>
      <trkpt lat="48.861840" lon="2.397943"/>
      <trkpt lat="48.861785" lon="2.397405"/>
      <trkpt lat="48.861321" lon="2.397507"/>
      <trkpt lat="48.861833" lon="2.396915"/>
      <trkpt lat="48.861093" lon="2.396629"/>
      <trkpt lat="48.861849" lon="2.395985"/>
      <trkpt lat="48.861722" lon="2.395231"/>
      <trkpt lat="48.861388" lon="2.394196"/>
      <trkpt lat="48.861217" lon="2.394108"/>
      <trkpt lat="48.860681" lon="2.393829"/>
      <trkpt lat="48.861070" lon="2.393539"/>
      <trkpt lat="48.860530" lon="2.393404"/>
      <trkpt lat="48.860400" lon="2.392591"/>
      <trkpt lat="48.860649" lon="2.392863"/>
      <trkpt lat="48.861115" lon="2.392721"/>
      <trkpt lat="48.861023" lon="2.392241"/>
      <trkpt lat="48.861132" lon="2.391480"/>
      <trkpt lat="48.860603" lon="2.391679"/>
      <trkpt lat="48.860614" lon="2.390959"/>
      <trkpt lat="48.860800" lon="2.390234"/>
      <trkpt lat="48.860448" lon="2.389655"/>
      <trkpt lat="48.860137" lon="2.390585"/>
      <trkpt lat="48.859725" lon="2.389798"/>
      <trkpt lat="48.859668" lon="2.389350"/>
      <trkpt lat="48.859972" lon="2.389161"/>
      <trkpt lat="48.860254" lon="2.389335"/>
      <trkpt lat="48.860284" lon="2.388960"/>
      <trkpt lat="48.860940" lon="2.388849"/>
      <trkpt lat="48.861087" lon="2.389224"/>
      <trkpt lat="48.861325" lon="2.389996"/>
      <trkpt lat="48.861802" lon="2.391119"/>
      <trkpt lat="48.861925" lon="2.392374"/>
      <trkpt lat="48.861529" lon="2.392967"/>
      <trkpt lat="48.861996" lon="2.394088"/>
      <trkpt lat="48.861748" lon="2.394409"/>
      <trkpt lat="48.862379" lon="2.394802"/>
      <trkpt lat="48.862301" lon="2.396071"/>
      <trkpt lat="48.862255" lon="2.397122"/>
      <trkpt lat="48.862527" lon="2.396770"/>
      <trkpt lat="48.863136" lon="2.397108"/>
      <trkpt lat="48.863377" lon="2.397200"/>
      <trkpt lat="48.863297" lon="2.396733"/>
      <trkpt lat="48.863257" lon="2.396034"/>
      <trkpt lat="48.863713" lon="2.395729"/>
      <trkpt lat="48.863591" lon="2.395197"/>
      <trkpt lat="48.863118" lon="2.394743"/>
      <trkpt lat="48.863057" lon="2.394004"/>
      <trkpt lat="48.862553" lon="2.393151"/>
      <trkpt lat="48.862168" lon="2.392538"/>
      <trkpt lat="48.862598" lon="2.391696"/>
      <trkpt lat="48.862092" lon="2.391521"/>
      <trkpt lat="48.862241" lon="2.390989"/>
      <trkpt lat="48.861788" lon="2.390140"/>
      <trkpt lat="48.861262" lon="2.388622"/>
      <trkpt lat="48.862012" lon="2.388271"/>
      <trkpt lat="48.862557" lon="2.388119"/>
      <trkpt lat="48.862483" lon="2.388694"/>
      <trkpt lat="48.862776" lon="2.389838"/>
      <trkpt lat="48.862646" lon="2.390042"/>
      <trkpt lat="48.863331" lon="2.389639"/>
      <trkpt lat="48.863290" lon="2.390619"/>
      <trkpt lat="48.863049" lon="2.390857"/>
      <trkpt lat="48.863614" lon="2.390970"/>
      <trkpt lat="48.863550" lon="2.391658"/>
      <trkpt lat="48.863229" lon="2.391571"/>
      <trkpt lat="48.863122" lon="2.392646"/>
      <trkpt lat="48.863968" lon="2.392414"/>
      <trkpt lat="48.863194" lon="2.393393"/>
      <trkpt lat="48.863571" lon="2.393626"/>
      <trkpt lat="48.863971" lon="2.394965"/>
      <trkpt lat="48.864201" lon="2.394924"/>
      <trkpt lat="48.864069" lon="2.395270"/>
      <trkpt lat="48.864871" lon="2.394953"/>
      <trkpt lat="48.861030" lon="2.395345"/>
      <trkpt lat="48.861201" lon="2.396100"/>
    </trkseg>
  </trk>
</gpx>
