<?xml version="1.0" encoding="UTF-8"?>
<gpx xmlns="http://www.topografix.com/GPX/1/1"
     xmlns:pgr="https://joshuaspence.github.io/pokemon-go-gpx-routes/gpx/1"
     version="1.1"
     creator="https://github.com/joshuaspence/pokemon-go-gpx-routes">
  <trk>
    <name>Golden Gate Bridge</name>
    <extensions>
      <pgr:city>San Francisco, California</pgr:city>
      <pgr:country>United States</pgr:country>
    </extensions>
    <trkseg>
      <trkpt lat="37.810665" lon="-122.477646"/>
      <trkpt lat="37.810712" lon="-122.477078"/>
      <trkpt lat="37.810410" lon="-122.476590"/>
      <trkpt lat="37.809858" lon="-122.477469"/>
      <trkpt lat="37.809689" lon="-122.476229"/>
      <trkpt lat="37.808467" lon="-122.476399"/>
      <trkpt lat="37.808032" lon="-122.476690"/>
      <trkpt lat="37.808153" lon="-122.476447"/>
      <trkpt lat="37.808654" lon="-122.475287"/>
      <trkpt lat="37.807834" lon="-122.475544"/>
      <trkpt lat="37.807700" lon="-122.475240"/>
      <trkpt lat="37.807891" lon="-122.474599"/>
      <trkpt lat="37.808097" lon="-122.474177"/>
      <trkpt lat="37.807894" lon="-122.473205"/>
      <trkpt lat="37.807416" lon="-122.472403"/>
      <trkpt lat="37.807615" lon="-122.472413"/>
      <trkpt lat="37.808431" lon="-122.472667"/>
      <trkpt lat="37.808769" lon="-122.471748"/>
      <trkpt lat="37.808567" lon="-122.471388"/>
      <trkpt lat="37.808409" lon="-122.471017"/>
      <trkpt lat="37.808443" lon="-122.470765"/>
      <trkpt lat="37.809220" lon="-122.469439"/>
      <trkpt lat="37.807901" lon="-122.469777"/>
      <trkpt lat="37.807035" lon="-122.469039"/>
      <trkpt lat="37.805911" lon="-122.469948"/>
      <trkpt lat="37.806085" lon="-122.469190"/>
      <trkpt lat="37.806300" lon="-122.468603"/>
      <trkpt lat="37.805920" lon="-122.468146"/>
      <trkpt lat="37.804955" lon="-122.469850"/>
      <trkpt lat="37.804170" lon="-122.469436"/>
      <trkpt lat="37.804973" lon="-122.468529"/>
      <trkpt lat="37.805448" lon="-122.467513"/>
      <trkpt lat="37.805541" lon="-122.466812"/>
      <trkpt lat="37.804404" lon="-122.468231"/>
      <trkpt lat="37.804092" lon="-122.468090"/>
      <trkpt lat="37.803785" lon="-122.467655"/>
      <trkpt lat="37.802900" lon="-122.467163"/>
      <trkpt lat="37.803629" lon="-122.466400"/>
      <trkpt lat="37.805012" lon="-122.464829"/>
      <trkpt lat="37.802885" lon="-122.462408"/>
      <trkpt lat="37.804608" lon="-122.461122"/>
      <trkpt lat="37.804885" lon="-122.459932"/>
    </trkseg>
  </trk>
</gpx>
