<?xml version="1.0" encoding="UTF-8"?>
<gpx xmlns="http://www.topografix.com/GPX/1/1"
     xmlns:pgr="https://joshuaspence.github.io/pokemon-go-gpx-routes/gpx/1"
     version="1.1"
     creator="https://github.com/joshuaspence/pokemon-go-gpx-routes">
  <trk>
    <name>Slater Memorial Park</name>
    <extensions>
      <pgr:city>Pawtucket, Rhode Island</pgr:city>
      <pgr:country>United States</pgr:country>
    </extensions>
    <trkseg>
      <trkpt lat="41.869113" lon="-71.345737"/>
      <trkpt lat="41.869370" lon="-71.345666"/>
      <trkpt lat="41.870076" lon="-71.345023"/>
      <trkpt lat="41.870373" lon="-71.345824"/>
      <trkpt lat="41.870242" lon="-71.346877"/>
      <trkpt lat="41.869874" lon="-71.346784"/>
      <trkpt lat="41.869303" lon="-71.347303"/>
      <trkpt lat="41.868936" lon="-71.347743"/>
      <trkpt lat="41.868721" lon="-71.347344"/>
      <trkpt lat="41.868549" lon="-71.346683"/>
      <trkpt lat="41.868064" lon="-71.347070"/>
      <trkpt lat="41.867616" lon="-71.347696"/>
      <trkpt lat="41.867321" lon="-71.347507"/>
      <trkpt lat="41.867051" lon="-71.347732"/>
      <trkpt lat="41.867088" lon="-71.348321"/>
      <trkpt lat="41.867391" lon="-71.348835"/>
      <trkpt lat="41.867766" lon="-71.348216"/>
      <trkpt lat="41.868609" lon="-71.348895"/>
      <trkpt lat="41.868788" lon="-71.349409"/>
      <trkpt lat="41.868292" lon="-71.349655"/>
      <trkpt lat="41.868297" lon="-71.350150"/>
      <trkpt lat="41.867980" lon="-71.350288"/>
      <trkpt lat="41.867744" lon="-71.350953"/>
      <trkpt lat="41.867402" lon="-71.350597"/>
      <trkpt lat="41.867210" lon="-71.349640"/>
      <trkpt lat="41.867292" lon="-71.351827"/>
      <trkpt lat="41.867437" lon="-71.352046"/>
      <trkpt lat="41.868235" lon="-71.352120"/>
      <trkpt lat="41.868057" lon="-71.352920"/>
      <trkpt lat="41.867641" lon="-71.353197"/>
      <trkpt lat="41.867760" lon="-71.354274"/>
      <trkpt lat="41.868139" lon="-71.354189"/>
      <trkpt lat="41.868993" lon="-71.354200"/>
      <trkpt lat="41.868989" lon="-71.352867"/>
      <trkpt lat="41.868874" lon="-71.352575"/>
      <trkpt lat="41.868838" lon="-71.351665"/>
      <trkpt lat="41.866568" lon="-71.352670"/>
      <trkpt lat="41.869090" lon="-71.348376"/>
      <trkpt lat="41.870121" lon="-71.347709"/>
      <trkpt lat="41.870402" lon="-71.348743"/>
      <trkpt lat="41.870928" lon="-71.346835"/>
      <trkpt lat="41.871250" lon="-71.346603"/>
      <trkpt lat="41.871486" lon="-71.345015"/>
      <trkpt lat="41.871612" lon="-71.344499"/>
      <trkpt lat="41.871981" lon="-71.344143"/>
      <trkpt lat="41.871624" lon="-71.343532"/>
      <trkpt lat="41.871479" lon="-71.342920"/>
      <trkpt lat="41.872042" lon="-71.342653"/>
      <trkpt lat="41.872394" lon="-71.343295"/>
      <trkpt lat="41.872645" lon="-71.344360"/>
      <trkpt lat="41.872709" lon="-71.344762"/>
      <trkpt lat="41.872372" lon="-71.344858"/>
      <trkpt lat="41.872564" lon="-71.345499"/>
      <trkpt lat="41.872820" lon="-71.345856"/>
      <trkpt lat="41.872603" lon="-71.346103"/>
      <trkpt lat="41.873869" lon="-71.343269"/>
      <trkpt lat="41.873725" lon="-71.342762"/>
      <trkpt lat="41.874457" lon="-71.342098"/>
      <trkpt lat="41.874640" lon="-71.341467"/>
      <trkpt lat="41.875521" lon="-71.342475"/>
      <trkpt lat="41.875176" lon="-71.342746"/>
      <trkpt lat="41.875548" lon="-71.343472"/>
      <trkpt lat="41.875188" lon="-71.343111"/>
      <trkpt lat="41.874517" lon="-71.343403"/>
      <trkpt lat="41.870433" lon="-71.343681"/>
      <trkpt lat="41.870166" lon="-71.343972"/>
      <trkpt lat="41.867617" lon="-71.343319"/>
      <trkpt lat="41.867350" lon="-71.344434"/>
      <trkpt lat="41.867353" lon="-71.345254"/>
      <trkpt lat="41.867388" lon="-71.346442"/>
      <trkpt lat="41.867564" lon="-71.346274"/>
      <trkpt lat="41.869113" lon="-71.345737"/>
    </trkseg>
  </trk>
</gpx>
